{"type": "FeatureCollection", "features": [{"type": "Feature", "geometry": {"type": "Point", "coordinates": [85.106779, 27.856448]}, "properties": {"osm_id": 340605551, "class": "within_50m_of_scour"}}, {"type": "Feature", "geometry": {"type": "Point", "coordinates": [85.106898, 27.856457]}, "properties": {"osm_id": 340605556, "class": "within_50m_of_scour"}}, {"type": "Feature", "geometry": {"type": "Point", "coordinates": [85.106885, 27.856264]}, "properties": {"osm_id": 340605560, "class": "within_50m_of_scour"}}, {"type": "Feature", "geometry": {"type": "Point", "coordinates": [85.101679, 27.857368]}, "properties": {"osm_id": 340605561, "class": "within_50m_of_scour"}}, {"type": "Feature", "geometry": {"type": "Point", "coordinates": [85.106632, 27.856407]}, "properties": {"osm_id": 340605565, "class": "within_50m_of_scour"}}, {"type": "Feature", "geometry": {"type": "Point", "coordinates": [85.10701, 27.856357]}, "properties": {"osm_id": 340605568, "class": "within_50m_of_scour"}}, {"type": "Feature", "geometry": {"type": "Point", "coordinates": [85.101731, 27.857198]}, "properties": {"osm_id": 340605573, "class": "within_50m_of_scour"}}, {"type": "Feature", "geometry": {"type": "Point", "coordinates": [85.101723, 27.857127]}, "properties": {"osm_id": 340605577, "class": "within_50m_of_scour"}}, {"type": "Feature", "geometry": {"type": "Point", "coordinates": [85.101893, 27.857504]}, "properties": {"osm_id": 340605579, "class": "within_50m_of_scour"}}, {"type": "Feature", "geometry": {"type": "Point", "coordinates": [85.106634, 27.856604]}, "properties": {"osm_id": 340605604, "class": "within_50m_of_scour"}}, {"type": "Feature", "geometry": {"type": "Point", "coordinates": [85.107395, 27.856687]}, "properties": {"osm_id": 340605606, "class": "within_50m_of_scour"}}, {"type": "Feature", "geometry": {"type": "Point", "coordinates": [85.106413, 27.856603]}, "properties": {"osm_id": 340605616, "class": "within_50m_of_scour"}}, {"type": "Feature", "geometry": {"type": "Point", "coordinates": [85.106527, 27.856596]}, "properties": {"osm_id": 340605617, "class": "within_50m_of_scour"}}, {"type": "Feature", "geometry": {"type": "Point", "coordinates": [85.106243, 27.85678]}, "properties": {"osm_id": 340605619, "class": "within_50m_of_scour"}}, {"type": "Feature", "geometry": {"type": "Point", "coordinates": [85.106881, 27.856363]}, "properties": {"osm_id": 340605621, "class": "within_50m_of_scour"}}, {"type": "Feature", "geometry": {"type": "Point", "coordinates": [85.106802, 27.856518]}, "properties": {"osm_id": 340605624, "class": "within_50m_of_scour"}}, {"type": "Feature", "geometry": {"type": "Point", "coordinates": [85.102979, 27.856555]}, "properties": {"osm_id": 340605657, "class": "within_50m_of_scour"}}, {"type": "Feature", "geometry": {"type": "Point", "coordinates": [85.103392, 27.85663]}, "properties": {"osm_id": 340605662, "class": "within_50m_of_scour"}}, {"type": "Feature", "geometry": {"type": "Point", "coordinates": [85.103141, 27.856566]}, "properties": {"osm_id": 340605675, "class": "within_50m_of_scour"}}, {"type": "Feature", "geometry": {"type": "Point", "coordinates": [85.111994, 27.862602]}, "properties": {"osm_id": 341332132, "class": "within_50m_of_scour"}}, {"type": "Feature", "geometry": {"type": "Point", "coordinates": [85.174364, 27.966331]}, "properties": {"osm_id": 341622779, "class": "within_50m_of_scour"}}, {"type": "Feature", "geometry": {"type": "Point", "coordinates": [85.137345, 27.918563]}, "properties": {"osm_id": 341629278, "class": "within_50m_of_scour"}}, {"type": "Feature", "geometry": {"type": "Point", "coordinates": [85.079908, 27.854744]}, "properties": {"osm_id": 341653260, "class": "within_50m_of_scour"}}, {"type": "Feature", "geometry": {"type": "Point", "coordinates": [85.081048, 27.85438]}, "properties": {"osm_id": 341653276, "class": "within_50m_of_scour"}}, {"type": "Feature", "geometry": {"type": "Point", "coordinates": [85.081399, 27.854967]}, "properties": {"osm_id": 341653281, "class": "within_50m_of_scour"}}, {"type": "Feature", "geometry": {"type": "Point", "coordinates": [85.081573, 27.855282]}, "properties": {"osm_id": 341653283, "class": "within_50m_of_scour"}}, {"type": "Feature", "geometry": {"type": "Point", "coordinates": [85.081665, 27.855332]}, "properties": {"osm_id": 341653285, "class": "within_50m_of_scour"}}, {"type": "Feature", "geometry": {"type": "Point", "coordinates": [85.081752, 27.855362]}, "properties": {"osm_id": 341653287, "class": "within_50m_of_scour"}}, {"type": "Feature", "geometry": {"type": "Point", "coordinates": [85.081822, 27.855391]}, "properties": {"osm_id": 341653289, "class": "within_50m_of_scour"}}, {"type": "Feature", "geometry": {"type": "Point", "coordinates": [85.081885, 27.855457]}, "properties": {"osm_id": 341653291, "class": "within_50m_of_scour"}}, {"type": "Feature", "geometry": {"type": "Point", "coordinates": [85.081807, 27.855063]}, "properties": {"osm_id": 341653298, "class": "within_50m_of_scour"}}, {"type": "Feature", "geometry": {"type": "Point", "coordinates": [85.148769, 27.927736]}, "properties": {"osm_id": 341654702, "class": "within_50m_of_scour"}}, {"type": "Feature", "geometry": {"type": "Point", "coordinates": [85.15206, 27.935643]}, "properties": {"osm_id": 341654759, "class": "within_50m_of_scour"}}, {"type": "Feature", "geometry": {"type": "Point", "coordinates": [85.072498, 27.855673]}, "properties": {"osm_id": 341683128, "class": "within_50m_of_scour"}}, {"type": "Feature", "geometry": {"type": "Point", "coordinates": [85.072339, 27.855436]}, "properties": {"osm_id": 341683131, "class": "within_50m_of_scour"}}, {"type": "Feature", "geometry": {"type": "Point", "coordinates": [85.072359, 27.855302]}, "properties": {"osm_id": 341683132, "class": "within_50m_of_scour"}}, {"type": "Feature", "geometry": {"type": "Point", "coordinates": [85.072563, 27.855078]}, "properties": {"osm_id": 341683133, "class": "within_50m_of_scour"}}, {"type": "Feature", "geometry": {"type": "Point", "coordinates": [85.072384, 27.85487]}, "properties": {"osm_id": 341683135, "class": "within_50m_of_scour"}}, {"type": "Feature", "geometry": {"type": "Point", "coordinates": [85.164022, 27.954887]}, "properties": {"osm_id": 341697688, "class": "within_50m_of_scour"}}, {"type": "Feature", "geometry": {"type": "Point", "coordinates": [85.160328, 27.946381]}, "properties": {"osm_id": 341697708, "class": "within_50m_of_scour"}}, {"type": "Feature", "geometry": {"type": "Point", "coordinates": [85.16028, 27.946289]}, "properties": {"osm_id": 341697709, "class": "within_50m_of_scour"}}, {"type": "Feature", "geometry": {"type": "Point", "coordinates": [85.160055, 27.946111]}, "properties": {"osm_id": 341697712, "class": "within_50m_of_scour"}}, {"type": "Feature", "geometry": {"type": "Point", "coordinates": [85.160079, 27.945916]}, "properties": {"osm_id": 341697714, "class": "within_50m_of_scour"}}, {"type": "Feature", "geometry": {"type": "Point", "coordinates": [85.160217, 27.945987]}, "properties": {"osm_id": 341697715, "class": "within_50m_of_scour"}}, {"type": "Feature", "geometry": {"type": "Point", "coordinates": [85.15988, 27.945727]}, "properties": {"osm_id": 341697716, "class": "within_50m_of_scour"}}, {"type": "Feature", "geometry": {"type": "Point", "coordinates": [85.159802, 27.945622]}, "properties": {"osm_id": 341697717, "class": "within_50m_of_scour"}}, {"type": "Feature", "geometry": {"type": "Point", "coordinates": [85.159649, 27.945429]}, "properties": {"osm_id": 341697718, "class": "within_50m_of_scour"}}, {"type": "Feature", "geometry": {"type": "Point", "coordinates": [85.159581, 27.946305]}, "properties": {"osm_id": 341697725, "class": "within_50m_of_scour"}}, {"type": "Feature", "geometry": {"type": "Point", "coordinates": [85.159494, 27.945076]}, "properties": {"osm_id": 341697726, "class": "within_50m_of_scour"}}, {"type": "Feature", "geometry": {"type": "Point", "coordinates": [85.1591, 27.944714]}, "properties": {"osm_id": 341697727, "class": "within_50m_of_scour"}}, {"type": "Feature", "geometry": {"type": "Point", "coordinates": [85.158962, 27.94454]}, "properties": {"osm_id": 341697728, "class": "within_50m_of_scour"}}, {"type": "Feature", "geometry": {"type": "Point", "coordinates": [85.157361, 27.940731]}, "properties": {"osm_id": 341698546, "class": "within_50m_of_scour"}}, {"type": "Feature", "geometry": {"type": "Point", "coordinates": [85.154854, 27.93788]}, "properties": {"osm_id": 341698558, "class": "within_50m_of_scour"}}, {"type": "Feature", "geometry": {"type": "Point", "coordinates": [85.129024, 27.881586]}, "properties": {"osm_id": 341705101, "class": "within_50m_of_scour"}}, {"type": "Feature", "geometry": {"type": "Point", "coordinates": [85.107531, 27.860906]}, "properties": {"osm_id": 341777976, "class": "within_50m_of_scour"}}, {"type": "Feature", "geometry": {"type": "Point", "coordinates": [85.101784, 27.860716]}, "properties": {"osm_id": 341777984, "class": "within_50m_of_scour"}}, {"type": "Feature", "geometry": {"type": "Point", "coordinates": [85.107611, 27.860841]}, "properties": {"osm_id": 341777993, "class": "within_50m_of_scour"}}, {"type": "Feature", "geometry": {"type": "Point", "coordinates": [85.107883, 27.861121]}, "properties": {"osm_id": 341777995, "class": "within_50m_of_scour"}}, {"type": "Feature", "geometry": {"type": "Point", "coordinates": [85.107163, 27.860328]}, "properties": {"osm_id": 341777996, "class": "within_50m_of_scour"}}, {"type": "Feature", "geometry": {"type": "Point", "coordinates": [85.107369, 27.860713]}, "properties": {"osm_id": 341778029, "class": "within_50m_of_scour"}}, {"type": "Feature", "geometry": {"type": "Point", "coordinates": [85.101896, 27.860604]}, "properties": {"osm_id": 341778044, "class": "within_50m_of_scour"}}, {"type": "Feature", "geometry": {"type": "Point", "coordinates": [85.107749, 27.861231]}, "properties": {"osm_id": 341778046, "class": "within_50m_of_scour"}}, {"type": "Feature", "geometry": {"type": "Point", "coordinates": [85.107534, 27.860698]}, "properties": {"osm_id": 341778050, "class": "within_50m_of_scour"}}, {"type": "Feature", "geometry": {"type": "Point", "coordinates": [85.107606, 27.861194]}, "properties": {"osm_id": 341778073, "class": "within_50m_of_scour"}}, {"type": "Feature", "geometry": {"type": "Point", "coordinates": [85.101998, 27.860438]}, "properties": {"osm_id": 341778075, "class": "within_50m_of_scour"}}, {"type": "Feature", "geometry": {"type": "Point", "coordinates": [85.108658, 27.862958]}, "properties": {"osm_id": 341779492, "class": "within_50m_of_scour"}}, {"type": "Feature", "geometry": {"type": "Point", "coordinates": [85.108417, 27.862788]}, "properties": {"osm_id": 341779503, "class": "within_50m_of_scour"}}, {"type": "Feature", "geometry": {"type": "Point", "coordinates": [85.107934, 27.86193]}, "properties": {"osm_id": 341779506, "class": "within_50m_of_scour"}}, {"type": "Feature", "geometry": {"type": "Point", "coordinates": [85.108497, 27.862712]}, "properties": {"osm_id": 341779508, "class": "within_50m_of_scour"}}, {"type": "Feature", "geometry": {"type": "Point", "coordinates": [85.108127, 27.862127]}, "properties": {"osm_id": 341779509, "class": "within_50m_of_scour"}}, {"type": "Feature", "geometry": {"type": "Point", "coordinates": [85.108706, 27.862798]}, "properties": {"osm_id": 341779512, "class": "within_50m_of_scour"}}, {"type": "Feature", "geometry": {"type": "Point", "coordinates": [85.159875, 27.953039]}, "properties": {"osm_id": 341867664, "class": "within_50m_of_scour"}}, {"type": "Feature", "geometry": {"type": "Point", "coordinates": [85.16012, 27.953817]}, "properties": {"osm_id": 341867665, "class": "within_50m_of_scour"}}, {"type": "Feature", "geometry": {"type": "Point", "coordinates": [85.16028, 27.95364]}, "properties": {"osm_id": 341867668, "class": "within_50m_of_scour"}}, {"type": "Feature", "geometry": {"type": "Point", "coordinates": [85.160039, 27.953283]}, "properties": {"osm_id": 341867669, "class": "within_50m_of_scour"}}, {"type": "Feature", "geometry": {"type": "Point", "coordinates": [85.160021, 27.953156]}, "properties": {"osm_id": 341867670, "class": "within_50m_of_scour"}}, {"type": "Feature", "geometry": {"type": "Point", "coordinates": [85.160175, 27.951496]}, "properties": {"osm_id": 341889293, "class": "within_50m_of_scour"}}, {"type": "Feature", "geometry": {"type": "Point", "coordinates": [85.160262, 27.953379]}, "properties": {"osm_id": 341889318, "class": "within_50m_of_scour"}}, {"type": "Feature", "geometry": {"type": "Point", "coordinates": [85.160409, 27.951847]}, "properties": {"osm_id": 341889326, "class": "within_50m_of_scour"}}, {"type": "Feature", "geometry": {"type": "Point", "coordinates": [85.160163, 27.953021]}, "properties": {"osm_id": 341889440, "class": "within_50m_of_scour"}}, {"type": "Feature", "geometry": {"type": "Point", "coordinates": [85.160263, 27.951591]}, "properties": {"osm_id": 341889457, "class": "within_50m_of_scour"}}, {"type": "Feature", "geometry": {"type": "Point", "coordinates": [85.160376, 27.951761]}, "properties": {"osm_id": 341889562, "class": "within_50m_of_scour"}}, {"type": "Feature", "geometry": {"type": "Point", "coordinates": [85.159822, 27.953212]}, "properties": {"osm_id": 341889590, "class": "within_50m_of_scour"}}, {"type": "Feature", "geometry": {"type": "Point", "coordinates": [85.160235, 27.953778]}, "properties": {"osm_id": 341889621, "class": "within_50m_of_scour"}}, {"type": "Feature", "geometry": {"type": "Point", "coordinates": [85.072479, 27.855384]}, "properties": {"osm_id": 341931618, "class": "within_50m_of_scour"}}, {"type": "Feature", "geometry": {"type": "Point", "coordinates": [85.150726, 27.92131]}, "properties": {"osm_id": 341956142, "class": "within_50m_of_scour"}}, {"type": "Feature", "geometry": {"type": "Point", "coordinates": [85.150904, 27.921434]}, "properties": {"osm_id": 341956146, "class": "within_50m_of_scour"}}, {"type": "Feature", "geometry": {"type": "Point", "coordinates": [85.101773, 27.860855]}, "properties": {"osm_id": 341988134, "class": "within_50m_of_scour"}}, {"type": "Feature", "geometry": {"type": "Point", "coordinates": [85.101773, 27.860518]}, "properties": {"osm_id": 341988135, "class": "within_50m_of_scour"}}, {"type": "Feature", "geometry": {"type": "Point", "coordinates": [85.109061, 27.858921]}, "properties": {"osm_id": 341998603, "class": "within_50m_of_scour"}}, {"type": "Feature", "geometry": {"type": "Point", "coordinates": [85.108738, 27.859127]}, "properties": {"osm_id": 341998605, "class": "within_50m_of_scour"}}, {"type": "Feature", "geometry": {"type": "Point", "coordinates": [85.108591, 27.859102]}, "properties": {"osm_id": 341998607, "class": "within_50m_of_scour"}}, {"type": "Feature", "geometry": {"type": "Point", "coordinates": [85.108976, 27.858964]}, "properties": {"osm_id": 341998610, "class": "within_50m_of_scour"}}, {"type": "Feature", "geometry": {"type": "Point", "coordinates": [85.108813, 27.85907]}, "properties": {"osm_id": 342000477, "class": "within_50m_of_scour"}}, {"type": "Feature", "geometry": {"type": "Point", "coordinates": [85.108919, 27.859009]}, "properties": {"osm_id": 342000490, "class": "within_50m_of_scour"}}, {"type": "Feature", "geometry": {"type": "Point", "coordinates": [85.110667, 27.861484]}, "properties": {"osm_id": 342010751, "class": "within_50m_of_scour"}}, {"type": "Feature", "geometry": {"type": "Point", "coordinates": [85.10907, 27.860269]}, "properties": {"osm_id": 342010764, "class": "within_50m_of_scour"}}, {"type": "Feature", "geometry": {"type": "Point", "coordinates": [85.109264, 27.860458]}, "properties": {"osm_id": 342010828, "class": "within_50m_of_scour"}}, {"type": "Feature", "geometry": {"type": "Point", "coordinates": [85.110806, 27.861628]}, "properties": {"osm_id": 342010889, "class": "within_50m_of_scour"}}, {"type": "Feature", "geometry": {"type": "Point", "coordinates": [85.107634, 27.862063]}, "properties": {"osm_id": 342010911, "class": "within_50m_of_scour"}}, {"type": "Feature", "geometry": {"type": "Point", "coordinates": [85.107874, 27.861616]}, "properties": {"osm_id": 342010914, "class": "within_50m_of_scour"}}, {"type": "Feature", "geometry": {"type": "Point", "coordinates": [85.109158, 27.860352]}, "properties": {"osm_id": 342010932, "class": "within_50m_of_scour"}}, {"type": "Feature", "geometry": {"type": "Point", "coordinates": [85.108209, 27.86231]}, "properties": {"osm_id": 342012907, "class": "within_50m_of_scour"}}, {"type": "Feature", "geometry": {"type": "Point", "coordinates": [85.108736, 27.863015]}, "properties": {"osm_id": 342012923, "class": "within_50m_of_scour"}}, {"type": "Feature", "geometry": {"type": "Point", "coordinates": [85.102166, 27.860293]}, "properties": {"osm_id": 342012963, "class": "within_50m_of_scour"}}, {"type": "Feature", "geometry": {"type": "Point", "coordinates": [85.102521, 27.860357]}, "properties": {"osm_id": 342012989, "class": "within_50m_of_scour"}}, {"type": "Feature", "geometry": {"type": "Point", "coordinates": [85.102374, 27.860314]}, "properties": {"osm_id": 342013010, "class": "within_50m_of_scour"}}, {"type": "Feature", "geometry": {"type": "Point", "coordinates": [85.147512, 27.927036]}, "properties": {"osm_id": 342019203, "class": "within_50m_of_scour"}}, {"type": "Feature", "geometry": {"type": "Point", "coordinates": [85.159268, 27.944864]}, "properties": {"osm_id": 342150163, "class": "within_50m_of_scour"}}, {"type": "Feature", "geometry": {"type": "Point", "coordinates": [85.160239, 27.946074]}, "properties": {"osm_id": 342150281, "class": "within_50m_of_scour"}}, {"type": "Feature", "geometry": {"type": "Point", "coordinates": [85.160285, 27.945991]}, "properties": {"osm_id": 342150283, "class": "within_50m_of_scour"}}, {"type": "Feature", "geometry": {"type": "Point", "coordinates": [85.1387, 27.915623]}, "properties": {"osm_id": 342264069, "class": "within_50m_of_scour"}}, {"type": "Feature", "geometry": {"type": "Point", "coordinates": [85.138823, 27.915702]}, "properties": {"osm_id": 342264071, "class": "within_50m_of_scour"}}, {"type": "Feature", "geometry": {"type": "Point", "coordinates": [85.12912, 27.881102]}, "properties": {"osm_id": 342294310, "class": "within_50m_of_scour"}}, {"type": "Feature", "geometry": {"type": "Point", "coordinates": [85.159957, 27.946045]}, "properties": {"osm_id": 755069215, "class": "within_50m_of_scour"}}, {"type": "Feature", "geometry": {"type": "Point", "coordinates": [85.159979, 27.945846]}, "properties": {"osm_id": 755069217, "class": "within_50m_of_scour"}}, {"type": "Feature", "geometry": {"type": "Point", "coordinates": [85.159544, 27.946194]}, "properties": {"osm_id": 755069223, "class": "within_50m_of_scour"}}, {"type": "Feature", "geometry": {"type": "Point", "coordinates": [85.16979, 27.959232]}, "properties": {"osm_id": 886277346, "class": "within_50m_of_scour"}}, {"type": "Feature", "geometry": {"type": "Point", "coordinates": [85.170016, 27.959503]}, "properties": {"osm_id": 886277347, "class": "within_50m_of_scour"}}, {"type": "Feature", "geometry": {"type": "Point", "coordinates": [85.170254, 27.959702]}, "properties": {"osm_id": 886277348, "class": "in_detected_scour"}}, {"type": "Feature", "geometry": {"type": "Point", "coordinates": [85.170036, 27.959579]}, "properties": {"osm_id": 886277349, "class": "within_50m_of_scour"}}, {"type": "Feature", "geometry": {"type": "Point", "coordinates": [85.170169, 27.959317]}, "properties": {"osm_id": 886277350, "class": "within_50m_of_scour"}}, {"type": "Feature", "geometry": {"type": "Point", "coordinates": [85.170186, 27.959395]}, "properties": {"osm_id": 886277351, "class": "within_50m_of_scour"}}, {"type": "Feature", "geometry": {"type": "Point", "coordinates": [85.170038, 27.959417]}, "properties": {"osm_id": 886277352, "class": "within_50m_of_scour"}}, {"type": "Feature", "geometry": {"type": "Point", "coordinates": [85.170187, 27.95945]}, "properties": {"osm_id": 886277353, "class": "within_50m_of_scour"}}, {"type": "Feature", "geometry": {"type": "Point", "coordinates": [85.170207, 27.959508]}, "properties": {"osm_id": 886277354, "class": "within_50m_of_scour"}}, {"type": "Feature", "geometry": {"type": "Point", "coordinates": [85.170231, 27.95955]}, "properties": {"osm_id": 886277355, "class": "within_50m_of_scour"}}, {"type": "Feature", "geometry": {"type": "Point", "coordinates": [85.170417, 27.959854]}, "properties": {"osm_id": 886277356, "class": "within_50m_of_scour"}}, {"type": "Feature", "geometry": {"type": "Point", "coordinates": [85.170218, 27.95985]}, "properties": {"osm_id": 886277357, "class": "within_50m_of_scour"}}, {"type": "Feature", "geometry": {"type": "Point", "coordinates": [85.170494, 27.959962]}, "properties": {"osm_id": 886277358, "class": "within_50m_of_scour"}}, {"type": "Feature", "geometry": {"type": "Point", "coordinates": [85.172485, 27.965279]}, "properties": {"osm_id": 886387016, "class": "within_50m_of_scour"}}, {"type": "Feature", "geometry": {"type": "Point", "coordinates": [85.173152, 27.965889]}, "properties": {"osm_id": 886387019, "class": "within_50m_of_scour"}}, {"type": "Feature", "geometry": {"type": "Point", "coordinates": [85.150345, 27.922455]}, "properties": {"osm_id": 888538433, "class": "within_50m_of_scour"}}, {"type": "Feature", "geometry": {"type": "Point", "coordinates": [85.158624, 27.944999]}, "properties": {"osm_id": 889060576, "class": "within_50m_of_scour"}}, {"type": "Feature", "geometry": {"type": "Point", "coordinates": [85.159678, 27.954609]}, "properties": {"osm_id": 890977173, "class": "within_50m_of_scour"}}, {"type": "Feature", "geometry": {"type": "Point", "coordinates": [85.159555, 27.954529]}, "properties": {"osm_id": 890977174, "class": "within_50m_of_scour"}}, {"type": "Feature", "geometry": {"type": "Point", "coordinates": [85.160445, 27.953625]}, "properties": {"osm_id": 890977177, "class": "within_50m_of_scour"}}, {"type": "Feature", "geometry": {"type": "Point", "coordinates": [85.160891, 27.951417]}, "properties": {"osm_id": 890977181, "class": "within_50m_of_scour"}}, {"type": "Feature", "geometry": {"type": "Point", "coordinates": [85.160803, 27.951466]}, "properties": {"osm_id": 890977182, "class": "within_50m_of_scour"}}, {"type": "Feature", "geometry": {"type": "Point", "coordinates": [85.160482, 27.95177]}, "properties": {"osm_id": 890977183, "class": "within_50m_of_scour"}}, {"type": "Feature", "geometry": {"type": "Point", "coordinates": [85.160431, 27.95145]}, "properties": {"osm_id": 890977184, "class": "within_50m_of_scour"}}, {"type": "Feature", "geometry": {"type": "Point", "coordinates": [85.160406, 27.951359]}, "properties": {"osm_id": 890977185, "class": "within_50m_of_scour"}}, {"type": "Feature", "geometry": {"type": "Point", "coordinates": [85.138528, 27.915952]}, "properties": {"osm_id": 891388172, "class": "within_50m_of_scour"}}, {"type": "Feature", "geometry": {"type": "Point", "coordinates": [85.138599, 27.915899]}, "properties": {"osm_id": 891388173, "class": "within_50m_of_scour"}}, {"type": "Feature", "geometry": {"type": "Point", "coordinates": [85.138815, 27.915481]}, "properties": {"osm_id": 891388174, "class": "within_50m_of_scour"}}, {"type": "Feature", "geometry": {"type": "Point", "coordinates": [85.138752, 27.915776]}, "properties": {"osm_id": 891388175, "class": "in_detected_scour"}}, {"type": "Feature", "geometry": {"type": "Point", "coordinates": [85.13899, 27.915755]}, "properties": {"osm_id": 891388176, "class": "within_50m_of_scour"}}, {"type": "Feature", "geometry": {"type": "Point", "coordinates": [85.138904, 27.915828]}, "properties": {"osm_id": 891388177, "class": "within_50m_of_scour"}}, {"type": "Feature", "geometry": {"type": "Point", "coordinates": [85.156929, 27.941402]}, "properties": {"osm_id": 891929256, "class": "within_50m_of_scour"}}, {"type": "Feature", "geometry": {"type": "Point", "coordinates": [85.156986, 27.941353]}, "properties": {"osm_id": 891929257, "class": "within_50m_of_scour"}}, {"type": "Feature", "geometry": {"type": "Point", "coordinates": [85.156388, 27.939471]}, "properties": {"osm_id": 891929259, "class": "within_50m_of_scour"}}, {"type": "Feature", "geometry": {"type": "Point", "coordinates": [85.156409, 27.939305]}, "properties": {"osm_id": 891929261, "class": "within_50m_of_scour"}}, {"type": "Feature", "geometry": {"type": "Point", "coordinates": [85.155969, 27.938765]}, "properties": {"osm_id": 891929263, "class": "within_50m_of_scour"}}, {"type": "Feature", "geometry": {"type": "Point", "coordinates": [85.154614, 27.937907]}, "properties": {"osm_id": 891929266, "class": "within_50m_of_scour"}}, {"type": "Feature", "geometry": {"type": "Point", "coordinates": [85.128161, 27.882216]}, "properties": {"osm_id": 892125961, "class": "within_50m_of_scour"}}, {"type": "Feature", "geometry": {"type": "Point", "coordinates": [85.129128, 27.88142]}, "properties": {"osm_id": 892125968, "class": "within_50m_of_scour"}}, {"type": "Feature", "geometry": {"type": "Point", "coordinates": [85.129, 27.881276]}, "properties": {"osm_id": 892125969, "class": "in_detected_scour"}}, {"type": "Feature", "geometry": {"type": "Point", "coordinates": [85.151937, 27.922054]}, "properties": {"osm_id": 892160605, "class": "within_50m_of_scour"}}, {"type": "Feature", "geometry": {"type": "Point", "coordinates": [85.151814, 27.921896]}, "properties": {"osm_id": 892160606, "class": "within_50m_of_scour"}}, {"type": "Feature", "geometry": {"type": "Point", "coordinates": [85.15195, 27.922669]}, "properties": {"osm_id": 892160626, "class": "within_50m_of_scour"}}, {"type": "Feature", "geometry": {"type": "Point", "coordinates": [85.152387, 27.922228]}, "properties": {"osm_id": 892160630, "class": "within_50m_of_scour"}}, {"type": "Feature", "geometry": {"type": "Point", "coordinates": [85.114044, 27.866555]}, "properties": {"osm_id": 892314194, "class": "within_50m_of_scour"}}, {"type": "Feature", "geometry": {"type": "Point", "coordinates": [85.114422, 27.866271]}, "properties": {"osm_id": 892314199, "class": "within_50m_of_scour"}}, {"type": "Feature", "geometry": {"type": "Point", "coordinates": [85.114243, 27.866314]}, "properties": {"osm_id": 892314200, "class": "within_50m_of_scour"}}, {"type": "Feature", "geometry": {"type": "Point", "coordinates": [85.091069, 27.858907]}, "properties": {"osm_id": 921061867, "class": "within_50m_of_scour"}}, {"type": "Feature", "geometry": {"type": "Point", "coordinates": [85.091713, 27.859124]}, "properties": {"osm_id": 921061870, "class": "within_50m_of_scour"}}, {"type": "Feature", "geometry": {"type": "Point", "coordinates": [85.091959, 27.859066]}, "properties": {"osm_id": 921061872, "class": "within_50m_of_scour"}}, {"type": "Feature", "geometry": {"type": "Point", "coordinates": [85.091983, 27.858885]}, "properties": {"osm_id": 921061873, "class": "within_50m_of_scour"}}, {"type": "Feature", "geometry": {"type": "Point", "coordinates": [85.101051, 27.856678]}, "properties": {"osm_id": 923302095, "class": "within_50m_of_scour"}}, {"type": "Feature", "geometry": {"type": "Point", "coordinates": [85.101581, 27.857143]}, "properties": {"osm_id": 923302097, "class": "within_50m_of_scour"}}, {"type": "Feature", "geometry": {"type": "Point", "coordinates": [85.10168, 27.857294]}, "properties": {"osm_id": 923302098, "class": "within_50m_of_scour"}}, {"type": "Feature", "geometry": {"type": "Point", "coordinates": [85.101496, 27.857034]}, "properties": {"osm_id": 923302099, "class": "within_50m_of_scour"}}, {"type": "Feature", "geometry": {"type": "Point", "coordinates": [85.106594, 27.856463]}, "properties": {"osm_id": 923309296, "class": "within_50m_of_scour"}}, {"type": "Feature", "geometry": {"type": "Point", "coordinates": [85.106521, 27.856392]}, "properties": {"osm_id": 923309297, "class": "within_50m_of_scour"}}, {"type": "Feature", "geometry": {"type": "Point", "coordinates": [85.106571, 27.856253]}, "properties": {"osm_id": 923309298, "class": "within_50m_of_scour"}}, {"type": "Feature", "geometry": {"type": "Point", "coordinates": [85.106467, 27.856111]}, "properties": {"osm_id": 923309299, "class": "within_50m_of_scour"}}, {"type": "Feature", "geometry": {"type": "Point", "coordinates": [85.10651, 27.856516]}, "properties": {"osm_id": 923309300, "class": "within_50m_of_scour"}}, {"type": "Feature", "geometry": {"type": "Point", "coordinates": [85.091848, 27.859055]}, "properties": {"osm_id": 925071846, "class": "within_50m_of_scour"}}, {"type": "Feature", "geometry": {"type": "Point", "coordinates": [85.092454, 27.859082]}, "properties": {"osm_id": 925071847, "class": "within_50m_of_scour"}}, {"type": "Feature", "geometry": {"type": "Point", "coordinates": [85.092351, 27.859128]}, "properties": {"osm_id": 925071848, "class": "within_50m_of_scour"}}, {"type": "Feature", "geometry": {"type": "Point", "coordinates": [85.092473, 27.859211]}, "properties": {"osm_id": 925071849, "class": "within_50m_of_scour"}}, {"type": "Feature", "geometry": {"type": "Point", "coordinates": [85.09327, 27.859348]}, "properties": {"osm_id": 925071852, "class": "within_50m_of_scour"}}, {"type": "Feature", "geometry": {"type": "Point", "coordinates": [85.093375, 27.859328]}, "properties": {"osm_id": 925071853, "class": "within_50m_of_scour"}}, {"type": "Feature", "geometry": {"type": "Point", "coordinates": [85.094564, 27.858943]}, "properties": {"osm_id": 925071855, "class": "within_50m_of_scour"}}, {"type": "Feature", "geometry": {"type": "Point", "coordinates": [85.094566, 27.85883]}, "properties": {"osm_id": 925071856, "class": "within_50m_of_scour"}}, {"type": "Feature", "geometry": {"type": "Point", "coordinates": [85.093196, 27.859234]}, "properties": {"osm_id": 925186052, "class": "within_50m_of_scour"}}, {"type": "Feature", "geometry": {"type": "Point", "coordinates": [85.093543, 27.859291]}, "properties": {"osm_id": 925186053, "class": "within_50m_of_scour"}}, {"type": "Feature", "geometry": {"type": "Point", "coordinates": [85.0937, 27.858723]}, "properties": {"osm_id": 925186054, "class": "within_50m_of_scour"}}, {"type": "Feature", "geometry": {"type": "Point", "coordinates": [85.093709, 27.858878]}, "properties": {"osm_id": 925186055, "class": "within_50m_of_scour"}}, {"type": "Feature", "geometry": {"type": "Point", "coordinates": [85.102826, 27.860223]}, "properties": {"osm_id": 1181924116, "class": "within_50m_of_scour"}}, {"type": "Feature", "geometry": {"type": "Point", "coordinates": [85.104006, 27.860764]}, "properties": {"osm_id": 1181924119, "class": "within_50m_of_scour"}}, {"type": "Feature", "geometry": {"type": "Point", "coordinates": [85.102143, 27.860474]}, "properties": {"osm_id": 1181924553, "class": "within_50m_of_scour"}}, {"type": "Feature", "geometry": {"type": "Point", "coordinates": [85.102242, 27.860546]}, "properties": {"osm_id": 1181924554, "class": "within_50m_of_scour"}}, {"type": "Feature", "geometry": {"type": "Point", "coordinates": [85.10233, 27.860489]}, "properties": {"osm_id": 1181924555, "class": "within_50m_of_scour"}}, {"type": "Feature", "geometry": {"type": "Point", "coordinates": [85.102414, 27.860559]}, "properties": {"osm_id": 1181924556, "class": "within_50m_of_scour"}}, {"type": "Feature", "geometry": {"type": "Point", "coordinates": [85.077808, 27.85286]}, "properties": {"osm_id": 1552578796, "class": "within_50m_of_scour"}}, {"type": "Feature", "geometry": {"type": "Point", "coordinates": [85.111487, 27.861918]}, "properties": {"osm_id": 1552587161, "class": "within_50m_of_scour"}}, {"type": "Feature", "geometry": {"type": "Point", "coordinates": [85.107844, 27.861409]}, "properties": {"osm_id": 1552587171, "class": "within_50m_of_scour"}}, {"type": "Feature", "geometry": {"type": "Point", "coordinates": [85.107843, 27.861344]}, "properties": {"osm_id": 1552587172, "class": "within_50m_of_scour"}}, {"type": "Feature", "geometry": {"type": "Point", "coordinates": [85.107764, 27.861383]}, "properties": {"osm_id": 1552587173, "class": "within_50m_of_scour"}}, {"type": "Feature", "geometry": {"type": "Point", "coordinates": [85.107694, 27.861439]}, "properties": {"osm_id": 1552587174, "class": "within_50m_of_scour"}}, {"type": "Feature", "geometry": {"type": "Point", "coordinates": [85.107869, 27.861465]}, "properties": {"osm_id": 1552587175, "class": "within_50m_of_scour"}}, {"type": "Feature", "geometry": {"type": "Point", "coordinates": [85.106839, 27.85976]}, "properties": {"osm_id": 1552587183, "class": "within_50m_of_scour"}}, {"type": "Feature", "geometry": {"type": "Point", "coordinates": [85.107557, 27.861226]}, "properties": {"osm_id": 1552587184, "class": "within_50m_of_scour"}}, {"type": "Feature", "geometry": {"type": "Point", "coordinates": [85.107344, 27.86135]}, "properties": {"osm_id": 1552587185, "class": "within_50m_of_scour"}}, {"type": "Feature", "geometry": {"type": "Point", "coordinates": [85.107413, 27.86145]}, "properties": {"osm_id": 1552587187, "class": "within_50m_of_scour"}}, {"type": "Feature", "geometry": {"type": "Point", "coordinates": [85.107527, 27.861005]}, "properties": {"osm_id": 1552587188, "class": "within_50m_of_scour"}}, {"type": "Feature", "geometry": {"type": "Point", "coordinates": [85.107313, 27.860639]}, "properties": {"osm_id": 1552587189, "class": "within_50m_of_scour"}}, {"type": "Feature", "geometry": {"type": "Point", "coordinates": [85.107126, 27.860368]}, "properties": {"osm_id": 1552587190, "class": "within_50m_of_scour"}}, {"type": "Feature", "geometry": {"type": "Point", "coordinates": [85.10732, 27.860509]}, "properties": {"osm_id": 1552587193, "class": "within_50m_of_scour"}}, {"type": "Feature", "geometry": {"type": "Point", "coordinates": [85.128799, 27.881462]}, "properties": {"osm_id": 1552613925, "class": "within_50m_of_scour"}}, {"type": "Feature", "geometry": {"type": "Point", "coordinates": [85.128817, 27.881251]}, "properties": {"osm_id": 1552613930, "class": "within_50m_of_scour"}}, {"type": "Feature", "geometry": {"type": "Point", "coordinates": [85.128977, 27.880944]}, "properties": {"osm_id": 1552613940, "class": "within_50m_of_scour"}}, {"type": "Feature", "geometry": {"type": "Point", "coordinates": [85.128726, 27.881057]}, "properties": {"osm_id": 1552613941, "class": "within_50m_of_scour"}}, {"type": "Feature", "geometry": {"type": "Point", "coordinates": [85.138575, 27.916464]}, "properties": {"osm_id": 1552615085, "class": "within_50m_of_scour"}}, {"type": "Feature", "geometry": {"type": "Point", "coordinates": [85.155522, 27.938588]}, "properties": {"osm_id": 1552644692, "class": "within_50m_of_scour"}}, {"type": "Feature", "geometry": {"type": "Point", "coordinates": [85.157259, 27.940723]}, "properties": {"osm_id": 1552645761, "class": "within_50m_of_scour"}}, {"type": "Feature", "geometry": {"type": "Point", "coordinates": [85.138661, 27.916482]}, "properties": {"osm_id": 1552646858, "class": "within_50m_of_scour"}}, {"type": "Feature", "geometry": {"type": "Point", "coordinates": [85.15776, 27.942527]}, "properties": {"osm_id": 1552648812, "class": "within_50m_of_scour"}}, {"type": "Feature", "geometry": {"type": "Point", "coordinates": [85.158386, 27.944572]}, "properties": {"osm_id": 1552692756, "class": "within_50m_of_scour"}}, {"type": "Feature", "geometry": {"type": "Point", "coordinates": [85.15845, 27.944628]}, "properties": {"osm_id": 1552692757, "class": "within_50m_of_scour"}}, {"type": "Feature", "geometry": {"type": "Point", "coordinates": [85.158498, 27.944651]}, "properties": {"osm_id": 1552692758, "class": "within_50m_of_scour"}}, {"type": "Feature", "geometry": {"type": "Point", "coordinates": [85.158815, 27.944835]}, "properties": {"osm_id": 1552692759, "class": "within_50m_of_scour"}}, {"type": "Feature", "geometry": {"type": "Point", "coordinates": [85.158811, 27.944981]}, "properties": {"osm_id": 1552692760, "class": "within_50m_of_scour"}}, {"type": "Feature", "geometry": {"type": "Point", "coordinates": [85.159667, 27.946299]}, "properties": {"osm_id": 1552694618, "class": "within_50m_of_scour"}}, {"type": "Feature", "geometry": {"type": "Point", "coordinates": [85.15976, 27.94629]}, "properties": {"osm_id": 1552694619, "class": "within_50m_of_scour"}}, {"type": "Feature", "geometry": {"type": "Point", "coordinates": [85.159693, 27.946382]}, "properties": {"osm_id": 1552694620, "class": "within_50m_of_scour"}}, {"type": "Feature", "geometry": {"type": "Point", "coordinates": [85.159778, 27.946453]}, "properties": {"osm_id": 1552694621, "class": "within_50m_of_scour"}}, {"type": "Feature", "geometry": {"type": "Point", "coordinates": [85.071267, 27.853098]}, "properties": {"osm_id": 1552715244, "class": "within_50m_of_scour"}}, {"type": "Feature", "geometry": {"type": "Point", "coordinates": [85.077808, 27.852703]}, "properties": {"osm_id": 1552715370, "class": "within_50m_of_scour"}}, {"type": "Feature", "geometry": {"type": "Point", "coordinates": [85.077899, 27.852888]}, "properties": {"osm_id": 1552715371, "class": "within_50m_of_scour"}}, {"type": "Feature", "geometry": {"type": "Point", "coordinates": [85.077902, 27.853011]}, "properties": {"osm_id": 1552715372, "class": "within_50m_of_scour"}}, {"type": "Feature", "geometry": {"type": "Point", "coordinates": [85.072314, 27.855241]}, "properties": {"osm_id": 1552715378, "class": "within_50m_of_scour"}}, {"type": "Feature", "geometry": {"type": "Point", "coordinates": [85.072259, 27.855224]}, "properties": {"osm_id": 1552715379, "class": "within_50m_of_scour"}}, {"type": "Feature", "geometry": {"type": "Point", "coordinates": [85.072248, 27.855151]}, "properties": {"osm_id": 1552715380, "class": "within_50m_of_scour"}}, {"type": "Feature", "geometry": {"type": "Point", "coordinates": [85.072577, 27.854379]}, "properties": {"osm_id": 1552715387, "class": "within_50m_of_scour"}}, {"type": "Feature", "geometry": {"type": "Point", "coordinates": [85.072436, 27.854848]}, "properties": {"osm_id": 1552715391, "class": "within_50m_of_scour"}}, {"type": "Feature", "geometry": {"type": "Point", "coordinates": [85.072186, 27.854942]}, "properties": {"osm_id": 1552715398, "class": "within_50m_of_scour"}}, {"type": "Feature", "geometry": {"type": "Point", "coordinates": [85.072204, 27.855029]}, "properties": {"osm_id": 1552715399, "class": "within_50m_of_scour"}}, {"type": "Feature", "geometry": {"type": "Point", "coordinates": [85.072236, 27.855081]}, "properties": {"osm_id": 1552715400, "class": "within_50m_of_scour"}}, {"type": "Feature", "geometry": {"type": "Point", "coordinates": [85.072277, 27.855024]}, "properties": {"osm_id": 1552715401, "class": "within_50m_of_scour"}}, {"type": "Feature", "geometry": {"type": "Point", "coordinates": [85.072301, 27.855075]}, "properties": {"osm_id": 1552715402, "class": "within_50m_of_scour"}}, {"type": "Feature", "geometry": {"type": "Point", "coordinates": [85.07233, 27.855105]}, "properties": {"osm_id": 1552715403, "class": "within_50m_of_scour"}}, {"type": "Feature", "geometry": {"type": "Point", "coordinates": [85.07262, 27.855906]}, "properties": {"osm_id": 1552715404, "class": "within_50m_of_scour"}}, {"type": "Feature", "geometry": {"type": "Point", "coordinates": [85.072329, 27.855376]}, "properties": {"osm_id": 1552715460, "class": "within_50m_of_scour"}}, {"type": "Feature", "geometry": {"type": "Point", "coordinates": [85.07236, 27.855491]}, "properties": {"osm_id": 1552715461, "class": "within_50m_of_scour"}}, {"type": "Feature", "geometry": {"type": "Point", "coordinates": [85.072606, 27.855759]}, "properties": {"osm_id": 1552715462, "class": "within_50m_of_scour"}}, {"type": "Feature", "geometry": {"type": "Point", "coordinates": [85.072542, 27.855718]}, "properties": {"osm_id": 1552715463, "class": "within_50m_of_scour"}}, {"type": "Feature", "geometry": {"type": "Point", "coordinates": [85.114291, 27.866148]}, "properties": {"osm_id": 1552735527, "class": "within_50m_of_scour"}}, {"type": "Feature", "geometry": {"type": "Point", "coordinates": [85.120335, 27.871306]}, "properties": {"osm_id": 1552741396, "class": "within_50m_of_scour"}}, {"type": "Feature", "geometry": {"type": "Point", "coordinates": [85.120704, 27.871417]}, "properties": {"osm_id": 1552741397, "class": "in_detected_scour"}}, {"type": "Feature", "geometry": {"type": "Point", "coordinates": [85.120137, 27.871273]}, "properties": {"osm_id": 1552741398, "class": "within_50m_of_scour"}}, {"type": "Feature", "geometry": {"type": "Point", "coordinates": [85.081274, 27.854742]}, "properties": {"osm_id": 1552751840, "class": "within_50m_of_scour"}}, {"type": "Feature", "geometry": {"type": "Point", "coordinates": [85.08201, 27.855492]}, "properties": {"osm_id": 1552751841, "class": "within_50m_of_scour"}}, {"type": "Feature", "geometry": {"type": "Point", "coordinates": [85.081999, 27.857765]}, "properties": {"osm_id": 1552751873, "class": "within_50m_of_scour"}}, {"type": "Feature", "geometry": {"type": "Point", "coordinates": [85.081909, 27.85772]}, "properties": {"osm_id": 1552751874, "class": "within_50m_of_scour"}}, {"type": "Feature", "geometry": {"type": "Point", "coordinates": [85.08183, 27.857649]}, "properties": {"osm_id": 1552751875, "class": "within_50m_of_scour"}}, {"type": "Feature", "geometry": {"type": "Point", "coordinates": [85.081769, 27.857585]}, "properties": {"osm_id": 1552751876, "class": "within_50m_of_scour"}}, {"type": "Feature", "geometry": {"type": "Point", "coordinates": [85.081707, 27.857524]}, "properties": {"osm_id": 1552751877, "class": "within_50m_of_scour"}}, {"type": "Feature", "geometry": {"type": "Point", "coordinates": [85.081787, 27.855469]}, "properties": {"osm_id": 1552753290, "class": "within_50m_of_scour"}}, {"type": "Feature", "geometry": {"type": "Point", "coordinates": [85.080116, 27.855058]}, "properties": {"osm_id": 1552755984, "class": "within_50m_of_scour"}}, {"type": "Feature", "geometry": {"type": "Point", "coordinates": [85.080528, 27.854929]}, "properties": {"osm_id": 1552755985, "class": "within_50m_of_scour"}}, {"type": "Feature", "geometry": {"type": "Point", "coordinates": [85.080794, 27.854659]}, "properties": {"osm_id": 1552755986, "class": "within_50m_of_scour"}}, {"type": "Feature", "geometry": {"type": "Point", "coordinates": [85.080615, 27.854663]}, "properties": {"osm_id": 1552755987, "class": "within_50m_of_scour"}}, {"type": "Feature", "geometry": {"type": "Point", "coordinates": [85.080547, 27.854726]}, "properties": {"osm_id": 1552755988, "class": "within_50m_of_scour"}}, {"type": "Feature", "geometry": {"type": "Point", "coordinates": [85.081407, 27.85482]}, "properties": {"osm_id": 1552755991, "class": "within_50m_of_scour"}}, {"type": "Feature", "geometry": {"type": "Point", "coordinates": [85.169807, 27.959398]}, "properties": {"osm_id": 1552893387, "class": "within_50m_of_scour"}}, {"type": "Feature", "geometry": {"type": "Point", "coordinates": [85.169302, 27.96418]}, "properties": {"osm_id": 1552893404, "class": "within_50m_of_scour"}}, {"type": "Feature", "geometry": {"type": "Point", "coordinates": [85.077778, 27.852955]}, "properties": {"osm_id": 1552941546, "class": "within_50m_of_scour"}}, {"type": "Feature", "geometry": {"type": "Point", "coordinates": [85.093364, 27.859684]}, "properties": {"osm_id": 1552947069, "class": "within_50m_of_scour"}}, {"type": "Feature", "geometry": {"type": "Point", "coordinates": [85.094154, 27.858818]}, "properties": {"osm_id": 1552947070, "class": "within_50m_of_scour"}}, {"type": "Feature", "geometry": {"type": "Point", "coordinates": [85.093011, 27.859258]}, "properties": {"osm_id": 1552947071, "class": "within_50m_of_scour"}}, {"type": "Feature", "geometry": {"type": "Point", "coordinates": [85.09304, 27.8591]}, "properties": {"osm_id": 1552947072, "class": "within_50m_of_scour"}}, {"type": "Feature", "geometry": {"type": "Point", "coordinates": [85.16037, 27.946509]}, "properties": {"osm_id": 1552973624, "class": "within_50m_of_scour"}}, {"type": "Feature", "geometry": {"type": "Point", "coordinates": [85.160104, 27.946007]}, "properties": {"osm_id": 1552973627, "class": "within_50m_of_scour"}}, {"type": "Feature", "geometry": {"type": "Point", "coordinates": [85.160373, 27.946199]}, "properties": {"osm_id": 1552973629, "class": "within_50m_of_scour"}}, {"type": "Feature", "geometry": {"type": "Point", "coordinates": [85.17272, 27.965323]}, "properties": {"osm_id": 1553016008, "class": "within_50m_of_scour"}}, {"type": "Feature", "geometry": {"type": "Point", "coordinates": [85.086614, 27.858505]}, "properties": {"osm_id": 1553017757, "class": "within_50m_of_scour"}}, {"type": "Feature", "geometry": {"type": "Point", "coordinates": [85.079954, 27.854941]}, "properties": {"osm_id": 1553076163, "class": "within_50m_of_scour"}}, {"type": "Feature", "geometry": {"type": "Point", "coordinates": [85.080223, 27.855084]}, "properties": {"osm_id": 1553076164, "class": "within_50m_of_scour"}}, {"type": "Feature", "geometry": {"type": "Point", "coordinates": [85.111723, 27.860915]}, "properties": {"osm_id": 1553086560, "class": "within_50m_of_scour"}}, {"type": "Feature", "geometry": {"type": "Point", "coordinates": [85.070369, 27.853517]}, "properties": {"osm_id": 1553088189, "class": "within_50m_of_scour"}}, {"type": "Feature", "geometry": {"type": "Point", "coordinates": [85.106548, 27.856173]}, "properties": {"osm_id": 1553088240, "class": "within_50m_of_scour"}}, {"type": "Feature", "geometry": {"type": "Point", "coordinates": [85.106809, 27.856302]}, "properties": {"osm_id": 1553088241, "class": "within_50m_of_scour"}}, {"type": "Feature", "geometry": {"type": "Point", "coordinates": [85.106756, 27.856246]}, "properties": {"osm_id": 1553088242, "class": "within_50m_of_scour"}}, {"type": "Feature", "geometry": {"type": "Point", "coordinates": [85.110476, 27.860733]}, "properties": {"osm_id": 1553089618, "class": "within_50m_of_scour"}}, {"type": "Feature", "geometry": {"type": "Point", "coordinates": [85.106986, 27.860133]}, "properties": {"osm_id": 1553089622, "class": "within_50m_of_scour"}}, {"type": "Feature", "geometry": {"type": "Point", "coordinates": [85.109394, 27.860054]}, "properties": {"osm_id": 1553089625, "class": "within_50m_of_scour"}}, {"type": "Feature", "geometry": {"type": "Point", "coordinates": [85.109488, 27.860155]}, "properties": {"osm_id": 1553089626, "class": "within_50m_of_scour"}}, {"type": "Feature", "geometry": {"type": "Point", "coordinates": [85.110901, 27.861291]}, "properties": {"osm_id": 1553089627, "class": "within_50m_of_scour"}}, {"type": "Feature", "geometry": {"type": "Point", "coordinates": [85.102905, 27.860645]}, "properties": {"osm_id": 1553090241, "class": "within_50m_of_scour"}}, {"type": "Feature", "geometry": {"type": "Point", "coordinates": [85.102596, 27.860589]}, "properties": {"osm_id": 1553090242, "class": "within_50m_of_scour"}}, {"type": "Feature", "geometry": {"type": "Point", "coordinates": [85.101578, 27.859552]}, "properties": {"osm_id": 1553090253, "class": "within_50m_of_scour"}}, {"type": "Feature", "geometry": {"type": "Point", "coordinates": [85.101405, 27.859472]}, "properties": {"osm_id": 1553090254, "class": "within_50m_of_scour"}}, {"type": "Feature", "geometry": {"type": "Point", "coordinates": [85.1597, 27.94548]}, "properties": {"osm_id": 1553091911, "class": "within_50m_of_scour"}}, {"type": "Feature", "geometry": {"type": "Point", "coordinates": [85.159851, 27.945386]}, "properties": {"osm_id": 1553091912, "class": "within_50m_of_scour"}}, {"type": "Feature", "geometry": {"type": "Point", "coordinates": [85.15932, 27.944946]}, "properties": {"osm_id": 1553091913, "class": "within_50m_of_scour"}}, {"type": "Feature", "geometry": {"type": "Point", "coordinates": [85.159398, 27.945005]}, "properties": {"osm_id": 1553091943, "class": "within_50m_of_scour"}}, {"type": "Feature", "geometry": {"type": "Point", "coordinates": [85.138536, 27.915574]}, "properties": {"osm_id": 1553099239, "class": "within_50m_of_scour"}}, {"type": "Feature", "geometry": {"type": "Point", "coordinates": [85.138371, 27.915558]}, "properties": {"osm_id": 1553099240, "class": "within_50m_of_scour"}}, {"type": "Feature", "geometry": {"type": "Point", "coordinates": [85.138199, 27.915316]}, "properties": {"osm_id": 1553099241, "class": "within_50m_of_scour"}}, {"type": "Feature", "geometry": {"type": "Point", "coordinates": [85.13826, 27.915419]}, "properties": {"osm_id": 1553099242, "class": "within_50m_of_scour"}}, {"type": "Feature", "geometry": {"type": "Point", "coordinates": [85.138124, 27.915445]}, "properties": {"osm_id": 1553099243, "class": "within_50m_of_scour"}}, {"type": "Feature", "geometry": {"type": "Point", "coordinates": [85.1382, 27.915569]}, "properties": {"osm_id": 1553099244, "class": "in_detected_scour"}}, {"type": "Feature", "geometry": {"type": "Point", "coordinates": [85.138044, 27.915469]}, "properties": {"osm_id": 1553099245, "class": "within_50m_of_scour"}}, {"type": "Feature", "geometry": {"type": "Point", "coordinates": [85.137896, 27.915709]}, "properties": {"osm_id": 1553099246, "class": "within_50m_of_scour"}}, {"type": "Feature", "geometry": {"type": "Point", "coordinates": [85.138097, 27.915629]}, "properties": {"osm_id": 1553099247, "class": "in_detected_scour"}}, {"type": "Feature", "geometry": {"type": "Point", "coordinates": [85.137977, 27.915533]}, "properties": {"osm_id": 1553099248, "class": "within_50m_of_scour"}}, {"type": "Feature", "geometry": {"type": "Point", "coordinates": [85.137905, 27.915323]}, "properties": {"osm_id": 1553099249, "class": "within_50m_of_scour"}}, {"type": "Feature", "geometry": {"type": "Point", "coordinates": [85.13784, 27.915385]}, "properties": {"osm_id": 1553099250, "class": "within_50m_of_scour"}}, {"type": "Feature", "geometry": {"type": "Point", "coordinates": [85.137713, 27.915527]}, "properties": {"osm_id": 1553099251, "class": "within_50m_of_scour"}}, {"type": "Feature", "geometry": {"type": "Point", "coordinates": [85.137775, 27.915457]}, "properties": {"osm_id": 1553099252, "class": "within_50m_of_scour"}}, {"type": "Feature", "geometry": {"type": "Point", "coordinates": [85.137647, 27.915594]}, "properties": {"osm_id": 1553099253, "class": "within_50m_of_scour"}}, {"type": "Feature", "geometry": {"type": "Point", "coordinates": [85.13815, 27.915992]}, "properties": {"osm_id": 1553099254, "class": "within_50m_of_scour"}}, {"type": "Feature", "geometry": {"type": "Point", "coordinates": [85.138412, 27.916296]}, "properties": {"osm_id": 1553099255, "class": "within_50m_of_scour"}}, {"type": "Feature", "geometry": {"type": "Point", "coordinates": [85.138093, 27.916167]}, "properties": {"osm_id": 1553099256, "class": "within_50m_of_scour"}}, {"type": "Feature", "geometry": {"type": "Point", "coordinates": [85.135032, 27.914275]}, "properties": {"osm_id": 1553099258, "class": "in_detected_scour"}}, {"type": "Feature", "geometry": {"type": "Point", "coordinates": [85.134918, 27.914199]}, "properties": {"osm_id": 1553099259, "class": "within_50m_of_scour"}}, {"type": "Feature", "geometry": {"type": "Point", "coordinates": [85.134906, 27.91448]}, "properties": {"osm_id": 1553099260, "class": "within_50m_of_scour"}}, {"type": "Feature", "geometry": {"type": "Point", "coordinates": [85.134948, 27.914413]}, "properties": {"osm_id": 1553099261, "class": "within_50m_of_scour"}}, {"type": "Feature", "geometry": {"type": "Point", "coordinates": [85.134778, 27.914346]}, "properties": {"osm_id": 1553099262, "class": "within_50m_of_scour"}}, {"type": "Feature", "geometry": {"type": "Point", "coordinates": [85.134737, 27.914503]}, "properties": {"osm_id": 1553099263, "class": "within_50m_of_scour"}}, {"type": "Feature", "geometry": {"type": "Point", "coordinates": [85.072451, 27.855707]}, "properties": {"osm_id": 1553101779, "class": "within_50m_of_scour"}}, {"type": "Feature", "geometry": {"type": "Point", "coordinates": [85.072399, 27.855645]}, "properties": {"osm_id": 1553101780, "class": "within_50m_of_scour"}}, {"type": "Feature", "geometry": {"type": "Point", "coordinates": [85.072453, 27.855612]}, "properties": {"osm_id": 1553101781, "class": "within_50m_of_scour"}}, {"type": "Feature", "geometry": {"type": "Point", "coordinates": [85.072686, 27.855445]}, "properties": {"osm_id": 1553105857, "class": "within_50m_of_scour"}}, {"type": "Feature", "geometry": {"type": "Point", "coordinates": [85.072648, 27.854485]}, "properties": {"osm_id": 1553105870, "class": "within_50m_of_scour"}}, {"type": "Feature", "geometry": {"type": "Point", "coordinates": [85.086763, 27.857113]}, "properties": {"osm_id": 1553114410, "class": "within_50m_of_scour"}}, {"type": "Feature", "geometry": {"type": "Point", "coordinates": [85.086299, 27.85701]}, "properties": {"osm_id": 1553114411, "class": "within_50m_of_scour"}}, {"type": "Feature", "geometry": {"type": "Point", "coordinates": [85.08658, 27.85728]}, "properties": {"osm_id": 1553114412, "class": "within_50m_of_scour"}}, {"type": "Feature", "geometry": {"type": "Point", "coordinates": [85.086926, 27.857244]}, "properties": {"osm_id": 1553114413, "class": "within_50m_of_scour"}}, {"type": "Feature", "geometry": {"type": "Point", "coordinates": [85.086734, 27.857239]}, "properties": {"osm_id": 1553114414, "class": "within_50m_of_scour"}}, {"type": "Feature", "geometry": {"type": "Point", "coordinates": [85.086569, 27.858414]}, "properties": {"osm_id": 1553114418, "class": "within_50m_of_scour"}}, {"type": "Feature", "geometry": {"type": "Point", "coordinates": [85.085206, 27.857895]}, "properties": {"osm_id": 1553114423, "class": "within_50m_of_scour"}}, {"type": "Feature", "geometry": {"type": "Point", "coordinates": [85.085055, 27.857967]}, "properties": {"osm_id": 1553114424, "class": "within_50m_of_scour"}}, {"type": "Feature", "geometry": {"type": "Point", "coordinates": [85.084992, 27.857837]}, "properties": {"osm_id": 1553114425, "class": "within_50m_of_scour"}}, {"type": "Feature", "geometry": {"type": "Point", "coordinates": [85.084882, 27.85785]}, "properties": {"osm_id": 1553114426, "class": "within_50m_of_scour"}}, {"type": "Feature", "geometry": {"type": "Point", "coordinates": [85.084144, 27.857699]}, "properties": {"osm_id": 1553114430, "class": "within_50m_of_scour"}}, {"type": "Feature", "geometry": {"type": "Point", "coordinates": [85.084142, 27.857836]}, "properties": {"osm_id": 1553114431, "class": "within_50m_of_scour"}}, {"type": "Feature", "geometry": {"type": "Point", "coordinates": [85.090281, 27.857656]}, "properties": {"osm_id": 1553115539, "class": "within_50m_of_scour"}}, {"type": "Feature", "geometry": {"type": "Point", "coordinates": [85.090916, 27.858421]}, "properties": {"osm_id": 1553115559, "class": "within_50m_of_scour"}}, {"type": "Feature", "geometry": {"type": "Point", "coordinates": [85.09335, 27.858349]}, "properties": {"osm_id": 1553115570, "class": "within_50m_of_scour"}}, {"type": "Feature", "geometry": {"type": "Point", "coordinates": [85.093781, 27.858332]}, "properties": {"osm_id": 1553115571, "class": "within_50m_of_scour"}}, {"type": "Feature", "geometry": {"type": "Point", "coordinates": [85.094415, 27.857951]}, "properties": {"osm_id": 1553115572, "class": "within_50m_of_scour"}}, {"type": "Feature", "geometry": {"type": "Point", "coordinates": [85.094568, 27.857936]}, "properties": {"osm_id": 1553115573, "class": "within_50m_of_scour"}}, {"type": "Feature", "geometry": {"type": "Point", "coordinates": [85.094451, 27.857979]}, "properties": {"osm_id": 1553115574, "class": "within_50m_of_scour"}}, {"type": "Feature", "geometry": {"type": "Point", "coordinates": [85.093939, 27.857893]}, "properties": {"osm_id": 1553115576, "class": "within_50m_of_scour"}}, {"type": "Feature", "geometry": {"type": "Point", "coordinates": [85.17034, 27.959947]}, "properties": {"osm_id": 1553122478, "class": "within_50m_of_scour"}}, {"type": "Feature", "geometry": {"type": "Point", "coordinates": [85.080393, 27.854921]}, "properties": {"osm_id": 1553129750, "class": "within_50m_of_scour"}}, {"type": "Feature", "geometry": {"type": "Point", "coordinates": [85.094924, 27.858152]}, "properties": {"osm_id": 1553131519, "class": "within_50m_of_scour"}}, {"type": "Feature", "geometry": {"type": "Point", "coordinates": [85.097302, 27.858607]}, "properties": {"osm_id": 1553133303, "class": "within_50m_of_scour"}}, {"type": "Feature", "geometry": {"type": "Point", "coordinates": [85.097017, 27.858561]}, "properties": {"osm_id": 1553133304, "class": "within_50m_of_scour"}}, {"type": "Feature", "geometry": {"type": "Point", "coordinates": [85.097122, 27.858611]}, "properties": {"osm_id": 1553133305, "class": "within_50m_of_scour"}}, {"type": "Feature", "geometry": {"type": "Point", "coordinates": [85.096998, 27.858672]}, "properties": {"osm_id": 1553133306, "class": "within_50m_of_scour"}}, {"type": "Feature", "geometry": {"type": "Point", "coordinates": [85.094807, 27.858815]}, "properties": {"osm_id": 1553133320, "class": "within_50m_of_scour"}}, {"type": "Feature", "geometry": {"type": "Point", "coordinates": [85.094557, 27.859148]}, "properties": {"osm_id": 1553133321, "class": "within_50m_of_scour"}}, {"type": "Feature", "geometry": {"type": "Point", "coordinates": [85.098619, 27.860935]}, "properties": {"osm_id": 1553133327, "class": "within_50m_of_scour"}}, {"type": "Feature", "geometry": {"type": "Point", "coordinates": [85.09845, 27.86098]}, "properties": {"osm_id": 1553133328, "class": "within_50m_of_scour"}}, {"type": "Feature", "geometry": {"type": "Point", "coordinates": [85.098277, 27.861039]}, "properties": {"osm_id": 1553133329, "class": "within_50m_of_scour"}}, {"type": "Feature", "geometry": {"type": "Point", "coordinates": [85.098007, 27.861168]}, "properties": {"osm_id": 1553133331, "class": "within_50m_of_scour"}}, {"type": "Feature", "geometry": {"type": "Point", "coordinates": [85.098115, 27.861028]}, "properties": {"osm_id": 1553133332, "class": "within_50m_of_scour"}}, {"type": "Feature", "geometry": {"type": "Point", "coordinates": [85.097399, 27.861294]}, "properties": {"osm_id": 1553133335, "class": "within_50m_of_scour"}}, {"type": "Feature", "geometry": {"type": "Point", "coordinates": [85.097502, 27.861203]}, "properties": {"osm_id": 1553133336, "class": "within_50m_of_scour"}}, {"type": "Feature", "geometry": {"type": "Point", "coordinates": [85.097609, 27.861496]}, "properties": {"osm_id": 1553133338, "class": "within_50m_of_scour"}}, {"type": "Feature", "geometry": {"type": "Point", "coordinates": [85.097504, 27.861633]}, "properties": {"osm_id": 1553133339, "class": "within_50m_of_scour"}}, {"type": "Feature", "geometry": {"type": "Point", "coordinates": [85.097881, 27.861718]}, "properties": {"osm_id": 1553133340, "class": "within_50m_of_scour"}}, {"type": "Feature", "geometry": {"type": "Point", "coordinates": [85.097828, 27.861465]}, "properties": {"osm_id": 1553133341, "class": "within_50m_of_scour"}}, {"type": "Feature", "geometry": {"type": "Point", "coordinates": [85.098692, 27.861254]}, "properties": {"osm_id": 1553133342, "class": "within_50m_of_scour"}}, {"type": "Feature", "geometry": {"type": "Point", "coordinates": [85.09889, 27.861513]}, "properties": {"osm_id": 1553133345, "class": "within_50m_of_scour"}}, {"type": "Feature", "geometry": {"type": "Point", "coordinates": [85.09905, 27.861391]}, "properties": {"osm_id": 1553133346, "class": "within_50m_of_scour"}}, {"type": "Feature", "geometry": {"type": "Point", "coordinates": [85.099614, 27.861071]}, "properties": {"osm_id": 1553133347, "class": "within_50m_of_scour"}}, {"type": "Feature", "geometry": {"type": "Point", "coordinates": [85.099601, 27.861001]}, "properties": {"osm_id": 1553133348, "class": "within_50m_of_scour"}}, {"type": "Feature", "geometry": {"type": "Point", "coordinates": [85.099697, 27.861022]}, "properties": {"osm_id": 1553133349, "class": "within_50m_of_scour"}}, {"type": "Feature", "geometry": {"type": "Point", "coordinates": [85.098663, 27.861426]}, "properties": {"osm_id": 1553133359, "class": "within_50m_of_scour"}}, {"type": "Feature", "geometry": {"type": "Point", "coordinates": [85.098358, 27.861544]}, "properties": {"osm_id": 1553133360, "class": "within_50m_of_scour"}}, {"type": "Feature", "geometry": {"type": "Point", "coordinates": [85.098352, 27.861676]}, "properties": {"osm_id": 1553133361, "class": "within_50m_of_scour"}}, {"type": "Feature", "geometry": {"type": "Point", "coordinates": [85.097475, 27.862221]}, "properties": {"osm_id": 1553133371, "class": "within_50m_of_scour"}}, {"type": "Feature", "geometry": {"type": "Point", "coordinates": [85.09739, 27.862299]}, "properties": {"osm_id": 1553133372, "class": "within_50m_of_scour"}}, {"type": "Feature", "geometry": {"type": "Point", "coordinates": [85.097156, 27.862354]}, "properties": {"osm_id": 1553133373, "class": "within_50m_of_scour"}}, {"type": "Feature", "geometry": {"type": "Point", "coordinates": [85.097018, 27.862316]}, "properties": {"osm_id": 1553133374, "class": "within_50m_of_scour"}}, {"type": "Feature", "geometry": {"type": "Point", "coordinates": [85.097015, 27.862388]}, "properties": {"osm_id": 1553133375, "class": "within_50m_of_scour"}}, {"type": "Feature", "geometry": {"type": "Point", "coordinates": [85.099085, 27.857224]}, "properties": {"osm_id": 1553133595, "class": "within_50m_of_scour"}}, {"type": "Feature", "geometry": {"type": "Point", "coordinates": [85.099342, 27.857263]}, "properties": {"osm_id": 1553133596, "class": "within_50m_of_scour"}}, {"type": "Feature", "geometry": {"type": "Point", "coordinates": [85.09945, 27.857199]}, "properties": {"osm_id": 1553133597, "class": "within_50m_of_scour"}}, {"type": "Feature", "geometry": {"type": "Point", "coordinates": [85.149637, 27.921611]}, "properties": {"osm_id": 1553137991, "class": "within_50m_of_scour"}}, {"type": "Feature", "geometry": {"type": "Point", "coordinates": [85.094995, 27.858176]}, "properties": {"osm_id": 1553138211, "class": "within_50m_of_scour"}}, {"type": "Feature", "geometry": {"type": "Point", "coordinates": [85.093735, 27.858331]}, "properties": {"osm_id": 1553138234, "class": "within_50m_of_scour"}}, {"type": "Feature", "geometry": {"type": "Point", "coordinates": [85.093654, 27.858345]}, "properties": {"osm_id": 1553138235, "class": "within_50m_of_scour"}}, {"type": "Feature", "geometry": {"type": "Point", "coordinates": [85.093688, 27.858381]}, "properties": {"osm_id": 1553138236, "class": "within_50m_of_scour"}}, {"type": "Feature", "geometry": {"type": "Point", "coordinates": [85.094929, 27.858192]}, "properties": {"osm_id": 1553138238, "class": "within_50m_of_scour"}}, {"type": "Feature", "geometry": {"type": "Point", "coordinates": [85.099173, 27.857411]}, "properties": {"osm_id": 1553138290, "class": "within_50m_of_scour"}}, {"type": "Feature", "geometry": {"type": "Point", "coordinates": [85.099248, 27.857335]}, "properties": {"osm_id": 1553138293, "class": "within_50m_of_scour"}}, {"type": "Feature", "geometry": {"type": "Point", "coordinates": [85.099039, 27.857363]}, "properties": {"osm_id": 1553138294, "class": "within_50m_of_scour"}}, {"type": "Feature", "geometry": {"type": "Point", "coordinates": [85.139622, 27.919291]}, "properties": {"osm_id": 1553149879, "class": "within_50m_of_scour"}}, {"type": "Feature", "geometry": {"type": "Point", "coordinates": [85.147457, 27.927251]}, "properties": {"osm_id": 1553155470, "class": "within_50m_of_scour"}}, {"type": "Feature", "geometry": {"type": "Point", "coordinates": [85.14744, 27.9272]}, "properties": {"osm_id": 1553155471, "class": "within_50m_of_scour"}}, {"type": "Feature", "geometry": {"type": "Point", "coordinates": [85.147341, 27.927112]}, "properties": {"osm_id": 1553155474, "class": "within_50m_of_scour"}}, {"type": "Feature", "geometry": {"type": "Point", "coordinates": [85.156905, 27.941271]}, "properties": {"osm_id": 1553167460, "class": "within_50m_of_scour"}}, {"type": "Feature", "geometry": {"type": "Point", "coordinates": [85.139276, 27.918241]}, "properties": {"osm_id": 1553167875, "class": "within_50m_of_scour"}}, {"type": "Feature", "geometry": {"type": "Point", "coordinates": [85.13938, 27.918237]}, "properties": {"osm_id": 1553167876, "class": "within_50m_of_scour"}}, {"type": "Feature", "geometry": {"type": "Point", "coordinates": [85.139283, 27.918146]}, "properties": {"osm_id": 1553167880, "class": "within_50m_of_scour"}}, {"type": "Feature", "geometry": {"type": "Point", "coordinates": [85.13867, 27.91583]}, "properties": {"osm_id": 1553171784, "class": "within_50m_of_scour"}}, {"type": "Feature", "geometry": {"type": "Point", "coordinates": [85.13892, 27.916017]}, "properties": {"osm_id": 1553171785, "class": "within_50m_of_scour"}}, {"type": "Feature", "geometry": {"type": "Point", "coordinates": [85.139002, 27.916024]}, "properties": {"osm_id": 1553171786, "class": "within_50m_of_scour"}}, {"type": "Feature", "geometry": {"type": "Point", "coordinates": [85.164653, 27.954905]}, "properties": {"osm_id": 1553174358, "class": "within_50m_of_scour"}}, {"type": "Feature", "geometry": {"type": "Point", "coordinates": [85.164328, 27.95477]}, "properties": {"osm_id": 1553174359, "class": "within_50m_of_scour"}}, {"type": "Feature", "geometry": {"type": "Point", "coordinates": [85.164585, 27.954547]}, "properties": {"osm_id": 1553174362, "class": "within_50m_of_scour"}}, {"type": "Feature", "geometry": {"type": "Point", "coordinates": [85.164435, 27.954547]}, "properties": {"osm_id": 1553174363, "class": "within_50m_of_scour"}}, {"type": "Feature", "geometry": {"type": "Point", "coordinates": [85.16426, 27.954203]}, "properties": {"osm_id": 1553174364, "class": "within_50m_of_scour"}}, {"type": "Feature", "geometry": {"type": "Point", "coordinates": [85.164171, 27.953872]}, "properties": {"osm_id": 1553174365, "class": "within_50m_of_scour"}}, {"type": "Feature", "geometry": {"type": "Point", "coordinates": [85.164129, 27.952466]}, "properties": {"osm_id": 1553174370, "class": "within_50m_of_scour"}}, {"type": "Feature", "geometry": {"type": "Point", "coordinates": [85.072487, 27.854979]}, "properties": {"osm_id": 1553238415, "class": "within_50m_of_scour"}}, {"type": "Feature", "geometry": {"type": "Point", "coordinates": [85.094167, 27.858625]}, "properties": {"osm_id": 1553248204, "class": "within_50m_of_scour"}}, {"type": "Feature", "geometry": {"type": "Point", "coordinates": [85.077269, 27.853283]}, "properties": {"osm_id": 1553281474, "class": "within_50m_of_scour"}}, {"type": "Feature", "geometry": {"type": "Point", "coordinates": [85.080723, 27.854735]}, "properties": {"osm_id": 1553285275, "class": "within_50m_of_scour"}}, {"type": "Feature", "geometry": {"type": "Point", "coordinates": [85.080028, 27.85499]}, "properties": {"osm_id": 1553285277, "class": "within_50m_of_scour"}}, {"type": "Feature", "geometry": {"type": "Point", "coordinates": [85.078898, 27.854684]}, "properties": {"osm_id": 1553285279, "class": "within_50m_of_scour"}}]}