{"type": "FeatureCollection", "features": [{"type": "Feature", "geometry": {"type": "Polygon", "coordinates": [[[85.3691518, 28.2408875], [85.3692159, 28.2408802], [85.3691971, 28.2407528], [85.3691669, 28.2407562], [85.36916, 28.2407095], [85.3691261, 28.2407134], [85.3691518, 28.2408875]]]}, "properties": {"osm_id": 340607023, "class": "unassessed_cloud", "dist_channel_m": 926, "dh_median_m": null, "name": ""}}, {"type": "Feature", "geometry": {"type": "Polygon", "coordinates": [[[85.3688826, 28.2387682], [85.3688702, 28.2388402], [85.3688856, 28.2388423], [85.3688815, 28.238866], [85.3689358, 28.2388733], [85.3689408, 28.2388446], [85.3689544, 28.2388465], [85.368966, 28.2387794], [85.3688826, 28.2387682]]]}, "properties": {"osm_id": 340607027, "class": "unassessed_cloud", "dist_channel_m": 1060, "dh_median_m": null, "name": ""}}, {"type": "Feature", "geometry": {"type": "Polygon", "coordinates": [[[85.3699043, 28.2364591], [85.3699697, 28.2364665], [85.3699807, 28.2363911], [85.3699154, 28.2363836], [85.3699043, 28.2364591]]]}, "properties": {"osm_id": 340607028, "class": "unassessed_cloud", "dist_channel_m": 1058, "dh_median_m": null, "name": ""}}, {"type": "Feature", "geometry": {"type": "Polygon", "coordinates": [[[85.3695554, 28.2372895], [85.3695586, 28.2372592], [85.369629, 28.2372649], [85.3696259, 28.2372953], [85.3695554, 28.2372895]]]}, "properties": {"osm_id": 340607897, "class": "unassessed_cloud", "dist_channel_m": 1061, "dh_median_m": null, "name": ""}}, {"type": "Feature", "geometry": {"type": "Polygon", "coordinates": [[[85.3710543, 28.2356228], [85.3711402, 28.2356323], [85.3711482, 28.2355519], [85.3710678, 28.2355448], [85.3710543, 28.2356228]]]}, "properties": {"osm_id": 340608495, "class": "unassessed_cloud", "dist_channel_m": 1128, "dh_median_m": null, "name": ""}}, {"type": "Feature", "geometry": {"type": "Polygon", "coordinates": [[[85.3707089, 28.2346609], [85.3707883, 28.2346562], [85.3707815, 28.2345689], [85.3707022, 28.2345737], [85.3707089, 28.2346609]]]}, "properties": {"osm_id": 340608496, "class": "unassessed_cloud", "dist_channel_m": 1064, "dh_median_m": null, "name": ""}}, {"type": "Feature", "geometry": {"type": "Polygon", "coordinates": [[[85.3700362, 28.2354283], [85.3700895, 28.2354366], [85.3701144, 28.2353121], [85.3700611, 28.2353039], [85.3700362, 28.2354283]]]}, "properties": {"osm_id": 340608497, "class": "unassessed_cloud", "dist_channel_m": 1025, "dh_median_m": null, "name": ""}}, {"type": "Feature", "geometry": {"type": "Polygon", "coordinates": [[[85.3706833, 28.2344627], [85.370697, 28.2345488], [85.3707981, 28.2345363], [85.3707844, 28.2344502], [85.3706833, 28.2344627]]]}, "properties": {"osm_id": 340608498, "class": "unassessed_cloud", "dist_channel_m": 1060, "dh_median_m": null, "name": ""}}, {"type": "Feature", "geometry": {"type": "Polygon", "coordinates": [[[85.370031, 28.2357007], [85.3700552, 28.2355429], [85.3701469, 28.2355538], [85.3701227, 28.2357116], [85.370031, 28.2357007]]]}, "properties": {"osm_id": 340608501, "class": "unassessed_cloud", "dist_channel_m": 1036, "dh_median_m": null, "name": ""}}, {"type": "Feature", "geometry": {"type": "Polygon", "coordinates": [[[85.3670153, 28.2534042], [85.3670654, 28.2534058], [85.36707, 28.2532917], [85.36702, 28.2532901], [85.3670153, 28.2534042]]]}, "properties": {"osm_id": 340624499, "class": "probable_intact", "dist_channel_m": 218, "dh_median_m": 2.04, "name": ""}}, {"type": "Feature", "geometry": {"type": "Polygon", "coordinates": [[[85.382693, 28.2401445], [85.3827627, 28.2401019], [85.3826983, 28.2400199], [85.3826286, 28.2400624], [85.382693, 28.2401445]]]}, "properties": {"osm_id": 340624520, "class": "unassessed_cloud", "dist_channel_m": 2042, "dh_median_m": null, "name": ""}}, {"type": "Feature", "geometry": {"type": "Polygon", "coordinates": [[[85.3486465, 28.2383713], [85.3486769, 28.2383902], [85.3487057, 28.2383542], [85.3486753, 28.2383353], [85.3486465, 28.2383713]]]}, "properties": {"osm_id": 340624529, "class": "unassessed_cloud", "dist_channel_m": 885, "dh_median_m": null, "name": ""}}, {"type": "Feature", "geometry": {"type": "Polygon", "coordinates": [[[85.382761, 28.2402311], [85.382879, 28.2401712], [85.3828315, 28.2400986], [85.3827135, 28.2401584], [85.382761, 28.2402311]]]}, "properties": {"osm_id": 340624564, "class": "unassessed_cloud", "dist_channel_m": 2046, "dh_median_m": null, "name": ""}}, {"type": "Feature", "geometry": {"type": "Polygon", "coordinates": [[[85.3718865, 28.2353196], [85.3719148, 28.2352446], [85.3719944, 28.235268], [85.371966, 28.2353429], [85.3718865, 28.2353196]]]}, "properties": {"osm_id": 341460868, "class": "unassessed_cloud", "dist_channel_m": 1196, "dh_median_m": null, "name": ""}}, {"type": "Feature", "geometry": {"type": "Polygon", "coordinates": [[[85.3742125, 28.240021], [85.3742686, 28.240052], [85.3742884, 28.2400242], [85.3742322, 28.2399933], [85.3742125, 28.240021]]]}, "properties": {"osm_id": 341468009, "class": "unassessed_cloud", "dist_channel_m": 1351, "dh_median_m": null, "name": ""}}, {"type": "Feature", "geometry": {"type": "Polygon", "coordinates": [[[85.3744259, 28.2396309], [85.3743838, 28.2396617], [85.3744329, 28.2397255], [85.3744749, 28.2397029], [85.3744259, 28.2396309]]]}, "properties": {"osm_id": 341468011, "class": "unassessed_cloud", "dist_channel_m": 1390, "dh_median_m": null, "name": ""}}, {"type": "Feature", "geometry": {"type": "Polygon", "coordinates": [[[85.3744195, 28.2397623], [85.3744475, 28.2398323], [85.3744966, 28.2398138], [85.3744709, 28.2397479], [85.3744195, 28.2397623]]]}, "properties": {"osm_id": 341468013, "class": "unassessed_cloud", "dist_channel_m": 1384, "dh_median_m": null, "name": ""}}, {"type": "Feature", "geometry": {"type": "Polygon", "coordinates": [[[85.3671318, 28.2560893], [85.3671506, 28.2560547], [85.3671202, 28.2560419], [85.3671014, 28.2560765], [85.3671318, 28.2560893]]]}, "properties": {"osm_id": 341558535, "class": "probable_intact", "dist_channel_m": 133, "dh_median_m": -2.23, "name": ""}}, {"type": "Feature", "geometry": {"type": "Polygon", "coordinates": [[[85.3675215, 28.2559269], [85.367594, 28.2559266], [85.3675933, 28.2558292], [85.3675207, 28.2558297], [85.3675215, 28.2559269]]]}, "properties": {"osm_id": 341558537, "class": "probable_intact", "dist_channel_m": 176, "dh_median_m": -1.81, "name": ""}}, {"type": "Feature", "geometry": {"type": "Polygon", "coordinates": [[[85.3580742, 28.2338772], [85.3581004, 28.2338808], [85.358104, 28.2338604], [85.3580779, 28.2338568], [85.3580742, 28.2338772]]]}, "properties": {"osm_id": 341558552, "class": "unassessed_cloud", "dist_channel_m": 107, "dh_median_m": null, "name": ""}}, {"type": "Feature", "geometry": {"type": "Polygon", "coordinates": [[[85.4151679, 28.2946103], [85.4151906, 28.2946338], [85.415238, 28.2945981], [85.4152153, 28.2945747], [85.4151679, 28.2946103]]]}, "properties": {"osm_id": 341571461, "class": "unassessed_cloud", "dist_channel_m": 1359, "dh_median_m": null, "name": ""}}, {"type": "Feature", "geometry": {"type": "Polygon", "coordinates": [[[85.4152558, 28.2945767], [85.4152893, 28.2945431], [85.4152515, 28.2945139], [85.415218, 28.2945475], [85.4152558, 28.2945767]]]}, "properties": {"osm_id": 341571465, "class": "unassessed_cloud", "dist_channel_m": 1367, "dh_median_m": null, "name": ""}}, {"type": "Feature", "geometry": {"type": "Polygon", "coordinates": [[[85.4153981, 28.2944331], [85.4154536, 28.2944066], [85.4154396, 28.2943839], [85.4153841, 28.2944104], [85.4153981, 28.2944331]]]}, "properties": {"osm_id": 341571467, "class": "unassessed_cloud", "dist_channel_m": 1389, "dh_median_m": null, "name": ""}}, {"type": "Feature", "geometry": {"type": "Polygon", "coordinates": [[[85.3835096, 28.2397428], [85.383549, 28.2397554], [85.38357, 28.2397047], [85.3835306, 28.2396921], [85.3835096, 28.2397428]]]}, "properties": {"osm_id": 341577133, "class": "unassessed_cloud", "dist_channel_m": 2134, "dh_median_m": null, "name": ""}}, {"type": "Feature", "geometry": {"type": "Polygon", "coordinates": [[[85.3840001, 28.239709], [85.3840313, 28.2397147], [85.3840418, 28.2396701], [85.3840106, 28.2396644], [85.3840001, 28.239709]]]}, "properties": {"osm_id": 341577141, "class": "unassessed_cloud", "dist_channel_m": 2177, "dh_median_m": null, "name": ""}}, {"type": "Feature", "geometry": {"type": "Polygon", "coordinates": [[[85.3710969, 28.2370199], [85.3711341, 28.2370494], [85.3711636, 28.2370206], [85.3711263, 28.2369911], [85.3710969, 28.2370199]]]}, "properties": {"osm_id": 341577144, "class": "unassessed_cloud", "dist_channel_m": 1192, "dh_median_m": null, "name": ""}}, {"type": "Feature", "geometry": {"type": "Polygon", "coordinates": [[[85.3708031, 28.2368651], [85.3708587, 28.23691], [85.3709058, 28.2368648], [85.3708502, 28.2368199], [85.3708031, 28.2368651]]]}, "properties": {"osm_id": 341577150, "class": "unassessed_cloud", "dist_channel_m": 1159, "dh_median_m": null, "name": ""}}, {"type": "Feature", "geometry": {"type": "Polygon", "coordinates": [[[85.3713389, 28.2364143], [85.371406, 28.2364403], [85.371431, 28.23639], [85.371364, 28.2363641], [85.3713389, 28.2364143]]]}, "properties": {"osm_id": 341577157, "class": "unassessed_cloud", "dist_channel_m": 1186, "dh_median_m": null, "name": ""}}, {"type": "Feature", "geometry": {"type": "Polygon", "coordinates": [[[85.3902638, 28.2465707], [85.3902847, 28.2465328], [85.3903529, 28.2465619], [85.3903207, 28.246595], [85.3902638, 28.2465707]]]}, "properties": {"osm_id": 341592644, "class": "unassessed_cloud", "dist_channel_m": 2517, "dh_median_m": null, "name": ""}}, {"type": "Feature", "geometry": {"type": "Polygon", "coordinates": [[[85.393704, 28.3063239], [85.3936826, 28.3063101], [85.3937017, 28.3062871], [85.3937232, 28.306301], [85.393704, 28.3063239]]]}, "properties": {"osm_id": 342146759, "class": "unassessed_cloud", "dist_channel_m": 993, "dh_median_m": null, "name": ""}}, {"type": "Feature", "geometry": {"type": "Polygon", "coordinates": [[[85.3698909, 28.2364532], [85.3698329, 28.2364466], [85.369844, 28.2363711], [85.369902, 28.2363777], [85.3698909, 28.2364532]]]}, "properties": {"osm_id": 456320327, "class": "unassessed_cloud", "dist_channel_m": 1052, "dh_median_m": null, "name": ""}}, {"type": "Feature", "geometry": {"type": "Polygon", "coordinates": [[[85.3556765, 28.2404038], [85.3557189, 28.2403982], [85.3556916, 28.2402369], [85.3556491, 28.2402425], [85.3556765, 28.2404038]]]}, "properties": {"osm_id": 846885650, "class": "unassessed_cloud", "dist_channel_m": 167, "dh_median_m": null, "name": ""}}, {"type": "Feature", "geometry": {"type": "Polygon", "coordinates": [[[85.3564511, 28.2400947], [85.3564887, 28.240123], [85.3565194, 28.2400914], [85.3564819, 28.2400631], [85.3564511, 28.2400947]]]}, "properties": {"osm_id": 846885651, "class": "unassessed_cloud", "dist_channel_m": 105, "dh_median_m": null, "name": ""}}, {"type": "Feature", "geometry": {"type": "Polygon", "coordinates": [[[85.3563961, 28.2401325], [85.3564538, 28.2401585], [85.3564737, 28.2401242], [85.3564161, 28.2400982], [85.3563961, 28.2401325]]]}, "properties": {"osm_id": 846885652, "class": "unassessed_cloud", "dist_channel_m": 107, "dh_median_m": null, "name": ""}}, {"type": "Feature", "geometry": {"type": "Polygon", "coordinates": [[[85.3583, 28.2340607], [85.358343, 28.2340631], [85.3583501, 28.2339632], [85.3583071, 28.2339609], [85.3583, 28.2340607]]]}, "properties": {"osm_id": 846885673, "class": "unassessed_cloud", "dist_channel_m": 78, "dh_median_m": null, "name": ""}}, {"type": "Feature", "geometry": {"type": "Polygon", "coordinates": [[[85.3582949, 28.2339316], [85.3583459, 28.233941], [85.3583676, 28.2338502], [85.3583166, 28.2338407], [85.3582949, 28.2339316]]]}, "properties": {"osm_id": 846885674, "class": "unassessed_cloud", "dist_channel_m": 87, "dh_median_m": null, "name": ""}}, {"type": "Feature", "geometry": {"type": "Polygon", "coordinates": [[[85.3579867, 28.2339343], [85.3580323, 28.2339343], [85.3580323, 28.233809], [85.3579867, 28.233809], [85.3579867, 28.2339343]]]}, "properties": {"osm_id": 846885675, "class": "unassessed_cloud", "dist_channel_m": 113, "dh_median_m": null, "name": ""}}, {"type": "Feature", "geometry": {"type": "Polygon", "coordinates": [[[85.3981604, 28.2447171], [85.3982274, 28.2447137], [85.3982343, 28.2446655], [85.3981588, 28.2446649], [85.3981542, 28.244692], [85.3981604, 28.2447171]]]}, "properties": {"osm_id": 848282055, "class": "unassessed_cloud", "dist_channel_m": 3238, "dh_median_m": null, "name": ""}}, {"type": "Feature", "geometry": {"type": "Polygon", "coordinates": [[[85.3993336, 28.2469334], [85.3994302, 28.2469192], [85.3994221, 28.2468814], [85.3993363, 28.2468885], [85.3993336, 28.2469334]]]}, "properties": {"osm_id": 848282064, "class": "unassessed_cloud", "dist_channel_m": 3193, "dh_median_m": null, "name": ""}}, {"type": "Feature", "geometry": {"type": "Polygon", "coordinates": [[[85.3995454, 28.2456506], [85.3995084, 28.2456343], [85.3995639, 28.2455746], [85.399607, 28.2455977], [85.3995454, 28.2456506]]]}, "properties": {"osm_id": 848282068, "class": "unassessed_cloud", "dist_channel_m": 3287, "dh_median_m": null, "name": ""}}, {"type": "Feature", "geometry": {"type": "Polygon", "coordinates": [[[85.3675327, 28.2554926], [85.3675071, 28.2555572], [85.367616, 28.2555909], [85.3676477, 28.2555115], [85.3675386, 28.2554778], [85.3675327, 28.2554926]]]}, "properties": {"osm_id": 851367114, "class": "probable_intact", "dist_channel_m": 206, "dh_median_m": -1.44, "name": ""}}, {"type": "Feature", "geometry": {"type": "Polygon", "coordinates": [[[85.3674527, 28.2559645], [85.36751, 28.2559645], [85.36751, 28.2558886], [85.3674527, 28.2558887], [85.3674527, 28.2559645]]]}, "properties": {"osm_id": 851367115, "class": "probable_intact", "dist_channel_m": 167, "dh_median_m": -1.0, "name": ""}}, {"type": "Feature", "geometry": {"type": "Polygon", "coordinates": [[[85.3672671, 28.2558969], [85.3672658, 28.2560103], [85.3673323, 28.2560109], [85.3673336, 28.2558975], [85.3672671, 28.2558969]]]}, "properties": {"osm_id": 851367116, "class": "probable_intact", "dist_channel_m": 154, "dh_median_m": -2.42, "name": ""}}, {"type": "Feature", "geometry": {"type": "Polygon", "coordinates": [[[85.367538, 28.2562565], [85.3675328, 28.2563664], [85.3676064, 28.2563691], [85.3676115, 28.2562591], [85.367538, 28.2562565]]]}, "properties": {"osm_id": 851367117, "class": "probable_intact", "dist_channel_m": 149, "dh_median_m": -1.09, "name": ""}}, {"type": "Feature", "geometry": {"type": "Polygon", "coordinates": [[[85.3675195, 28.2559406], [85.3675208, 28.2561202], [85.3676109, 28.2561197], [85.3676096, 28.2559401], [85.3675195, 28.2559406]]]}, "properties": {"osm_id": 851367118, "class": "probable_intact", "dist_channel_m": 167, "dh_median_m": -1.2, "name": ""}}, {"type": "Feature", "geometry": {"type": "Polygon", "coordinates": [[[85.3680396, 28.2561556], [85.3680849, 28.2562478], [85.3681268, 28.2562318], [85.3680815, 28.2561397], [85.3680396, 28.2561556]]]}, "properties": {"osm_id": 851367119, "class": "probable_intact", "dist_channel_m": 199, "dh_median_m": 0.3, "name": ""}}, {"type": "Feature", "geometry": {"type": "Polygon", "coordinates": [[[85.3675354, 28.2566707], [85.3675502, 28.2567009], [85.3675825, 28.2566885], [85.3675676, 28.2566584], [85.3675354, 28.2566707]]]}, "properties": {"osm_id": 851367120, "class": "probable_intact", "dist_channel_m": 131, "dh_median_m": -1.27, "name": ""}}, {"type": "Feature", "geometry": {"type": "Polygon", "coordinates": [[[85.3673851, 28.2568089], [85.3674226, 28.2568822], [85.3674753, 28.2568613], [85.3674379, 28.256788], [85.3673851, 28.2568089]]]}, "properties": {"osm_id": 851367121, "class": "probable_intact", "dist_channel_m": 115, "dh_median_m": 0.05, "name": ""}}, {"type": "Feature", "geometry": {"type": "Polygon", "coordinates": [[[85.3674133, 28.2570487], [85.3674468, 28.2571167], [85.3674915, 28.2570997], [85.367458, 28.2570316], [85.3674133, 28.2570487]]]}, "properties": {"osm_id": 851367122, "class": "probable_intact", "dist_channel_m": 101, "dh_median_m": 0.81, "name": ""}}, {"type": "Feature", "geometry": {"type": "Polygon", "coordinates": [[[85.3841449, 28.2408685], [85.3841449, 28.2409253], [85.3841946, 28.2409253], [85.3841946, 28.2408685], [85.3841449, 28.2408685]]]}, "properties": {"osm_id": 851368412, "class": "unassessed_cloud", "dist_channel_m": 2130, "dh_median_m": null, "name": ""}}, {"type": "Feature", "geometry": {"type": "Polygon", "coordinates": [[[85.3839102, 28.2403511], [85.3839894, 28.2404397], [85.3840421, 28.2404031], [85.3839629, 28.2403145], [85.3839102, 28.2403511]]]}, "properties": {"osm_id": 851368413, "class": "unassessed_cloud", "dist_channel_m": 2138, "dh_median_m": null, "name": ""}}, {"type": "Feature", "geometry": {"type": "Polygon", "coordinates": [[[85.3823492, 28.2400781], [85.3824551, 28.2402636], [85.3825077, 28.2402403], [85.3824018, 28.2400548], [85.3823492, 28.2400781]]]}, "properties": {"osm_id": 851368414, "class": "probable_intact", "dist_channel_m": 2016, "dh_median_m": 3.35, "name": ""}}, {"type": "Feature", "geometry": {"type": "Polygon", "coordinates": [[[85.3808418, 28.23912], [85.380941, 28.2391282], [85.38095, 28.2390445], [85.3808508, 28.2390363], [85.3808418, 28.23912]]]}, "properties": {"osm_id": 851368415, "class": "unassessed_cloud", "dist_channel_m": 1951, "dh_median_m": null, "name": ""}}, {"type": "Feature", "geometry": {"type": "Polygon", "coordinates": [[[85.3706279, 28.2339674], [85.3706279, 28.234043], [85.3706843, 28.234043], [85.3706843, 28.2339674], [85.3706279, 28.2339674]]]}, "properties": {"osm_id": 851368416, "class": "unassessed_cloud", "dist_channel_m": 1041, "dh_median_m": null, "name": ""}}, {"type": "Feature", "geometry": {"type": "Polygon", "coordinates": [[[85.3705931, 28.2337831], [85.3706279, 28.2338823], [85.3706779, 28.2338687], [85.3706431, 28.2337694], [85.3705931, 28.2337831]]]}, "properties": {"osm_id": 851368417, "class": "unassessed_cloud", "dist_channel_m": 1035, "dh_median_m": null, "name": ""}}, {"type": "Feature", "geometry": {"type": "Polygon", "coordinates": [[[85.3689019, 28.2328951], [85.3689901, 28.2328975], [85.3689926, 28.2328271], [85.3689043, 28.2328247], [85.3689019, 28.2328951]]]}, "properties": {"osm_id": 851368418, "class": "unassessed_cloud", "dist_channel_m": 858, "dh_median_m": null, "name": ""}}, {"type": "Feature", "geometry": {"type": "Polygon", "coordinates": [[[85.3674006, 28.2515644], [85.3674502, 28.2515993], [85.3674815, 28.2515647], [85.3674319, 28.2515298], [85.3674006, 28.2515644]]]}, "properties": {"osm_id": 851368429, "class": "probable_intact", "dist_channel_m": 235, "dh_median_m": 0.88, "name": ""}}, {"type": "Feature", "geometry": {"type": "Polygon", "coordinates": [[[85.3671518, 28.2513335], [85.3671705, 28.2514351], [85.3672151, 28.2514287], [85.3671963, 28.2513271], [85.3671518, 28.2513335]]]}, "properties": {"osm_id": 851368437, "class": "probable_intact", "dist_channel_m": 218, "dh_median_m": -0.82, "name": ""}}, {"type": "Feature", "geometry": {"type": "Polygon", "coordinates": [[[85.3533505, 28.2319339], [85.3533894, 28.2319044], [85.3533563, 28.2318706], [85.3533174, 28.2319002], [85.3533505, 28.2319339]]]}, "properties": {"osm_id": 851369426, "class": "unassessed_cloud", "dist_channel_m": 613, "dh_median_m": null, "name": ""}}, {"type": "Feature", "geometry": {"type": "Polygon", "coordinates": [[[85.352236, 28.2321312], [85.352291, 28.2321301], [85.3522899, 28.2320897], [85.3522349, 28.2320909], [85.352236, 28.2321312]]]}, "properties": {"osm_id": 851369427, "class": "unassessed_cloud", "dist_channel_m": 690, "dh_median_m": null, "name": ""}}, {"type": "Feature", "geometry": {"type": "Polygon", "coordinates": [[[85.367719, 28.2555661], [85.3677016, 28.2556004], [85.367735, 28.2556136], [85.3677524, 28.2555793], [85.367719, 28.2555661]]]}, "properties": {"osm_id": 851966256, "class": "probable_intact", "dist_channel_m": 212, "dh_median_m": -1.24, "name": ""}}, {"type": "Feature", "geometry": {"type": "Polygon", "coordinates": [[[85.3673289, 28.2554492], [85.3673181, 28.2554906], [85.3673576, 28.2554985], [85.3673684, 28.2554572], [85.3673289, 28.2554492]]]}, "properties": {"osm_id": 851966257, "class": "probable_intact", "dist_channel_m": 194, "dh_median_m": -0.76, "name": ""}}, {"type": "Feature", "geometry": {"type": "Polygon", "coordinates": [[[85.3674938, 28.2556453], [85.367471, 28.2557115], [85.3675206, 28.2557247], [85.3675434, 28.2556586], [85.3674938, 28.2556453]]]}, "properties": {"osm_id": 851966258, "class": "probable_intact", "dist_channel_m": 190, "dh_median_m": -2.01, "name": ""}}, {"type": "Feature", "geometry": {"type": "Polygon", "coordinates": [[[85.367518, 28.2552141], [85.3674844, 28.2553122], [85.3675262, 28.2553233], [85.3675598, 28.2552252], [85.367518, 28.2552141]]]}, "properties": {"osm_id": 851966262, "class": "probable_intact", "dist_channel_m": 223, "dh_median_m": -1.07, "name": ""}}, {"type": "Feature", "geometry": {"type": "Polygon", "coordinates": [[[85.3499816, 28.2327303], [85.3500058, 28.2327882], [85.3500504, 28.2327737], [85.3500262, 28.2327159], [85.3499816, 28.2327303]]]}, "properties": {"osm_id": 853616356, "class": "unassessed_cloud", "dist_channel_m": 863, "dh_median_m": null, "name": ""}}, {"type": "Feature", "geometry": {"type": "Polygon", "coordinates": [[[85.3704004, 28.2364168], [85.3704615, 28.2364209], [85.3704673, 28.236355], [85.3704062, 28.2363508], [85.3704004, 28.2364168]]]}, "properties": {"osm_id": 853616357, "class": "unassessed_cloud", "dist_channel_m": 1100, "dh_median_m": null, "name": ""}}, {"type": "Feature", "geometry": {"type": "Polygon", "coordinates": [[[85.367823, 28.2413069], [85.3678311, 28.2413872], [85.3678756, 28.2413838], [85.3678675, 28.2413035], [85.367823, 28.2413069]]]}, "properties": {"osm_id": 853616646, "class": "unassessed_cloud", "dist_channel_m": 791, "dh_median_m": null, "name": ""}}, {"type": "Feature", "geometry": {"type": "Polygon", "coordinates": [[[85.3737313, 28.2389014], [85.3737944, 28.2388875], [85.3737756, 28.2388213], [85.3737125, 28.2388352], [85.3737313, 28.2389014]]]}, "properties": {"osm_id": 853616647, "class": "unassessed_cloud", "dist_channel_m": 1397, "dh_median_m": null, "name": ""}}, {"type": "Feature", "geometry": {"type": "Polygon", "coordinates": [[[85.3746164, 28.2391542], [85.3747057, 28.2391883], [85.3747406, 28.2391174], [85.3746513, 28.2390833], [85.3746164, 28.2391542]]]}, "properties": {"osm_id": 853616648, "class": "unassessed_cloud", "dist_channel_m": 1445, "dh_median_m": null, "name": ""}}, {"type": "Feature", "geometry": {"type": "Polygon", "coordinates": [[[85.3694783, 28.2372439], [85.3695203, 28.2372478], [85.3695264, 28.2371984], [85.3694843, 28.2371944], [85.3694783, 28.2372439]]]}, "properties": {"osm_id": 853711484, "class": "unassessed_cloud", "dist_channel_m": 1051, "dh_median_m": null, "name": ""}}, {"type": "Feature", "geometry": {"type": "Polygon", "coordinates": [[[85.3707789, 28.2369282], [85.3708097, 28.236949], [85.3708413, 28.2369127], [85.3708105, 28.2368919], [85.3707789, 28.2369282]]]}, "properties": {"osm_id": 853711485, "class": "unassessed_cloud", "dist_channel_m": 1159, "dh_median_m": null, "name": ""}}, {"type": "Feature", "geometry": {"type": "Polygon", "coordinates": [[[85.37085, 28.2362603], [85.3708787, 28.2362752], [85.3709246, 28.2362067], [85.370896, 28.2361918], [85.37085, 28.2362603]]]}, "properties": {"osm_id": 853711486, "class": "unassessed_cloud", "dist_channel_m": 1134, "dh_median_m": null, "name": ""}}, {"type": "Feature", "geometry": {"type": "Polygon", "coordinates": [[[85.3710799, 28.2357007], [85.3711295, 28.2356983], [85.3711266, 28.2356501], [85.3710769, 28.2356524], [85.3710799, 28.2357007]]]}, "properties": {"osm_id": 853711487, "class": "unassessed_cloud", "dist_channel_m": 1132, "dh_median_m": null, "name": ""}}, {"type": "Feature", "geometry": {"type": "Polygon", "coordinates": [[[85.3710893, 28.235742], [85.3711201, 28.2357432], [85.3711212, 28.2357207], [85.3710904, 28.2357195], [85.3710893, 28.235742]]]}, "properties": {"osm_id": 853711488, "class": "unassessed_cloud", "dist_channel_m": 1134, "dh_median_m": null, "name": ""}}, {"type": "Feature", "geometry": {"type": "Polygon", "coordinates": [[[85.3713039, 28.2356889], [85.3713401, 28.2356889], [85.3713401, 28.2356274], [85.3713039, 28.2356274], [85.3713039, 28.2356889]]]}, "properties": {"osm_id": 853711489, "class": "unassessed_cloud", "dist_channel_m": 1151, "dh_median_m": null, "name": ""}}, {"type": "Feature", "geometry": {"type": "Polygon", "coordinates": [[[85.3712475, 28.2358318], [85.3712749, 28.2358354], [85.3712803, 28.2358035], [85.3712529, 28.2357999], [85.3712475, 28.2358318]]]}, "properties": {"osm_id": 853711490, "class": "unassessed_cloud", "dist_channel_m": 1152, "dh_median_m": null, "name": ""}}, {"type": "Feature", "geometry": {"type": "Polygon", "coordinates": [[[85.3718242, 28.2353309], [85.3718674, 28.2353399], [85.3718942, 28.2352407], [85.371851, 28.2352316], [85.3718242, 28.2353309]]]}, "properties": {"osm_id": 853711491, "class": "unassessed_cloud", "dist_channel_m": 1189, "dh_median_m": null, "name": ""}}, {"type": "Feature", "geometry": {"type": "Polygon", "coordinates": [[[85.3744125, 28.2400238], [85.3744673, 28.2400077], [85.3744512, 28.2399652], [85.3743964, 28.2399813], [85.3744125, 28.2400238]]]}, "properties": {"osm_id": 853711492, "class": "unassessed_cloud", "dist_channel_m": 1367, "dh_median_m": null, "name": ""}}, {"type": "Feature", "geometry": {"type": "Polygon", "coordinates": [[[85.374371, 28.2398076], [85.3744152, 28.2397923], [85.3743911, 28.239738], [85.3743468, 28.2397532], [85.374371, 28.2398076]]]}, "properties": {"osm_id": 853711493, "class": "unassessed_cloud", "dist_channel_m": 1378, "dh_median_m": null, "name": ""}}, {"type": "Feature", "geometry": {"type": "Polygon", "coordinates": [[[85.3825209, 28.2400191], [85.3825957, 28.240015], [85.3825903, 28.2399393], [85.3825155, 28.2399435], [85.3825209, 28.2400191]]]}, "properties": {"osm_id": 853711494, "class": "unassessed_cloud", "dist_channel_m": 2036, "dh_median_m": null, "name": ""}}, {"type": "Feature", "geometry": {"type": "Polygon", "coordinates": [[[85.3675246, 28.2569837], [85.3675691, 28.2570212], [85.3675986, 28.256994], [85.3675541, 28.2569566], [85.3675246, 28.2569837]]]}, "properties": {"osm_id": 853711496, "class": "probable_intact", "dist_channel_m": 115, "dh_median_m": 0.08, "name": ""}}, {"type": "Feature", "geometry": {"type": "Polygon", "coordinates": [[[85.3579766, 28.2339709], [85.3580376, 28.2339709], [85.3580376, 28.2339437], [85.3579766, 28.2339437], [85.3579766, 28.2339709]]]}, "properties": {"osm_id": 853711583, "class": "unassessed_cloud", "dist_channel_m": 109, "dh_median_m": null, "name": ""}}, {"type": "Feature", "geometry": {"type": "Polygon", "coordinates": [[[85.3466903, 28.3054409], [85.3466965, 28.3053865], [85.3467237, 28.3053889], [85.3467176, 28.3054433], [85.3466903, 28.3054409]]]}, "properties": {"osm_id": 1154973139, "class": "probable_intact", "dist_channel_m": 4227, "dh_median_m": 2.42, "name": ""}}, {"type": "Feature", "geometry": {"type": "Polygon", "coordinates": [[[85.3467161, 28.3053585], [85.3467243, 28.3053151], [85.3467952, 28.3053255], [85.3467869, 28.305369], [85.3467161, 28.3053585]]]}, "properties": {"osm_id": 1154973140, "class": "probable_intact", "dist_channel_m": 4218, "dh_median_m": 1.92, "name": ""}}, {"type": "Feature", "geometry": {"type": "Polygon", "coordinates": [[[85.3674897, 28.2554035], [85.3675329, 28.2554331], [85.3675834, 28.2553758], [85.3675402, 28.2553462], [85.3674897, 28.2554035]]]}, "properties": {"osm_id": 1552855513, "class": "probable_intact", "dist_channel_m": 213, "dh_median_m": -1.14, "name": ""}}, {"type": "Feature", "geometry": {"type": "Polygon", "coordinates": [[[85.3675877, 28.25534], [85.3676298, 28.2553445], [85.3676444, 28.2552378], [85.3676023, 28.2552333], [85.3675877, 28.25534]]]}, "properties": {"osm_id": 1552855514, "class": "probable_intact", "dist_channel_m": 226, "dh_median_m": -0.74, "name": ""}}, {"type": "Feature", "geometry": {"type": "Polygon", "coordinates": [[[85.3576313, 28.2332819], [85.3575823, 28.2332593], [85.3576334, 28.2331731], [85.3576825, 28.2331958], [85.3576313, 28.2332819]]]}, "properties": {"osm_id": 1552890618, "class": "unassessed_cloud", "dist_channel_m": 178, "dh_median_m": null, "name": ""}}, {"type": "Feature", "geometry": {"type": "Polygon", "coordinates": [[[85.374338, 28.2848242], [85.3743682, 28.2848213], [85.3743614, 28.2847645], [85.3743312, 28.2847673], [85.374338, 28.2848242]]]}, "properties": {"osm_id": 1552896124, "class": "unassessed_cloud", "dist_channel_m": 711, "dh_median_m": null, "name": ""}}, {"type": "Feature", "geometry": {"type": "Polygon", "coordinates": [[[85.3743987, 28.2848558], [85.3744385, 28.2848536], [85.3744342, 28.2847929], [85.3743944, 28.2847951], [85.3743987, 28.2848558]]]}, "properties": {"osm_id": 1552896125, "class": "unassessed_cloud", "dist_channel_m": 711, "dh_median_m": null, "name": ""}}, {"type": "Feature", "geometry": {"type": "Polygon", "coordinates": [[[85.3697859, 28.2533928], [85.3698483, 28.2533952], [85.3698506, 28.2533465], [85.3697883, 28.2533441], [85.3697859, 28.2533928]]]}, "properties": {"osm_id": 1552900865, "class": "unassessed_cloud", "dist_channel_m": 474, "dh_median_m": null, "name": ""}}, {"type": "Feature", "geometry": {"type": "Polygon", "coordinates": [[[85.3697222, 28.2534509], [85.3697361, 28.2535662], [85.3697943, 28.2535607], [85.3697804, 28.2534455], [85.3697222, 28.2534509]]]}, "properties": {"osm_id": 1552900866, "class": "unassessed_cloud", "dist_channel_m": 472, "dh_median_m": null, "name": ""}}, {"type": "Feature", "geometry": {"type": "Polygon", "coordinates": [[[85.3696372, 28.241848], [85.3696934, 28.2419], [85.3697209, 28.241877], [85.3696647, 28.2418249], [85.3696372, 28.241848]]]}, "properties": {"osm_id": 1552902863, "class": "unassessed_cloud", "dist_channel_m": 879, "dh_median_m": null, "name": ""}}, {"type": "Feature", "geometry": {"type": "Polygon", "coordinates": [[[85.3707262, 28.236954], [85.3707578, 28.2369744], [85.3707779, 28.2369501], [85.3707463, 28.2369298], [85.3707262, 28.236954]]]}, "properties": {"osm_id": 1552908239, "class": "unassessed_cloud", "dist_channel_m": 1155, "dh_median_m": null, "name": ""}}, {"type": "Feature", "geometry": {"type": "Polygon", "coordinates": [[[85.3675957, 28.2565774], [85.367637, 28.2565575], [85.3676061, 28.2565078], [85.3675649, 28.2565278], [85.3675957, 28.2565774]]]}, "properties": {"osm_id": 1552916417, "class": "probable_intact", "dist_channel_m": 140, "dh_median_m": 0.09, "name": ""}}, {"type": "Feature", "geometry": {"type": "Polygon", "coordinates": [[[85.3674482, 28.2565198], [85.3675031, 28.2565176], [85.3675001, 28.2564588], [85.3674452, 28.256461], [85.3674482, 28.2565198]]]}, "properties": {"osm_id": 1552916418, "class": "probable_intact", "dist_channel_m": 130, "dh_median_m": -0.42, "name": ""}}, {"type": "Feature", "geometry": {"type": "Polygon", "coordinates": [[[85.367884, 28.2563033], [85.3679236, 28.2563031], [85.3679229, 28.2562159], [85.3678834, 28.2562161], [85.367884, 28.2563033]]]}, "properties": {"osm_id": 1552916424, "class": "probable_intact", "dist_channel_m": 179, "dh_median_m": -0.88, "name": ""}}, {"type": "Feature", "geometry": {"type": "Polygon", "coordinates": [[[85.3676896, 28.2561592], [85.3677303, 28.256159], [85.3677298, 28.2560859], [85.3676891, 28.2560862], [85.3676896, 28.2561592]]]}, "properties": {"osm_id": 1552916425, "class": "probable_intact", "dist_channel_m": 171, "dh_median_m": -1.14, "name": ""}}, {"type": "Feature", "geometry": {"type": "Polygon", "coordinates": [[[85.3675072, 28.2561958], [85.3675975, 28.2561953], [85.367597, 28.2561356], [85.3675068, 28.2561361], [85.3675072, 28.2561958]]]}, "properties": {"osm_id": 1552916426, "class": "probable_intact", "dist_channel_m": 155, "dh_median_m": -1.27, "name": ""}}, {"type": "Feature", "geometry": {"type": "Polygon", "coordinates": [[[85.3691188, 28.2393541], [85.3691646, 28.2393587], [85.3691545, 28.239437], [85.3691086, 28.2394324], [85.3691188, 28.2393541]]]}, "properties": {"osm_id": 1552919232, "class": "unassessed_cloud", "dist_channel_m": 1032, "dh_median_m": null, "name": ""}}, {"type": "Feature", "geometry": {"type": "Polygon", "coordinates": [[[85.3690854, 28.239507], [85.3690948, 28.2394454], [85.3691597, 28.2394531], [85.3691503, 28.2395146], [85.3690854, 28.239507]]]}, "properties": {"osm_id": 1552919233, "class": "unassessed_cloud", "dist_channel_m": 1024, "dh_median_m": null, "name": ""}}, {"type": "Feature", "geometry": {"type": "Polygon", "coordinates": [[[85.3689103, 28.2386936], [85.3689526, 28.2386983], [85.368942, 28.2387725], [85.3688997, 28.2387678], [85.3689103, 28.2386936]]]}, "properties": {"osm_id": 1552919234, "class": "unassessed_cloud", "dist_channel_m": 1069, "dh_median_m": null, "name": ""}}, {"type": "Feature", "geometry": {"type": "Polygon", "coordinates": [[[85.3522229, 28.2317328], [85.3521402, 28.2316966], [85.3521891, 28.2316097], [85.3522718, 28.2316459], [85.3522229, 28.2317328]]]}, "properties": {"osm_id": 1552936185, "class": "unassessed_cloud", "dist_channel_m": 720, "dh_median_m": null, "name": ""}}, {"type": "Feature", "geometry": {"type": "Polygon", "coordinates": [[[85.367357, 28.2558863], [85.3673999, 28.2556359], [85.367238, 28.2556048], [85.3671813, 28.2556654], [85.3671558, 28.2557433], [85.3671585, 28.255806], [85.3671759, 28.2558568], [85.3672098, 28.2558883], [85.367357, 28.2558863]]]}, "properties": {"osm_id": 1552942025, "class": "probable_intact", "dist_channel_m": 164, "dh_median_m": -0.21, "name": ""}}, {"type": "Feature", "geometry": {"type": "Polygon", "coordinates": [[[85.3677734, 28.2533281], [85.3679154, 28.2533348], [85.3679235, 28.2532013], [85.3677814, 28.2531947], [85.3677734, 28.2533281]]]}, "properties": {"osm_id": 1552942030, "class": "probable_intact", "dist_channel_m": 285, "dh_median_m": -1.64, "name": ""}}, {"type": "Feature", "geometry": {"type": "Polygon", "coordinates": [[[85.3675427, 28.2556412], [85.3675747, 28.2556463], [85.3675834, 28.2556044], [85.3675514, 28.2555993], [85.3675427, 28.2556412]]]}, "properties": {"osm_id": 1552942031, "class": "probable_intact", "dist_channel_m": 198, "dh_median_m": -1.2, "name": ""}}, {"type": "Feature", "geometry": {"type": "Polygon", "coordinates": [[[85.3674321, 28.2557505], [85.367464, 28.2557518], [85.3674667, 28.255701], [85.3674348, 28.2556997], [85.3674321, 28.2557505]]]}, "properties": {"osm_id": 1552942032, "class": "probable_intact", "dist_channel_m": 182, "dh_median_m": -2.01, "name": ""}}, {"type": "Feature", "geometry": {"type": "Polygon", "coordinates": [[[85.3677741, 28.255819], [85.3678333, 28.2558201], [85.3678347, 28.2557634], [85.3677754, 28.2557623], [85.3677741, 28.255819]]]}, "properties": {"osm_id": 1552942033, "class": "probable_intact", "dist_channel_m": 201, "dh_median_m": -0.88, "name": ""}}, {"type": "Feature", "geometry": {"type": "Polygon", "coordinates": [[[85.3681556, 28.2559492], [85.3681851, 28.2559512], [85.3681908, 28.2558842], [85.3681613, 28.2558823], [85.3681556, 28.2559492]]]}, "properties": {"osm_id": 1552942034, "class": "probable_intact", "dist_channel_m": 221, "dh_median_m": -0.31, "name": ""}}, {"type": "Feature", "geometry": {"type": "Polygon", "coordinates": [[[85.367072, 28.2527086], [85.3671163, 28.2527097], [85.3671177, 28.2526677], [85.3670733, 28.2526666], [85.367072, 28.2527086]]]}, "properties": {"osm_id": 1552942045, "class": "probable_intact", "dist_channel_m": 197, "dh_median_m": -2.09, "name": ""}}, {"type": "Feature", "geometry": {"type": "Polygon", "coordinates": [[[85.3670137, 28.2527292], [85.3670627, 28.2527204], [85.3670513, 28.2526714], [85.3670023, 28.2526802], [85.3670137, 28.2527292]]]}, "properties": {"osm_id": 1552942046, "class": "probable_intact", "dist_channel_m": 191, "dh_median_m": -1.79, "name": ""}}, {"type": "Feature", "geometry": {"type": "Polygon", "coordinates": [[[85.3676574, 28.255337], [85.3677213, 28.2553391], [85.3677258, 28.2552342], [85.3676618, 28.2552321], [85.3676574, 28.255337]]]}, "properties": {"osm_id": 1552942060, "class": "probable_intact", "dist_channel_m": 231, "dh_median_m": -1.07, "name": ""}}, {"type": "Feature", "geometry": {"type": "Polygon", "coordinates": [[[85.3671907, 28.2559796], [85.3672442, 28.2559814], [85.367247, 28.2559146], [85.3671935, 28.2559129], [85.3671907, 28.2559796]]]}, "properties": {"osm_id": 1552942062, "class": "probable_intact", "dist_channel_m": 148, "dh_median_m": -1.69, "name": ""}}, {"type": "Feature", "geometry": {"type": "Polygon", "coordinates": [[[85.3674448, 28.254679], [85.3674805, 28.2546776], [85.3674778, 28.2546245], [85.3674421, 28.2546259], [85.3674448, 28.254679]]]}, "properties": {"osm_id": 1552942087, "class": "probable_intact", "dist_channel_m": 234, "dh_median_m": -1.04, "name": ""}}, {"type": "Feature", "geometry": {"type": "Polygon", "coordinates": [[[85.366998, 28.2531984], [85.3669966, 28.2532487], [85.3670444, 28.2532497], [85.3670462, 28.253185], [85.3670273, 28.2531846], [85.3670289, 28.2531261], [85.3669818, 28.2531251], [85.3669798, 28.253198], [85.366998, 28.2531984]]]}, "properties": {"osm_id": 1552942089, "class": "probable_intact", "dist_channel_m": 207, "dh_median_m": 1.34, "name": ""}}, {"type": "Feature", "geometry": {"type": "Polygon", "coordinates": [[[85.3672577, 28.2541084], [85.3673007, 28.2541084], [85.3673007, 28.2540612], [85.3672577, 28.2540612], [85.3672577, 28.2541084]]]}, "properties": {"osm_id": 1552942091, "class": "destroyed", "dist_channel_m": 230, "dh_median_m": -3.59, "name": ""}}, {"type": "Feature", "geometry": {"type": "Polygon", "coordinates": [[[85.3672081, 28.2539891], [85.3672606, 28.2539859], [85.3672566, 28.2539351], [85.3672041, 28.2539383], [85.3672081, 28.2539891]]]}, "properties": {"osm_id": 1552942092, "class": "probable_intact", "dist_channel_m": 231, "dh_median_m": -1.7, "name": ""}}, {"type": "Feature", "geometry": {"type": "Polygon", "coordinates": [[[85.3681948, 28.254872], [85.3682174, 28.2548718], [85.3682171, 28.2548461], [85.3681945, 28.2548463], [85.3681948, 28.254872]]]}, "properties": {"osm_id": 1552942093, "class": "probable_intact", "dist_channel_m": 301, "dh_median_m": 0.08, "name": ""}}, {"type": "Feature", "geometry": {"type": "Polygon", "coordinates": [[[85.3681791, 28.2548397], [85.3682113, 28.2548397], [85.3682113, 28.254816], [85.3681791, 28.254816], [85.3681791, 28.2548397]]]}, "properties": {"osm_id": 1552942094, "class": "probable_intact", "dist_channel_m": 302, "dh_median_m": 0.17, "name": ""}}, {"type": "Feature", "geometry": {"type": "Polygon", "coordinates": [[[85.3681476, 28.2548025], [85.368193, 28.2548018], [85.3681906, 28.2546751], [85.3681452, 28.2546758], [85.3681476, 28.2548025]]]}, "properties": {"osm_id": 1552942095, "class": "probable_intact", "dist_channel_m": 303, "dh_median_m": 0.15, "name": ""}}, {"type": "Feature", "geometry": {"type": "Polygon", "coordinates": [[[85.3673168, 28.2553612], [85.3673533, 28.255363], [85.367356, 28.2553193], [85.3673194, 28.2553175], [85.3673168, 28.2553612]]]}, "properties": {"osm_id": 1552942096, "class": "probable_intact", "dist_channel_m": 203, "dh_median_m": -2.01, "name": ""}}, {"type": "Feature", "geometry": {"type": "Polygon", "coordinates": [[[85.3673168, 28.2552726], [85.367365, 28.2552735], [85.3673664, 28.2552192], [85.3673181, 28.2552183], [85.3673168, 28.2552726]]]}, "properties": {"osm_id": 1552942097, "class": "probable_intact", "dist_channel_m": 206, "dh_median_m": -1.9, "name": ""}}, {"type": "Feature", "geometry": {"type": "Polygon", "coordinates": [[[85.3687398, 28.2318913], [85.3687369, 28.2318457], [85.368779, 28.2318436], [85.368782, 28.2318892], [85.3687398, 28.2318913]]]}, "properties": {"osm_id": 1552949944, "class": "unassessed_cloud", "dist_channel_m": 814, "dh_median_m": null, "name": ""}}, {"type": "Feature", "geometry": {"type": "Polygon", "coordinates": [[[85.369042, 28.2330942], [85.3690469, 28.2330371], [85.3691018, 28.2330408], [85.3690969, 28.2330978], [85.369042, 28.2330942]]]}, "properties": {"osm_id": 1552949945, "class": "unassessed_cloud", "dist_channel_m": 872, "dh_median_m": null, "name": ""}}, {"type": "Feature", "geometry": {"type": "Polygon", "coordinates": [[[85.3700444, 28.2357725], [85.3700414, 28.2357223], [85.3701182, 28.2357187], [85.3701212, 28.2357689], [85.3700444, 28.2357725]]]}, "properties": {"osm_id": 1552950800, "class": "unassessed_cloud", "dist_channel_m": 1040, "dh_median_m": null, "name": ""}}, {"type": "Feature", "geometry": {"type": "Polygon", "coordinates": [[[85.3702791, 28.2351122], [85.3703094, 28.2351105], [85.3703055, 28.235056], [85.3702753, 28.2350576], [85.3702791, 28.2351122]]]}, "properties": {"osm_id": 1552950801, "class": "unassessed_cloud", "dist_channel_m": 1036, "dh_median_m": null, "name": ""}}, {"type": "Feature", "geometry": {"type": "Polygon", "coordinates": [[[85.3703025, 28.2352333], [85.3703684, 28.2352394], [85.3703589, 28.2353192], [85.370293, 28.2353131], [85.3703025, 28.2352333]]]}, "properties": {"osm_id": 1552950802, "class": "unassessed_cloud", "dist_channel_m": 1045, "dh_median_m": null, "name": ""}}, {"type": "Feature", "geometry": {"type": "Polygon", "coordinates": [[[85.3701944, 28.2355688], [85.3702124, 28.2355148], [85.3701666, 28.235503], [85.3701793, 28.2354649], [85.3702728, 28.2354891], [85.3702422, 28.2355812], [85.3701944, 28.2355688]]]}, "properties": {"osm_id": 1552950803, "class": "unassessed_cloud", "dist_channel_m": 1044, "dh_median_m": null, "name": ""}}, {"type": "Feature", "geometry": {"type": "Polygon", "coordinates": [[[85.3705388, 28.2357279], [85.3705971, 28.2357279], [85.3705971, 28.2355985], [85.3705388, 28.2355985], [85.3705388, 28.2357279]]]}, "properties": {"osm_id": 1552950804, "class": "unassessed_cloud", "dist_channel_m": 1082, "dh_median_m": null, "name": ""}}, {"type": "Feature", "geometry": {"type": "Polygon", "coordinates": [[[85.3540251, 28.2342509], [85.3540271, 28.2342096], [85.3540869, 28.2342118], [85.3540849, 28.2342532], [85.3540251, 28.2342509]]]}, "properties": {"osm_id": 1552952218, "class": "unassessed_cloud", "dist_channel_m": 436, "dh_median_m": null, "name": ""}}, {"type": "Feature", "geometry": {"type": "Polygon", "coordinates": [[[85.3559053, 28.2339136], [85.355906, 28.2338811], [85.3559576, 28.2338819], [85.3559569, 28.2339144], [85.3559053, 28.2339136]]]}, "properties": {"osm_id": 1552952219, "class": "unassessed_cloud", "dist_channel_m": 280, "dh_median_m": null, "name": ""}}, {"type": "Feature", "geometry": {"type": "Polygon", "coordinates": [[[85.3560052, 28.2339018], [85.3560481, 28.233903], [85.3560499, 28.2338522], [85.356007, 28.233851], [85.3560052, 28.2339018]]]}, "properties": {"osm_id": 1552952220, "class": "unassessed_cloud", "dist_channel_m": 273, "dh_median_m": null, "name": ""}}, {"type": "Feature", "geometry": {"type": "Polygon", "coordinates": [[[85.3561119, 28.2327904], [85.3561664, 28.2327933], [85.3561711, 28.2327243], [85.3561166, 28.2327214], [85.3561119, 28.2327904]]]}, "properties": {"osm_id": 1552952221, "class": "unassessed_cloud", "dist_channel_m": 333, "dh_median_m": null, "name": ""}}, {"type": "Feature", "geometry": {"type": "Polygon", "coordinates": [[[85.3678571, 28.2411302], [85.3678493, 28.2411406], [85.3678509, 28.241153], [85.3678611, 28.2411616], [85.3678749, 28.2411625], [85.3678863, 28.2411557], [85.3678903, 28.2411441], [85.3678869, 28.2411347], [85.3678785, 28.2411283], [85.3678675, 28.2411266], [85.3678571, 28.2411302]]]}, "properties": {"osm_id": 1552964397, "class": "unassessed_cloud", "dist_channel_m": 808, "dh_median_m": null, "name": ""}}, {"type": "Feature", "geometry": {"type": "Polygon", "coordinates": [[[85.3674942, 28.2516058], [85.3675202, 28.2516375], [85.3675505, 28.2516181], [85.3675244, 28.2515865], [85.3674942, 28.2516058]]]}, "properties": {"osm_id": 1553013463, "class": "unassessed_cloud", "dist_channel_m": 242, "dh_median_m": null, "name": ""}}, {"type": "Feature", "geometry": {"type": "Polygon", "coordinates": [[[85.3674049, 28.2561087], [85.3674196, 28.2561211], [85.3674588, 28.256085], [85.3674442, 28.2560727], [85.3674049, 28.2561087]]]}, "properties": {"osm_id": 1553060839, "class": "probable_intact", "dist_channel_m": 151, "dh_median_m": -0.21, "name": ""}}, {"type": "Feature", "geometry": {"type": "Polygon", "coordinates": [[[85.3678928, 28.2530812], [85.3678961, 28.2530328], [85.3679401, 28.2530351], [85.3679368, 28.2530835], [85.3678928, 28.2530812]]]}, "properties": {"osm_id": 1553323885, "class": "probable_intact", "dist_channel_m": 285, "dh_median_m": -1.61, "name": ""}}, {"type": "Feature", "geometry": {"type": "Polygon", "coordinates": [[[85.3467034, 28.305548], [85.3467371, 28.3054064], [85.3467914, 28.3054164], [85.3467577, 28.305558], [85.3467034, 28.305548]]]}, "properties": {"osm_id": 1553324212, "class": "probable_intact", "dist_channel_m": 4230, "dh_median_m": 1.82, "name": ""}}, {"type": "Feature", "geometry": {"type": "Polygon", "coordinates": [[[85.3679082, 28.2558166], [85.3679578, 28.255821], [85.3679632, 28.2557737], [85.3679135, 28.2557694], [85.3679082, 28.2558166]]]}, "properties": {"osm_id": 1553343555, "class": "probable_intact", "dist_channel_m": 210, "dh_median_m": -0.68, "name": ""}}, {"type": "Feature", "geometry": {"type": "Polygon", "coordinates": [[[85.3709391, 28.2367936], [85.3709997, 28.2368267], [85.371048, 28.2367582], [85.3709874, 28.2367251], [85.3709391, 28.2367936]]]}, "properties": {"osm_id": 1553345244, "class": "unassessed_cloud", "dist_channel_m": 1167, "dh_median_m": null, "name": ""}}, {"type": "Feature", "geometry": {"type": "Polygon", "coordinates": [[[85.3695068, 28.237382], [85.3695643, 28.2374083], [85.3695992, 28.2373493], [85.3695416, 28.2373229], [85.3695068, 28.237382]]]}, "properties": {"osm_id": 1553345245, "class": "unassessed_cloud", "dist_channel_m": 1061, "dh_median_m": null, "name": ""}}, {"type": "Feature", "geometry": {"type": "Polygon", "coordinates": [[[85.3573162, 28.2329766], [85.3572748, 28.2328743], [85.3573142, 28.2328607], [85.3573562, 28.2329628], [85.3573162, 28.2329766]]]}, "properties": {"osm_id": 1553358445, "class": "unassessed_cloud", "dist_channel_m": 221, "dh_median_m": null, "name": ""}}, {"type": "Feature", "geometry": {"type": "Polygon", "coordinates": [[[85.3569801, 28.2329461], [85.3570463, 28.2329506], [85.357049, 28.2328016], [85.3569816, 28.2328006], [85.3569801, 28.2329461]]]}, "properties": {"osm_id": 1553358446, "class": "unassessed_cloud", "dist_channel_m": 250, "dh_median_m": null, "name": ""}}, {"type": "Feature", "geometry": {"type": "Polygon", "coordinates": [[[85.367687, 28.2557957], [85.3677254, 28.2557924], [85.3677308, 28.2556969], [85.3677039, 28.2556889], [85.367687, 28.2557957]]]}, "properties": {"osm_id": 1553358448, "class": "probable_intact", "dist_channel_m": 197, "dh_median_m": -0.96, "name": ""}}, {"type": "Feature", "geometry": {"type": "Polygon", "coordinates": [[[85.3864008, 28.2851946], [85.3864767, 28.2851986], [85.3864742, 28.2851461], [85.3863998, 28.2851449], [85.3864008, 28.2851946]]]}, "properties": {"osm_id": 1553358451, "class": "unassessed_cloud", "dist_channel_m": 67, "dh_median_m": null, "name": ""}}, {"type": "Feature", "geometry": {"type": "Polygon", "coordinates": [[[85.3860307, 28.2844911], [85.3860556, 28.2845058], [85.3860735, 28.2844771], [85.3860527, 28.2844587], [85.3860307, 28.2844911]]]}, "properties": {"osm_id": 1553358452, "class": "unassessed_cloud", "dist_channel_m": 93, "dh_median_m": null, "name": ""}}, {"type": "Feature", "geometry": {"type": "Polygon", "coordinates": [[[85.3578177, 28.2392357], [85.3577748, 28.2392706], [85.3578283, 28.2393217], [85.3578712, 28.2392868], [85.3578177, 28.2392357]]]}, "properties": {"osm_id": 1554031822, "class": "unassessed_cloud", "dist_channel_m": 15, "dh_median_m": null, "name": ""}}, {"type": "Feature", "geometry": {"type": "Polygon", "coordinates": [[[85.3625706, 28.2462902], [85.3625035, 28.2463729], [85.3626423, 28.2464602], [85.3627094, 28.2463775], [85.3625706, 28.2462902]]]}, "properties": {"osm_id": 1554031928, "class": "unassessed_cloud", "dist_channel_m": 37, "dh_median_m": null, "name": ""}}, {"type": "Feature", "geometry": {"type": "Polygon", "coordinates": [[[85.3674307, 28.2562212], [85.3674319, 28.2561696], [85.367397, 28.256169], [85.3673959, 28.2562206], [85.3674307, 28.2562212]]]}, "properties": {"osm_id": 1554032269, "class": "probable_intact", "dist_channel_m": 143, "dh_median_m": -2.43, "name": ""}}]}