{"type": "FeatureCollection", "features": [{"type": "Feature", "geometry": {"type": "Polygon", "coordinates": [[[85.363758, 28.252304], [85.36378, 28.25086], [85.364432, 28.250868], [85.364441, 28.25029], [85.366071, 28.25031], [85.366049, 28.251754], [85.365723, 28.25175], [85.365714, 28.252327], [85.363758, 28.252304]]]}, "properties": {"layer": "deposition > +4 m", "method": "opposite-look WV03 ortho parallax"}}, {"type": "Feature", "geometry": {"type": "Polygon", "coordinates": [[[85.364864, 28.243942], [85.364868, 28.243653], [85.366499, 28.243673], [85.366494, 28.243961], [85.364864, 28.243942]]]}, "properties": {"layer": "deposition > +4 m", "method": "opposite-look WV03 ortho parallax"}}, {"type": "Feature", "geometry": {"type": "Polygon", "coordinates": [[[85.355412, 28.24354], [85.355417, 28.243251], [85.355091, 28.243247], [85.355095, 28.242958], [85.355747, 28.242966], [85.355738, 28.243544], [85.355412, 28.24354]]]}, "properties": {"layer": "deposition > +4 m", "method": "opposite-look WV03 ortho parallax"}}, {"type": "Feature", "geometry": {"type": "Polygon", "coordinates": [[[85.350874, 28.241752], [85.350896, 28.240309], [85.351222, 28.240313], [85.3512, 28.241756], [85.350874, 28.241752]]]}, "properties": {"layer": "deposition > +4 m", "method": "opposite-look WV03 ortho parallax"}}, {"type": "Feature", "geometry": {"type": "Polygon", "coordinates": [[[85.351553, 28.240028], [85.351562, 28.23945], [85.351888, 28.239454], [85.351892, 28.239165], [85.352218, 28.239169], [85.352214, 28.239458], [85.35254, 28.239462], [85.352536, 28.239751], [85.351883, 28.239743], [85.351879, 28.240032], [85.351553, 28.240028]]]}, "properties": {"layer": "deposition > +4 m", "method": "opposite-look WV03 ortho parallax"}}, {"type": "Feature", "geometry": {"type": "Polygon", "coordinates": [[[85.353625, 28.232544], [85.353647, 28.2311], [85.354625, 28.231112], [85.35462, 28.231401], [85.354946, 28.231405], [85.354929, 28.23256], [85.353625, 28.232544]]]}, "properties": {"layer": "deposition > +4 m", "method": "opposite-look WV03 ortho parallax"}}, {"type": "Feature", "geometry": {"type": "Polygon", "coordinates": [[[85.362119, 28.231491], [85.362123, 28.231202], [85.361797, 28.231198], [85.361806, 28.230621], [85.362458, 28.230629], [85.362454, 28.230917], [85.36278, 28.230921], [85.362775, 28.23121], [85.362449, 28.231206], [85.362445, 28.231495], [85.362119, 28.231491]]]}, "properties": {"layer": "deposition > +4 m", "method": "opposite-look WV03 ortho parallax"}}, {"type": "Feature", "geometry": {"type": "Polygon", "coordinates": [[[85.360881, 28.227144], [85.360885, 28.226855], [85.360559, 28.226851], [85.360577, 28.225696], [85.362207, 28.225716], [85.362189, 28.226871], [85.361863, 28.226867], [85.361859, 28.227156], [85.360881, 28.227144]]]}, "properties": {"layer": "deposition > +4 m", "method": "opposite-look WV03 ortho parallax"}}, {"type": "Feature", "geometry": {"type": "Polygon", "coordinates": [[[85.353573, 28.214638], [85.353595, 28.213194], [85.355225, 28.213214], [85.355203, 28.214658], [85.353573, 28.214638]]]}, "properties": {"layer": "deposition > +4 m", "method": "opposite-look WV03 ortho parallax"}}, {"type": "Feature", "geometry": {"type": "Polygon", "coordinates": [[[85.349059, 28.211407], [85.349076, 28.210252], [85.349402, 28.210256], [85.349407, 28.209967], [85.350711, 28.209983], [85.350688, 28.211426], [85.349059, 28.211407]]]}, "properties": {"layer": "deposition > +4 m", "method": "opposite-look WV03 ortho parallax"}}, {"type": "Feature", "geometry": {"type": "Polygon", "coordinates": [[[85.353635, 28.210595], [85.353657, 28.209152], [85.355287, 28.209171], [85.355278, 28.209749], [85.354626, 28.209741], [85.354622, 28.21003], [85.354296, 28.210026], [85.354292, 28.210315], [85.353966, 28.210311], [85.353961, 28.210599], [85.353635, 28.210595]]]}, "properties": {"layer": "deposition > +4 m", "method": "opposite-look WV03 ortho parallax"}}, {"type": "Feature", "geometry": {"type": "Polygon", "coordinates": [[[85.344418, 28.195178], [85.344436, 28.194023], [85.344762, 28.194027], [85.344767, 28.193738], [85.345093, 28.193742], [85.345097, 28.193453], [85.345423, 28.193457], [85.345418, 28.193746], [85.345744, 28.19375], [85.34574, 28.194039], [85.346066, 28.194043], [85.346057, 28.19462], [85.345731, 28.194616], [85.345727, 28.194905], [85.345401, 28.194901], [85.345396, 28.19519], [85.344418, 28.195178]]]}, "properties": {"layer": "deposition > +4 m", "method": "opposite-look WV03 ortho parallax"}}, {"type": "Feature", "geometry": {"type": "Polygon", "coordinates": [[[85.341191, 28.193117], [85.341199, 28.19254], [85.340874, 28.192536], [85.340887, 28.19167], [85.341865, 28.191681], [85.341869, 28.191393], [85.342847, 28.191405], [85.342833, 28.192271], [85.342508, 28.192267], [85.342503, 28.192556], [85.342177, 28.192552], [85.342173, 28.19284], [85.341521, 28.192833], [85.341516, 28.193121], [85.341191, 28.193117]]]}, "properties": {"layer": "deposition > +4 m", "method": "opposite-look WV03 ortho parallax"}}, {"type": "Feature", "geometry": {"type": "Polygon", "coordinates": [[[85.343191, 28.190254], [85.343195, 28.189965], [85.343521, 28.189969], [85.343525, 28.18968], [85.344829, 28.189696], [85.344824, 28.189985], [85.344499, 28.189981], [85.344494, 28.190269], [85.343191, 28.190254]]]}, "properties": {"layer": "deposition > +4 m", "method": "opposite-look WV03 ortho parallax"}}, {"type": "Feature", "geometry": {"type": "Polygon", "coordinates": [[[85.341891, 28.189949], [85.3419, 28.189372], [85.342552, 28.189379], [85.342543, 28.189957], [85.341891, 28.189949]]]}, "properties": {"layer": "deposition > +4 m", "method": "opposite-look WV03 ortho parallax"}}, {"type": "Feature", "geometry": {"type": "Polygon", "coordinates": [[[85.346396, 28.193758], [85.346427, 28.191737], [85.345775, 28.191729], [85.345771, 28.192018], [85.345119, 28.19201], [85.345115, 28.192298], [85.344137, 28.192287], [85.344133, 28.192575], [85.343481, 28.192567], [85.343485, 28.192279], [85.343159, 28.192275], [85.343177, 28.19112], [85.344807, 28.191139], [85.344811, 28.190851], [85.345463, 28.190859], [85.345467, 28.19057], [85.345793, 28.190574], [85.345798, 28.190285], [85.346449, 28.190293], [85.346458, 28.189715], [85.345807, 28.189708], [85.345829, 28.188264], [85.345177, 28.188256], [85.345195, 28.187101], [85.345521, 28.187105], [85.345525, 28.186816], [85.346829, 28.186832], [85.346824, 28.187121], [85.34715, 28.187125], [85.347137, 28.187991], [85.347463, 28.187995], [85.347458, 28.188284], [85.34811, 28.188291], [85.348115, 28.188003], [85.34844, 28.188007], [85.348436, 28.188295], [85.348762, 28.188299], [85.34874, 28.189743], [85.349066, 28.189747], [85.349061, 28.190036], [85.349387, 28.19004], [85.349369, 28.191195], [85.348717, 28.191187], [85.348713, 28.191475], [85.348061, 28.191468], [85.348039, 28.192911], [85.347713, 28.192907], [85.3477, 28.193774], [85.346396, 28.193758]], [[85.346758, 28.191452], [85.347409, 28.19146], [85.347423, 28.190594], [85.346771, 28.190586], [85.346758, 28.191452]]]}, "properties": {"layer": "deposition > +4 m", "method": "opposite-look WV03 ortho parallax"}}, {"type": "Feature", "geometry": {"type": "Polygon", "coordinates": [[[85.340949, 28.187627], [85.340954, 28.187338], [85.340628, 28.187335], [85.340641, 28.186468], [85.341619, 28.18648], [85.341637, 28.185325], [85.343266, 28.185345], [85.343244, 28.186789], [85.34357, 28.186793], [85.343565, 28.187081], [85.342914, 28.187073], [85.342909, 28.187362], [85.342583, 28.187358], [85.342579, 28.187647], [85.340949, 28.187627]]]}, "properties": {"layer": "deposition > +4 m", "method": "opposite-look WV03 ortho parallax"}}, {"type": "Feature", "geometry": {"type": "Polygon", "coordinates": [[[85.344878, 28.18652], [85.344882, 28.186231], [85.344231, 28.186223], [85.344239, 28.185645], [85.343914, 28.185642], [85.343918, 28.185353], [85.343592, 28.185349], [85.34361, 28.184194], [85.342306, 28.184178], [85.342324, 28.183023], [85.34265, 28.183027], [85.342655, 28.182738], [85.343958, 28.182754], [85.343945, 28.18362], [85.344271, 28.183624], [85.344275, 28.183336], [85.345904, 28.183355], [85.345882, 28.184799], [85.345556, 28.184795], [85.345552, 28.185084], [85.346529, 28.185096], [85.346507, 28.186539], [85.344878, 28.18652]]]}, "properties": {"layer": "deposition > +4 m", "method": "opposite-look WV03 ortho parallax"}}, {"type": "Feature", "geometry": {"type": "Polygon", "coordinates": [[[85.338409, 28.183264], [85.338414, 28.182976], [85.338088, 28.182972], [85.338101, 28.182105], [85.339405, 28.182121], [85.339396, 28.182699], [85.339722, 28.182703], [85.339717, 28.182992], [85.339391, 28.182988], [85.339387, 28.183276], [85.338409, 28.183264]]]}, "properties": {"layer": "deposition > +4 m", "method": "opposite-look WV03 ortho parallax"}}, {"type": "Feature", "geometry": {"type": "Polygon", "coordinates": [[[85.340704, 28.182426], [85.340708, 28.182137], [85.340382, 28.182133], [85.340387, 28.181844], [85.339409, 28.181833], [85.339414, 28.181544], [85.341043, 28.181564], [85.341047, 28.181275], [85.341373, 28.181279], [85.341378, 28.18099], [85.34203, 28.180998], [85.342012, 28.182153], [85.341686, 28.182149], [85.341681, 28.182438], [85.340704, 28.182426]]]}, "properties": {"layer": "deposition > +4 m", "method": "opposite-look WV03 ortho parallax"}}, {"type": "Feature", "geometry": {"type": "Polygon", "coordinates": [[[85.346605, 28.180187], [85.346609, 28.179898], [85.347587, 28.17991], [85.347583, 28.180199], [85.346605, 28.180187]]]}, "properties": {"layer": "deposition > +4 m", "method": "opposite-look WV03 ortho parallax"}}, {"type": "Feature", "geometry": {"type": "Polygon", "coordinates": [[[85.343342, 28.180436], [85.343346, 28.180147], [85.34302, 28.180144], [85.343025, 28.179855], [85.342047, 28.179843], [85.342061, 28.178977], [85.34369, 28.178996], [85.343686, 28.179285], [85.344011, 28.179289], [85.344034, 28.177845], [85.345337, 28.177861], [85.345319, 28.179016], [85.344993, 28.179012], [85.344989, 28.179301], [85.344337, 28.179293], [85.344324, 28.180159], [85.343672, 28.180151], [85.343668, 28.18044], [85.343342, 28.180436]]]}, "properties": {"layer": "deposition > +4 m", "method": "opposite-look WV03 ortho parallax"}}, {"type": "Feature", "geometry": {"type": "Polygon", "coordinates": [[[85.348574, 28.179344], [85.348578, 28.179056], [85.347926, 28.179048], [85.347931, 28.178759], [85.347605, 28.178755], [85.347614, 28.178177], [85.34794, 28.178181], [85.347944, 28.177893], [85.348922, 28.177904], [85.348899, 28.179348], [85.348574, 28.179344]]]}, "properties": {"layer": "deposition > +4 m", "method": "opposite-look WV03 ortho parallax"}}, {"type": "Feature", "geometry": {"type": "Polygon", "coordinates": [[[85.347948, 28.177604], [85.347953, 28.177315], [85.347627, 28.177311], [85.347631, 28.177022], [85.346328, 28.177007], [85.346337, 28.176429], [85.346663, 28.176433], [85.346667, 28.176144], [85.347319, 28.176152], [85.347323, 28.175864], [85.349278, 28.175887], [85.349252, 28.17762], [85.347948, 28.177604]]]}, "properties": {"layer": "deposition > +4 m", "method": "opposite-look WV03 ortho parallax"}}, {"type": "Feature", "geometry": {"type": "Polygon", "coordinates": [[[85.341744, 28.178395], [85.341757, 28.177529], [85.341431, 28.177525], [85.34144, 28.176948], [85.341114, 28.176944], [85.341137, 28.1755], [85.341788, 28.175508], [85.341797, 28.17493], [85.343426, 28.17495], [85.343422, 28.175239], [85.343748, 28.175243], [85.343739, 28.17582], [85.344391, 28.175828], [85.344377, 28.176694], [85.344051, 28.17669], [85.344056, 28.176402], [85.343078, 28.17639], [85.343074, 28.176679], [85.342748, 28.176675], [85.342735, 28.177541], [85.343061, 28.177545], [85.343052, 28.178122], [85.343377, 28.178126], [85.343373, 28.178415], [85.341744, 28.178395]]]}, "properties": {"layer": "deposition > +4 m", "method": "opposite-look WV03 ortho parallax"}}, {"type": "Feature", "geometry": {"type": "Polygon", "coordinates": [[[85.34148, 28.174349], [85.341498, 28.173194], [85.341824, 28.173198], [85.341828, 28.172909], [85.342154, 28.172913], [85.342163, 28.172336], [85.341837, 28.172332], [85.341851, 28.171465], [85.342176, 28.171469], [85.342181, 28.171181], [85.34381, 28.1712], [85.343788, 28.172644], [85.343462, 28.17264], [85.343458, 28.172929], [85.342806, 28.172921], [85.342801, 28.17321], [85.343453, 28.173218], [85.34344, 28.174084], [85.343114, 28.17408], [85.343109, 28.174369], [85.34148, 28.174349]]]}, "properties": {"layer": "deposition > +4 m", "method": "opposite-look WV03 ortho parallax"}}, {"type": "Feature", "geometry": {"type": "Polygon", "coordinates": [[[85.334999, 28.17196], [85.335021, 28.170516], [85.337302, 28.170544], [85.337298, 28.170833], [85.337624, 28.170837], [85.337615, 28.171414], [85.337941, 28.171418], [85.337936, 28.171707], [85.338262, 28.171711], [85.338257, 28.171999], [85.334999, 28.17196]]]}, "properties": {"layer": "deposition > +4 m", "method": "opposite-look WV03 ortho parallax"}}, {"type": "Feature", "geometry": {"type": "Polygon", "coordinates": [[[85.342837, 28.1709], [85.342842, 28.170611], [85.342516, 28.170607], [85.342529, 28.169741], [85.343181, 28.169749], [85.343185, 28.16946], [85.343511, 28.169464], [85.343507, 28.169753], [85.343832, 28.169757], [85.343815, 28.170912], [85.342837, 28.1709]]]}, "properties": {"layer": "deposition > +4 m", "method": "opposite-look WV03 ortho parallax"}}, {"type": "Feature", "geometry": {"type": "Polygon", "coordinates": [[[85.345131, 28.170061], [85.34514, 28.169484], [85.344814, 28.16948], [85.344828, 28.168613], [85.344502, 28.16861], [85.344506, 28.168321], [85.34418, 28.168317], [85.344185, 28.168028], [85.343859, 28.168024], [85.343868, 28.167447], [85.344194, 28.167451], [85.344198, 28.167162], [85.344524, 28.167166], [85.344528, 28.166877], [85.344854, 28.166881], [85.34485, 28.16717], [85.345827, 28.167182], [85.34581, 28.168337], [85.346135, 28.16834], [85.346113, 28.169784], [85.345462, 28.169776], [85.345457, 28.170065], [85.345131, 28.170061]]]}, "properties": {"layer": "deposition > +4 m", "method": "opposite-look WV03 ortho parallax"}}, {"type": "Feature", "geometry": {"type": "Polygon", "coordinates": [[[85.346818, 28.166327], [85.346827, 28.16575], [85.346501, 28.165746], [85.346519, 28.164591], [85.347822, 28.164606], [85.347818, 28.164895], [85.348144, 28.164899], [85.348121, 28.166343], [85.346818, 28.166327]]]}, "properties": {"layer": "deposition > +4 m", "method": "opposite-look WV03 ortho parallax"}}, {"type": "Feature", "geometry": {"type": "Polygon", "coordinates": [[[85.3419, 28.168289], [85.341913, 28.167423], [85.342239, 28.167427], [85.342257, 28.166272], [85.341931, 28.166268], [85.341935, 28.165979], [85.341609, 28.165975], [85.341614, 28.165687], [85.341288, 28.165683], [85.341297, 28.165105], [85.340971, 28.165101], [85.340976, 28.164812], [85.34065, 28.164808], [85.340659, 28.164231], [85.340333, 28.164227], [85.340337, 28.163938], [85.340011, 28.163934], [85.340007, 28.164223], [85.339355, 28.164215], [85.33936, 28.163926], [85.339034, 28.163923], [85.339039, 28.163634], [85.338713, 28.16363], [85.338717, 28.163341], [85.337414, 28.163325], [85.337409, 28.163614], [85.337735, 28.163618], [85.337731, 28.163907], [85.338057, 28.163911], [85.338048, 28.164488], [85.338373, 28.164492], [85.338369, 28.164781], [85.338695, 28.164785], [85.33869, 28.165074], [85.339342, 28.165081], [85.339329, 28.165948], [85.3377, 28.165928], [85.337708, 28.16535], [85.337057, 28.165343], [85.337043, 28.166209], [85.335088, 28.166185], [85.335106, 28.16503], [85.334455, 28.165022], [85.334446, 28.1656], [85.332817, 28.16558], [85.332821, 28.165291], [85.331518, 28.165275], [85.331522, 28.164986], [85.331197, 28.164982], [85.331219, 28.163539], [85.331545, 28.163543], [85.331554, 28.162965], [85.332857, 28.162981], [85.332866, 28.162404], [85.333192, 28.162408], [85.333201, 28.16183], [85.333852, 28.161838], [85.333843, 28.162415], [85.334169, 28.162419], [85.334156, 28.163286], [85.334482, 28.16329], [85.334477, 28.163578], [85.334803, 28.163582], [85.334807, 28.163294], [85.335459, 28.163302], [85.335455, 28.16359], [85.335129, 28.163586], [85.335124, 28.163875], [85.33545, 28.163879], [85.335437, 28.164745], [85.33674, 28.164761], [85.336758, 28.163606], [85.337084, 28.16361], [85.337093, 28.163033], [85.336767, 28.163029], [85.336776, 28.162451], [85.33645, 28.162447], [85.336454, 28.162158], [85.336129, 28.162154], [85.336133, 28.161866], [85.335481, 28.161858], [85.335486, 28.161569], [85.334834, 28.161561], [85.334839, 28.161272], [85.334187, 28.161264], [85.334196, 28.160687], [85.334522, 28.160691], [85.334526, 28.160402], [85.336155, 28.160422], [85.336151, 28.160711], [85.337128, 28.160723], [85.337119, 28.1613], [85.337445, 28.161304], [85.337436, 28.161882], [85.337762, 28.161885], [85.337758, 28.162174], [85.338409, 28.162182], [85.338405, 28.162471], [85.338731, 28.162475], [85.338726, 28.162764], [85.339052, 28.162768], [85.339047, 28.163056], [85.340351, 28.163072], [85.340342, 28.16365], [85.340993, 28.163657], [85.340998, 28.163369], [85.341324, 28.163373], [85.341328, 28.163084], [85.342306, 28.163096], [85.342301, 28.163385], [85.342953, 28.163392], [85.342957, 28.163104], [85.343283, 28.163108], [85.343287, 28.162819], [85.343613, 28.162823], [85.343618, 28.162534], [85.344269, 28.162542], [85.344265, 28.162831], [85.345242, 28.162842], [85.345247, 28.162554], [85.346224, 28.162566], [85.346202, 28.164009], [85.344899, 28.163994], [85.344894, 28.164282], [85.342939, 28.164259], [85.342935, 28.164547], [85.342609, 28.164543], [85.342605, 28.164832], [85.342931, 28.164836], [85.342913, 28.165991], [85.343239, 28.165995], [85.343212, 28.167728], [85.342886, 28.167724], [85.342882, 28.168012], [85.342556, 28.168008], [85.342551, 28.168297], [85.3419, 28.168289]]]}, "properties": {"layer": "deposition > +4 m", "method": "opposite-look WV03 ortho parallax"}}, {"type": "Feature", "geometry": {"type": "Polygon", "coordinates": [[[85.328635, 28.162063], [85.328639, 28.161774], [85.327662, 28.161763], [85.327684, 28.160319], [85.32801, 28.160323], [85.328015, 28.160034], [85.330947, 28.16007], [85.330938, 28.160647], [85.33159, 28.160655], [85.331567, 28.162099], [85.328635, 28.162063]]]}, "properties": {"layer": "deposition > +4 m", "method": "opposite-look WV03 ortho parallax"}}, {"type": "Feature", "geometry": {"type": "Polygon", "coordinates": [[[85.335187, 28.159833], [85.335191, 28.159544], [85.334865, 28.15954], [85.334874, 28.158962], [85.336178, 28.158978], [85.336164, 28.159844], [85.335187, 28.159833]]]}, "properties": {"layer": "deposition > +4 m", "method": "opposite-look WV03 ortho parallax"}}, {"type": "Feature", "geometry": {"type": "Polygon", "coordinates": [[[85.33292, 28.158939], [85.332924, 28.15865], [85.332273, 28.158642], [85.332277, 28.158353], [85.331951, 28.158349], [85.331969, 28.157194], [85.33034, 28.157174], [85.330363, 28.155731], [85.331991, 28.155751], [85.331987, 28.156039], [85.332313, 28.156043], [85.332308, 28.156332], [85.33296, 28.15634], [85.332946, 28.157206], [85.333272, 28.15721], [85.333263, 28.157788], [85.333915, 28.157796], [85.33391, 28.158084], [85.334236, 28.158088], [85.334241, 28.1578], [85.334567, 28.157803], [85.334549, 28.158958], [85.33292, 28.158939]]]}, "properties": {"layer": "deposition > +4 m", "method": "opposite-look WV03 ortho parallax"}}, {"type": "Feature", "geometry": {"type": "Polygon", "coordinates": [[[85.328421, 28.154841], [85.328426, 28.154552], [85.3281, 28.154548], [85.328109, 28.15397], [85.32876, 28.153978], [85.328756, 28.154267], [85.329082, 28.154271], [85.329073, 28.154849], [85.328421, 28.154841]]]}, "properties": {"layer": "deposition > +4 m", "method": "opposite-look WV03 ortho parallax"}}, {"type": "Feature", "geometry": {"type": "Polygon", "coordinates": [[[85.331349, 28.155165], [85.331353, 28.154876], [85.331028, 28.154872], [85.331041, 28.154006], [85.330715, 28.154002], [85.33072, 28.153713], [85.332349, 28.153733], [85.332326, 28.155177], [85.331349, 28.155165]]]}, "properties": {"layer": "deposition > +4 m", "method": "opposite-look WV03 ortho parallax"}}, {"type": "Feature", "geometry": {"type": "Polygon", "coordinates": [[[85.314118, 28.152644], [85.314127, 28.152066], [85.312824, 28.15205], [85.312829, 28.151761], [85.313155, 28.151765], [85.313159, 28.151477], [85.313485, 28.151481], [85.313489, 28.151192], [85.313815, 28.151196], [85.31382, 28.150907], [85.314145, 28.150911], [85.314141, 28.1512], [85.314792, 28.151208], [85.314788, 28.151497], [85.315114, 28.151501], [85.315109, 28.15179], [85.315761, 28.151798], [85.315747, 28.152664], [85.314118, 28.152644]]]}, "properties": {"layer": "deposition > +4 m", "method": "opposite-look WV03 ortho parallax"}}, {"type": "Feature", "geometry": {"type": "Polygon", "coordinates": [[[85.316426, 28.150939], [85.316439, 28.150073], [85.317091, 28.150081], [85.317095, 28.149792], [85.317421, 28.149796], [85.317426, 28.149508], [85.317752, 28.149512], [85.317729, 28.150955], [85.316426, 28.150939]]]}, "properties": {"layer": "deposition > +4 m", "method": "opposite-look WV03 ortho parallax"}}, {"type": "Feature", "geometry": {"type": "Polygon", "coordinates": [[[85.309598, 28.149989], [85.309612, 28.149123], [85.309938, 28.149127], [85.309942, 28.148838], [85.310268, 28.148842], [85.310272, 28.148553], [85.31125, 28.148565], [85.311245, 28.148854], [85.310919, 28.14885], [85.310915, 28.149139], [85.310589, 28.149135], [85.31058, 28.149712], [85.310254, 28.149708], [85.31025, 28.149997], [85.309598, 28.149989]]]}, "properties": {"layer": "deposition > +4 m", "method": "opposite-look WV03 ortho parallax"}}, {"type": "Feature", "geometry": {"type": "Polygon", "coordinates": [[[85.321317, 28.150711], [85.321322, 28.150422], [85.320996, 28.150418], [85.321005, 28.14984], [85.321331, 28.149844], [85.32134, 28.149267], [85.321014, 28.149263], [85.321018, 28.148974], [85.320692, 28.14897], [85.320697, 28.148681], [85.320045, 28.148673], [85.320036, 28.149251], [85.319059, 28.149239], [85.319064, 28.14895], [85.318086, 28.148938], [85.318104, 28.147783], [85.31843, 28.147787], [85.318435, 28.147498], [85.319086, 28.147506], [85.319082, 28.147795], [85.320385, 28.147811], [85.32038, 28.1481], [85.320706, 28.148104], [85.320711, 28.147815], [85.321036, 28.147819], [85.321032, 28.148108], [85.321358, 28.148112], [85.321349, 28.148689], [85.321674, 28.148693], [85.32167, 28.148982], [85.321996, 28.148986], [85.321991, 28.149275], [85.322317, 28.149279], [85.322312, 28.149568], [85.322638, 28.149572], [85.32262, 28.150727], [85.321317, 28.150711]]]}, "properties": {"layer": "deposition > +4 m", "method": "opposite-look WV03 ortho parallax"}}, {"type": "Feature", "geometry": {"type": "Polygon", "coordinates": [[[85.318113, 28.147206], [85.318118, 28.146917], [85.317792, 28.146913], [85.317806, 28.146047], [85.31748, 28.146043], [85.317484, 28.145754], [85.317159, 28.14575], [85.317154, 28.146039], [85.315525, 28.146019], [85.315548, 28.144575], [85.317177, 28.144595], [85.317163, 28.145461], [85.317815, 28.145469], [85.31781, 28.145758], [85.319113, 28.145774], [85.319109, 28.146063], [85.318783, 28.146059], [85.318774, 28.146636], [85.318448, 28.146632], [85.318439, 28.14721], [85.318113, 28.147206]]]}, "properties": {"layer": "deposition > +4 m", "method": "opposite-look WV03 ortho parallax"}}, {"type": "Feature", "geometry": {"type": "Polygon", "coordinates": [[[85.321389, 28.146091], [85.321394, 28.145802], [85.321068, 28.145798], [85.321081, 28.144932], [85.322059, 28.144944], [85.322063, 28.144655], [85.322389, 28.144659], [85.322393, 28.14437], [85.322719, 28.144374], [85.322724, 28.144085], [85.323701, 28.144097], [85.323683, 28.145252], [85.322706, 28.14524], [85.322701, 28.145529], [85.322375, 28.145525], [85.322371, 28.145814], [85.321719, 28.145806], [85.321715, 28.146095], [85.321389, 28.146091]]]}, "properties": {"layer": "deposition > +4 m", "method": "opposite-look WV03 ortho parallax"}}, {"type": "Feature", "geometry": {"type": "Polygon", "coordinates": [[[85.312607, 28.145116], [85.312616, 28.144539], [85.312942, 28.144543], [85.312946, 28.144254], [85.313272, 28.144258], [85.313277, 28.143969], [85.313928, 28.143977], [85.313933, 28.143689], [85.314259, 28.143693], [85.314245, 28.144559], [85.313919, 28.144555], [85.313915, 28.144844], [85.313589, 28.14484], [85.313584, 28.145128], [85.312607, 28.145116]]]}, "properties": {"layer": "deposition > +4 m", "method": "opposite-look WV03 ortho parallax"}}, {"type": "Feature", "geometry": {"type": "Polygon", "coordinates": [[[85.309381, 28.143055], [85.30939, 28.142478], [85.308087, 28.142461], [85.308101, 28.141595], [85.306798, 28.141579], [85.306803, 28.14129], [85.306477, 28.141286], [85.306486, 28.140709], [85.305509, 28.140697], [85.305527, 28.139542], [85.30683, 28.139558], [85.306825, 28.139847], [85.307151, 28.139851], [85.307147, 28.140139], [85.308775, 28.14016], [85.308762, 28.141026], [85.31039, 28.141046], [85.310386, 28.141335], [85.311363, 28.141347], [85.311358, 28.141635], [85.311684, 28.141639], [85.311671, 28.142506], [85.311345, 28.142502], [85.31134, 28.14279], [85.311015, 28.142786], [85.31101, 28.143075], [85.309381, 28.143055]]]}, "properties": {"layer": "deposition > +4 m", "method": "opposite-look WV03 ortho parallax"}}, {"type": "Feature", "geometry": {"type": "Polygon", "coordinates": [[[85.291332, 28.130702], [85.291346, 28.129835], [85.291671, 28.12984], [85.291658, 28.130706], [85.291332, 28.130702]]]}, "properties": {"layer": "deposition > +4 m", "method": "opposite-look WV03 ortho parallax"}}, {"type": "Feature", "geometry": {"type": "Polygon", "coordinates": [[[85.297562, 28.12818], [85.297584, 28.126736], [85.29791, 28.12674], [85.297915, 28.126452], [85.299543, 28.126472], [85.29952, 28.127916], [85.299195, 28.127912], [85.29919, 28.1282], [85.297562, 28.12818]]]}, "properties": {"layer": "deposition > +4 m", "method": "opposite-look WV03 ortho parallax"}}, {"type": "Feature", "geometry": {"type": "Polygon", "coordinates": [[[85.293694, 28.125533], [85.293699, 28.125244], [85.293373, 28.12524], [85.293396, 28.123796], [85.292093, 28.12378], [85.292121, 28.122048], [85.291795, 28.122044], [85.2918, 28.121755], [85.291474, 28.121751], [85.291488, 28.120885], [85.29279, 28.120901], [85.292781, 28.121478], [85.293758, 28.12149], [85.293722, 28.1238], [85.295024, 28.123817], [85.29502, 28.124105], [85.295346, 28.124109], [85.295323, 28.125553], [85.293694, 28.125533]]]}, "properties": {"layer": "deposition > +4 m", "method": "opposite-look WV03 ortho parallax"}}]}