{"type": "FeatureCollection", "features": [{"type": "Feature", "geometry": {"type": "Polygon", "coordinates": [[[85.366662, 28.25436], [85.366666, 28.254071], [85.367644, 28.254083], [85.36764, 28.254372], [85.366662, 28.25436]]]}, "properties": {"layer": "erosion < -4 m", "method": "opposite-look WV03 ortho parallax"}}, {"type": "Feature", "geometry": {"type": "Polygon", "coordinates": [[[85.356959, 28.249046], [85.356963, 28.248757], [85.356637, 28.248753], [85.35665, 28.247887], [85.358281, 28.247906], [85.358263, 28.249061], [85.356959, 28.249046]]]}, "properties": {"layer": "erosion < -4 m", "method": "opposite-look WV03 ortho parallax"}}, {"type": "Feature", "geometry": {"type": "Polygon", "coordinates": [[[85.363533, 28.245659], [85.363546, 28.244793], [85.363872, 28.244797], [85.363877, 28.244508], [85.364529, 28.244516], [85.364511, 28.245671], [85.363533, 28.245659]]]}, "properties": {"layer": "erosion < -4 m", "method": "opposite-look WV03 ortho parallax"}}, {"type": "Feature", "geometry": {"type": "Polygon", "coordinates": [[[85.354412, 28.244972], [85.354425, 28.244106], [85.353447, 28.244094], [85.353469, 28.24265], [85.3551, 28.24267], [85.355082, 28.243825], [85.355408, 28.243829], [85.355404, 28.244117], [85.35573, 28.244121], [85.355725, 28.24441], [85.355399, 28.244406], [85.355395, 28.244695], [85.354743, 28.244687], [85.354738, 28.244976], [85.354412, 28.244972]]]}, "properties": {"layer": "erosion < -4 m", "method": "opposite-look WV03 ortho parallax"}}, {"type": "Feature", "geometry": {"type": "Polygon", "coordinates": [[[85.357391, 28.24212], [85.357413, 28.240676], [85.358717, 28.240692], [85.358713, 28.24098], [85.359039, 28.240984], [85.359021, 28.242139], [85.357391, 28.24212]]]}, "properties": {"layer": "erosion < -4 m", "method": "opposite-look WV03 ortho parallax"}}, {"type": "Feature", "geometry": {"type": "Polygon", "coordinates": [[[85.357752, 28.239814], [85.357766, 28.238947], [85.35907, 28.238963], [85.359061, 28.239541], [85.358735, 28.239537], [85.358731, 28.239825], [85.357752, 28.239814]]]}, "properties": {"layer": "erosion < -4 m", "method": "opposite-look WV03 ortho parallax"}}, {"type": "Feature", "geometry": {"type": "Polygon", "coordinates": [[[85.36304, 28.235256], [85.363044, 28.234967], [85.362718, 28.234964], [85.362736, 28.233809], [85.36404, 28.233824], [85.364031, 28.234402], [85.364357, 28.234406], [85.364344, 28.235272], [85.36304, 28.235256]]]}, "properties": {"layer": "erosion < -4 m", "method": "opposite-look WV03 ortho parallax"}}, {"type": "Feature", "geometry": {"type": "Polygon", "coordinates": [[[85.356872, 28.233449], [85.356889, 28.232294], [85.358519, 28.232314], [85.358502, 28.233469], [85.356872, 28.233449]]]}, "properties": {"layer": "erosion < -4 m", "method": "opposite-look WV03 ortho parallax"}}, {"type": "Feature", "geometry": {"type": "Polygon", "coordinates": [[[85.353977, 28.230815], [85.353995, 28.22966], [85.354321, 28.229664], [85.354316, 28.229953], [85.354969, 28.229961], [85.354955, 28.230827], [85.353977, 28.230815]]]}, "properties": {"layer": "erosion < -4 m", "method": "opposite-look WV03 ortho parallax"}}, {"type": "Feature", "geometry": {"type": "Polygon", "coordinates": [[[85.36256, 28.223987], [85.362582, 28.222544], [85.364212, 28.222563], [85.36419, 28.224007], [85.36256, 28.223987]]]}, "properties": {"layer": "erosion < -4 m", "method": "opposite-look WV03 ortho parallax"}}, {"type": "Feature", "geometry": {"type": "Polygon", "coordinates": [[[85.358168, 28.212672], [85.35819, 28.211228], [85.35982, 28.211247], [85.359802, 28.212402], [85.358824, 28.212391], [85.35882, 28.212679], [85.358168, 28.212672]]]}, "properties": {"layer": "erosion < -4 m", "method": "opposite-look WV03 ortho parallax"}}, {"type": "Feature", "geometry": {"type": "Polygon", "coordinates": [[[85.358287, 28.204875], [85.358309, 28.203432], [85.359939, 28.203451], [85.359917, 28.204895], [85.358287, 28.204875]]]}, "properties": {"layer": "erosion < -4 m", "method": "opposite-look WV03 ortho parallax"}}, {"type": "Feature", "geometry": {"type": "Polygon", "coordinates": [[[85.353728, 28.204532], [85.35375, 28.203088], [85.354728, 28.2031], [85.354724, 28.203389], [85.35505, 28.203393], [85.355045, 28.203681], [85.355371, 28.203685], [85.355362, 28.204263], [85.355036, 28.204259], [85.355032, 28.204548], [85.353728, 28.204532]]]}, "properties": {"layer": "erosion < -4 m", "method": "opposite-look WV03 ortho parallax"}}, {"type": "Feature", "geometry": {"type": "Polygon", "coordinates": [[[85.342155, 28.193995], [85.342168, 28.193129], [85.342494, 28.193133], [85.342499, 28.192844], [85.342825, 28.192848], [85.342829, 28.19256], [85.343155, 28.192563], [85.343159, 28.192275], [85.343485, 28.192279], [85.343481, 28.192567], [85.343807, 28.192571], [85.343784, 28.194015], [85.342155, 28.193995]]]}, "properties": {"layer": "erosion < -4 m", "method": "opposite-look WV03 ortho parallax"}}, {"type": "Feature", "geometry": {"type": "Polygon", "coordinates": [[[85.343829, 28.191128], [85.343842, 28.190261], [85.34482, 28.190273], [85.344824, 28.189985], [85.34515, 28.189988], [85.345155, 28.1897], [85.346132, 28.189712], [85.346124, 28.190289], [85.345798, 28.190285], [85.345793, 28.190574], [85.345141, 28.190566], [85.345137, 28.190855], [85.344811, 28.190851], [85.344807, 28.191139], [85.343829, 28.191128]]]}, "properties": {"layer": "erosion < -4 m", "method": "opposite-look WV03 ortho parallax"}}, {"type": "Feature", "geometry": {"type": "Polygon", "coordinates": [[[85.33865, 28.188755], [85.338668, 28.1876], [85.338994, 28.187603], [85.33899, 28.187892], [85.339315, 28.187896], [85.339311, 28.188185], [85.338985, 28.188181], [85.338976, 28.188758], [85.33865, 28.188755]]]}, "properties": {"layer": "erosion < -4 m", "method": "opposite-look WV03 ortho parallax"}}, {"type": "Feature", "geometry": {"type": "Polygon", "coordinates": [[[85.33774, 28.184411], [85.337762, 28.182968], [85.338088, 28.182972], [85.338083, 28.18326], [85.338735, 28.183268], [85.338717, 28.184423], [85.33774, 28.184411]]]}, "properties": {"layer": "erosion < -4 m", "method": "opposite-look WV03 ortho parallax"}}, {"type": "Feature", "geometry": {"type": "Polygon", "coordinates": [[[85.33974, 28.181548], [85.339757, 28.180393], [85.340083, 28.180397], [85.340079, 28.180685], [85.34073, 28.180693], [85.340726, 28.180982], [85.341052, 28.180986], [85.341047, 28.181275], [85.340722, 28.181271], [85.340717, 28.18156], [85.33974, 28.181548]]]}, "properties": {"layer": "erosion < -4 m", "method": "opposite-look WV03 ortho parallax"}}, {"type": "Feature", "geometry": {"type": "Polygon", "coordinates": [[[85.34203, 28.180998], [85.342043, 28.180132], [85.34302, 28.180144], [85.343016, 28.180432], [85.343342, 28.180436], [85.343333, 28.181014], [85.34203, 28.180998]]]}, "properties": {"layer": "erosion < -4 m", "method": "opposite-look WV03 ortho parallax"}}, {"type": "Feature", "geometry": {"type": "Polygon", "coordinates": [[[85.340521, 28.173182], [85.340543, 28.171738], [85.341846, 28.171754], [85.341837, 28.172332], [85.342163, 28.172336], [85.342154, 28.172913], [85.341828, 28.172909], [85.341824, 28.173198], [85.340521, 28.173182]]]}, "properties": {"layer": "erosion < -4 m", "method": "opposite-look WV03 ortho parallax"}}, {"type": "Feature", "geometry": {"type": "Polygon", "coordinates": [[[85.345096, 28.172371], [85.3451, 28.172082], [85.345426, 28.172086], [85.345435, 28.171509], [85.345761, 28.171513], [85.345765, 28.171224], [85.346417, 28.171232], [85.346412, 28.171521], [85.346738, 28.171525], [85.346725, 28.172391], [85.345096, 28.172371]]]}, "properties": {"layer": "erosion < -4 m", "method": "opposite-look WV03 ortho parallax"}}, {"type": "Feature", "geometry": {"type": "Polygon", "coordinates": [[[85.338628, 28.169116], [85.338655, 28.167383], [85.340935, 28.167411], [85.340931, 28.1677], [85.341257, 28.167704], [85.341239, 28.168859], [85.340262, 28.168847], [85.340257, 28.169136], [85.338628, 28.169116]]]}, "properties": {"layer": "erosion < -4 m", "method": "opposite-look WV03 ortho parallax"}}, {"type": "Feature", "geometry": {"type": "Polygon", "coordinates": [[[85.336102, 28.163887], [85.336115, 28.163021], [85.336441, 28.163025], [85.336436, 28.163313], [85.336762, 28.163317], [85.336753, 28.163895], [85.336102, 28.163887]]]}, "properties": {"layer": "erosion < -4 m", "method": "opposite-look WV03 ortho parallax"}}, {"type": "Feature", "geometry": {"type": "Polygon", "coordinates": [[[85.342301, 28.163385], [85.342306, 28.163096], [85.34198, 28.163092], [85.341989, 28.162514], [85.343292, 28.16253], [85.343283, 28.163108], [85.342957, 28.163104], [85.342953, 28.163392], [85.342301, 28.163385]]]}, "properties": {"layer": "erosion < -4 m", "method": "opposite-look WV03 ortho parallax"}}, {"type": "Feature", "geometry": {"type": "Polygon", "coordinates": [[[85.337142, 28.159856], [85.337146, 28.159568], [85.337798, 28.159576], [85.337807, 28.158998], [85.338132, 28.159002], [85.338119, 28.159868], [85.337142, 28.159856]]]}, "properties": {"layer": "erosion < -4 m", "method": "opposite-look WV03 ortho parallax"}}, {"type": "Feature", "geometry": {"type": "Polygon", "coordinates": [[[85.334567, 28.157803], [85.334571, 28.157515], [85.334245, 28.157511], [85.33425, 28.157222], [85.333924, 28.157218], [85.333933, 28.156641], [85.333607, 28.156637], [85.333611, 28.156348], [85.33524, 28.156368], [85.335218, 28.157811], [85.334567, 28.157803]]]}, "properties": {"layer": "erosion < -4 m", "method": "opposite-look WV03 ortho parallax"}}, {"type": "Feature", "geometry": {"type": "Polygon", "coordinates": [[[85.330367, 28.155442], [85.330385, 28.154287], [85.331036, 28.154295], [85.331023, 28.155161], [85.331349, 28.155165], [85.331344, 28.155454], [85.330367, 28.155442]]]}, "properties": {"layer": "erosion < -4 m", "method": "opposite-look WV03 ortho parallax"}}, {"type": "Feature", "geometry": {"type": "Polygon", "coordinates": [[[85.332032, 28.153152], [85.33205, 28.151997], [85.332375, 28.152001], [85.33238, 28.151712], [85.333357, 28.151724], [85.333335, 28.153168], [85.332032, 28.153152]]]}, "properties": {"layer": "erosion < -4 m", "method": "opposite-look WV03 ortho parallax"}}, {"type": "Feature", "geometry": {"type": "Polygon", "coordinates": [[[85.320005, 28.151272], [85.320027, 28.149828], [85.320679, 28.149836], [85.320674, 28.150125], [85.321, 28.150129], [85.320996, 28.150418], [85.321322, 28.150422], [85.321308, 28.151288], [85.320005, 28.151272]]]}, "properties": {"layer": "erosion < -4 m", "method": "opposite-look WV03 ortho parallax"}}, {"type": "Feature", "geometry": {"type": "Polygon", "coordinates": [[[85.310245, 28.150286], [85.31025, 28.149997], [85.310576, 28.150001], [85.310585, 28.149423], [85.31091, 28.149427], [85.310919, 28.14885], [85.311571, 28.148858], [85.311553, 28.150013], [85.311227, 28.150009], [85.311223, 28.150298], [85.310245, 28.150286]]]}, "properties": {"layer": "erosion < -4 m", "method": "opposite-look WV03 ortho parallax"}}, {"type": "Feature", "geometry": {"type": "Polygon", "coordinates": [[[85.3054, 28.147627], [85.305422, 28.146183], [85.3064, 28.146195], [85.306395, 28.146484], [85.306721, 28.146488], [85.306707, 28.147354], [85.307033, 28.147358], [85.307028, 28.147647], [85.3054, 28.147627]]]}, "properties": {"layer": "erosion < -4 m", "method": "opposite-look WV03 ortho parallax"}}, {"type": "Feature", "geometry": {"type": "Polygon", "coordinates": [[[85.319109, 28.146063], [85.319127, 28.144908], [85.319453, 28.144912], [85.319466, 28.144046], [85.319792, 28.14405], [85.319787, 28.144338], [85.320765, 28.14435], [85.32076, 28.144639], [85.321086, 28.144643], [85.321077, 28.14522], [85.320751, 28.145216], [85.320747, 28.145505], [85.320421, 28.145501], [85.320416, 28.14579], [85.320091, 28.145786], [85.320086, 28.146075], [85.319109, 28.146063]]]}, "properties": {"layer": "erosion < -4 m", "method": "opposite-look WV03 ortho parallax"}}, {"type": "Feature", "geometry": {"type": "Polygon", "coordinates": [[[85.317534, 28.142578], [85.317548, 28.141712], [85.316245, 28.141696], [85.316249, 28.141407], [85.316901, 28.141415], [85.316905, 28.141126], [85.317557, 28.141134], [85.317561, 28.140845], [85.317887, 28.140849], [85.317882, 28.141138], [85.319185, 28.141154], [85.319163, 28.142598], [85.317534, 28.142578]]]}, "properties": {"layer": "erosion < -4 m", "method": "opposite-look WV03 ortho parallax"}}, {"type": "Feature", "geometry": {"type": "Polygon", "coordinates": [[[85.299645, 28.140624], [85.299668, 28.13918], [85.300645, 28.139193], [85.300641, 28.139481], [85.300315, 28.139477], [85.300311, 28.139766], [85.300636, 28.13977], [85.300632, 28.140059], [85.300306, 28.140055], [85.300301, 28.140344], [85.300627, 28.140348], [85.300623, 28.140636], [85.299645, 28.140624]]]}, "properties": {"layer": "erosion < -4 m", "method": "opposite-look WV03 ortho parallax"}}]}