{"type": "FeatureCollection", "features": [{"type": "Feature", "geometry": {"type": "Polygon", "coordinates": [[[85.358962, 28.221459], [85.358963, 28.221387], [85.358881, 28.221386], [85.358883, 28.221313], [85.35872, 28.221312], [85.358721, 28.221239], [85.358639, 28.221238], [85.35864, 28.221166], [85.358559, 28.221165], [85.35856, 28.221093], [85.358478, 28.221092], [85.358479, 28.22102], [85.358398, 28.221019], [85.3584, 28.220874], [85.358319, 28.220874], [85.358324, 28.220513], [85.358243, 28.220512], [85.358244, 28.220439], [85.358162, 28.220438], [85.358163, 28.220366], [85.358082, 28.220365], [85.358085, 28.220149], [85.358004, 28.220148], [85.358005, 28.220076], [85.357923, 28.220075], [85.357924, 28.220002], [85.357761, 28.22], [85.357763, 28.219928], [85.357681, 28.219927], [85.357682, 28.219855], [85.357601, 28.219854], [85.357603, 28.21971], [85.357521, 28.219709], [85.357522, 28.219637], [85.357441, 28.219636], [85.357442, 28.219563], [85.357279, 28.219561], [85.357278, 28.219634], [85.357115, 28.219632], [85.357116, 28.219559], [85.356953, 28.219558], [85.356954, 28.219485], [85.356873, 28.219484], [85.356875, 28.21934], [85.356793, 28.219339], [85.356795, 28.219267], [85.356713, 28.219266], [85.356715, 28.219121], [85.356634, 28.21912], [85.356635, 28.219048], [85.356716, 28.219049], [85.356717, 28.218977], [85.356799, 28.218978], [85.3568, 28.218906], [85.356719, 28.218905], [85.35672, 28.218833], [85.356557, 28.218831], [85.356558, 28.218759], [85.356395, 28.218757], [85.356396, 28.218684], [85.356314, 28.218683], [85.356316, 28.218611], [85.356234, 28.21861], [85.356236, 28.218466], [85.356155, 28.218465], [85.356157, 28.218321], [85.356075, 28.21832], [85.356077, 28.218247], [85.355995, 28.218246], [85.355997, 28.218102], [85.355834, 28.2181], [85.355835, 28.218028], [85.355754, 28.218027], [85.355755, 28.217955], [85.355673, 28.217954], [85.355675, 28.217882], [85.355593, 28.217881], [85.355594, 28.217808], [85.355513, 28.217807], [85.355514, 28.217735], [85.355432, 28.217734], [85.355433, 28.217662], [85.355352, 28.217661], [85.355354, 28.217517], [85.355273, 28.217516], [85.355274, 28.217444], [85.355111, 28.217442], [85.355112, 28.217369], [85.35503, 28.217368], [85.355031, 28.217296], [85.35495, 28.217295], [85.354951, 28.217223], [85.35487, 28.217222], [85.354871, 28.21715], [85.354789, 28.217149], [85.35479, 28.217077], [85.354709, 28.217076], [85.354711, 28.216931], [85.35463, 28.21693], [85.354631, 28.216858], [85.354549, 28.216857], [85.35455, 28.216785], [85.354387, 28.216783], [85.354388, 28.216711], [85.354307, 28.21671], [85.35431, 28.216493], [85.354392, 28.216494], [85.354399, 28.215989], [85.354318, 28.215988], [85.354321, 28.215772], [85.354403, 28.215772], [85.354405, 28.215628], [85.354323, 28.215627], [85.354326, 28.215483], [85.354244, 28.215482], [85.354245, 28.21541], [85.354164, 28.215409], [85.354167, 28.215192], [85.354249, 28.215193], [85.354265, 28.21411], [85.354184, 28.214109], [85.354186, 28.213965], [85.354267, 28.213966], [85.354272, 28.213677], [85.35419, 28.213676], [85.354195, 28.213387], [85.354113, 28.213386], [85.354116, 28.213242], [85.354197, 28.213243], [85.354206, 28.212666], [85.354124, 28.212665], [85.354126, 28.212592], [85.354044, 28.212591], [85.354046, 28.212447], [85.353394, 28.212439], [85.353395, 28.212367], [85.353314, 28.212366], [85.353316, 28.212222], [85.353398, 28.212223], [85.353399, 28.21215], [85.353562, 28.212152], [85.353563, 28.21208], [85.3534, 28.212078], [85.353401, 28.212006], [85.353319, 28.212005], [85.353325, 28.211644], [85.353243, 28.211643], [85.353245, 28.211571], [85.353163, 28.21157], [85.353164, 28.211498], [85.353083, 28.211497], [85.353084, 28.211425], [85.353002, 28.211424], [85.353032, 28.209475], [85.353114, 28.209476], [85.353115, 28.209403], [85.353196, 28.209404], [85.353197, 28.209332], [85.353116, 28.209331], [85.353117, 28.209259], [85.353036, 28.209258], [85.353052, 28.208175], [85.353134, 28.208176], [85.353135, 28.208104], [85.353216, 28.208105], [85.353217, 28.208033], [85.35338, 28.208035], [85.353388, 28.20753], [85.35347, 28.207531], [85.353471, 28.207458], [85.353389, 28.207457], [85.353403, 28.206591], [85.353484, 28.206592], [85.353485, 28.20652], [85.35373, 28.206523], [85.353736, 28.20609], [85.353655, 28.206089], [85.353657, 28.205944], [85.353738, 28.205945], [85.353744, 28.205584], [85.353825, 28.205585], [85.353827, 28.205513], [85.353745, 28.205512], [85.353747, 28.205368], [85.353829, 28.205369], [85.353831, 28.205224], [85.353749, 28.205223], [85.353751, 28.205151], [85.353669, 28.20515], [85.35367, 28.205078], [85.353507, 28.205076], [85.353508, 28.205004], [85.353427, 28.205003], [85.353431, 28.204714], [85.353268, 28.204712], [85.353269, 28.20464], [85.352943, 28.204636], [85.352945, 28.204564], [85.352863, 28.204563], [85.352864, 28.204491], [85.352783, 28.20449], [85.352785, 28.204345], [85.352703, 28.204344], [85.352706, 28.2042], [85.352624, 28.204199], [85.352625, 28.204127], [85.352544, 28.204126], [85.352546, 28.203982], [85.352465, 28.203981], [85.352466, 28.203908], [85.352547, 28.203909], [85.352552, 28.203621], [85.35247, 28.20362], [85.352472, 28.203475], [85.352391, 28.203474], [85.352393, 28.20333], [85.352312, 28.203329], [85.352315, 28.203112], [85.352233, 28.203111], [85.352234, 28.203039], [85.352153, 28.203038], [85.352154, 28.202966], [85.351991, 28.202964], [85.351992, 28.202892], [85.351911, 28.202891], [85.351922, 28.202169], [85.35184, 28.202168], [85.351844, 28.201952], [85.351925, 28.201953], [85.351934, 28.201375], [85.351853, 28.201374], [85.351854, 28.201302], [85.351772, 28.201301], [85.351774, 28.201157], [85.351693, 28.201156], [85.351695, 28.201011], [85.351777, 28.201012], [85.351778, 28.20094], [85.351941, 28.200942], [85.351951, 28.200292], [85.352032, 28.200293], [85.352037, 28.200004], [85.351955, 28.200004], [85.351958, 28.199787], [85.351877, 28.199786], [85.351878, 28.199714], [85.351797, 28.199713], [85.351799, 28.199568], [85.351717, 28.199567], [85.351718, 28.199495], [85.351637, 28.199494], [85.351641, 28.199206], [85.35156, 28.199205], [85.351563, 28.198988], [85.351482, 28.198987], [85.351484, 28.198843], [85.351402, 28.198842], [85.351405, 28.198697], [85.351323, 28.198696], [85.351325, 28.198552], [85.351244, 28.198551], [85.351246, 28.198407], [85.351165, 28.198406], [85.351167, 28.198261], [85.351085, 28.19826], [85.351088, 28.198116], [85.351006, 28.198115], [85.351007, 28.198043], [85.350926, 28.198042], [85.350928, 28.197897], [85.350846, 28.197896], [85.350849, 28.197752], [85.350767, 28.197751], [85.350768, 28.197679], [85.350687, 28.197678], [85.350688, 28.197606], [85.350525, 28.197604], [85.350526, 28.197532], [85.350445, 28.197531], [85.350446, 28.197458], [85.350038, 28.197453], [85.350039, 28.197381], [85.349795, 28.197378], [85.349796, 28.197306], [85.349715, 28.197305], [85.349716, 28.197233], [85.349634, 28.197232], [85.349635, 28.19716], [85.349554, 28.197159], [85.349555, 28.197087], [85.349474, 28.197086], [85.349476, 28.196941], [85.349394, 28.19694], [85.349396, 28.196796], [85.349315, 28.196795], [85.349318, 28.196578], [85.349237, 28.196577], [85.34924, 28.196361], [85.349322, 28.196362], [85.349325, 28.196145], [85.349406, 28.196146], [85.349409, 28.196002], [85.349327, 28.196001], [85.349328, 28.195929], [85.349084, 28.195926], [85.349085, 28.195854], [85.349004, 28.195853], [85.34901, 28.195419], [85.348929, 28.195418], [85.34893, 28.195346], [85.348848, 28.195345], [85.348851, 28.195201], [85.348769, 28.1952], [85.348777, 28.194695], [85.348695, 28.194694], [85.348698, 28.194549], [85.348616, 28.194548], [85.348618, 28.194404], [85.348537, 28.194403], [85.348539, 28.194259], [85.348458, 28.194258], [85.348459, 28.194185], [85.348377, 28.194184], [85.348379, 28.19404], [85.348298, 28.194039], [85.348302, 28.19375], [85.348221, 28.193749], [85.348222, 28.193677], [85.348141, 28.193676], [85.348142, 28.193604], [85.34806, 28.193603], [85.348062, 28.193459], [85.347981, 28.193458], [85.347984, 28.193241], [85.348066, 28.193242], [85.348068, 28.193098], [85.347986, 28.193097], [85.347988, 28.193025], [85.347906, 28.193024], [85.347909, 28.192807], [85.347991, 28.192808], [85.348001, 28.192158], [85.347919, 28.192157], [85.347921, 28.192085], [85.347839, 28.192084], [85.34784, 28.192012], [85.347759, 28.192011], [85.347766, 28.191506], [85.347685, 28.191505], [85.347687, 28.19136], [85.347524, 28.191358], [85.347525, 28.191286], [85.347444, 28.191285], [85.347445, 28.191213], [85.347364, 28.191212], [85.347365, 28.19114], [85.347283, 28.191139], [85.347285, 28.190994], [85.347204, 28.190993], [85.347205, 28.190921], [85.347124, 28.19092], [85.347125, 28.190848], [85.346962, 28.190846], [85.346963, 28.190774], [85.346881, 28.190773], [85.346885, 28.190556], [85.346966, 28.190557], [85.346971, 28.190269], [85.346889, 28.190268], [85.34689, 28.190195], [85.346809, 28.190194], [85.34681, 28.190122], [85.346728, 28.190121], [85.34673, 28.190049], [85.346567, 28.190047], [85.346568, 28.189975], [85.346486, 28.189974], [85.346487, 28.189902], [85.346406, 28.189901], [85.346407, 28.189829], [85.346163, 28.189826], [85.346164, 28.189753], [85.346082, 28.189753], [85.346083, 28.18968], [85.346002, 28.189679], [85.346005, 28.189463], [85.345924, 28.189462], [85.345925, 28.18939], [85.345843, 28.189389], [85.345853, 28.188739], [85.345772, 28.188738], [85.345773, 28.188666], [85.345691, 28.188665], [85.345693, 28.188593], [85.345611, 28.188592], [85.345613, 28.188447], [85.345532, 28.188446], [85.345537, 28.188085], [85.345456, 28.188084], [85.345457, 28.188012], [85.345376, 28.188011], [85.345382, 28.187578], [85.345301, 28.187577], [85.345303, 28.187433], [85.345222, 28.187432], [85.345223, 28.18736], [85.345141, 28.187359], [85.345144, 28.187142], [85.345063, 28.187141], [85.345066, 28.186924], [85.344903, 28.186922], [85.344905, 28.18685], [85.344823, 28.186849], [85.344825, 28.186705], [85.344744, 28.186704], [85.344745, 28.186632], [85.344663, 28.186631], [85.344665, 28.186559], [85.344502, 28.186557], [85.344503, 28.186484], [85.344421, 28.186483], [85.344422, 28.186411], [85.344341, 28.18641], [85.344342, 28.186338], [85.344261, 28.186337], [85.344262, 28.186265], [85.344017, 28.186262], [85.344018, 28.18619], [85.343937, 28.186189], [85.34394, 28.185972], [85.343859, 28.185971], [85.343869, 28.185322], [85.34395, 28.185323], [85.343954, 28.185106], [85.343872, 28.185105], [85.343874, 28.184961], [85.343793, 28.18496], [85.343795, 28.184815], [85.343714, 28.184814], [85.343715, 28.184742], [85.343633, 28.184741], [85.343634, 28.184669], [85.34339, 28.184666], [85.343391, 28.184594], [85.34331, 28.184593], [85.343329, 28.183366], [85.343247, 28.183365], [85.343249, 28.18322], [85.343168, 28.183219], [85.343169, 28.183147], [85.342599, 28.18314], [85.3426, 28.183068], [85.342437, 28.183066], [85.342438, 28.182994], [85.342356, 28.182993], [85.342358, 28.182921], [85.342276, 28.18292], [85.342277, 28.182848], [85.342196, 28.182847], [85.342198, 28.182702], [85.342117, 28.182701], [85.342118, 28.182629], [85.342036, 28.182628], [85.342037, 28.182556], [85.34163, 28.182551], [85.341629, 28.182623], [85.341466, 28.182621], [85.341465, 28.182693], [85.341139, 28.182689], [85.341138, 28.182762], [85.341056, 28.182761], [85.341055, 28.182833], [85.340892, 28.182831], [85.340891, 28.182903], [85.34081, 28.182902], [85.340809, 28.182974], [85.340727, 28.182973], [85.340726, 28.183045], [85.340482, 28.183042], [85.340483, 28.18297], [85.34032, 28.182968], [85.340319, 28.18304], [85.339667, 28.183032], [85.339666, 28.183105], [85.339584, 28.183104], [85.339583, 28.183176], [85.339502, 28.183175], [85.339503, 28.183103], [85.339421, 28.183102], [85.339422, 28.18303], [85.33926, 28.183028], [85.339261, 28.182955], [85.338935, 28.182951], [85.338936, 28.182879], [85.338854, 28.182878], [85.338856, 28.182806], [85.338693, 28.182804], [85.338694, 28.182732], [85.338612, 28.182731], [85.338613, 28.182659], [85.33845, 28.182657], [85.338449, 28.182729], [85.33796, 28.182723], [85.337959, 28.182795], [85.337878, 28.182794], [85.337879, 28.182722], [85.337798, 28.182721], [85.3378, 28.182577], [85.337637, 28.182575], [85.337638, 28.182502], [85.337475, 28.1825], [85.337476, 28.182428], [85.337395, 28.182427], [85.337398, 28.182211], [85.33748, 28.182212], [85.337482, 28.182067], [85.337319, 28.182065], [85.337318, 28.182138], [85.337236, 28.182137], [85.337237, 28.182064], [85.337156, 28.182063], [85.337157, 28.181991], [85.337076, 28.18199], [85.337077, 28.181918], [85.336995, 28.181917], [85.336997, 28.181773], [85.336916, 28.181772], [85.336917, 28.181699], [85.336999, 28.1817], [85.337, 28.181628], [85.337163, 28.18163], [85.337161, 28.181702], [85.337243, 28.181703], [85.337242, 28.181776], [85.337405, 28.181778], [85.337404, 28.18185], [85.337648, 28.181853], [85.337649, 28.181781], [85.337894, 28.181784], [85.337895, 28.181711], [85.338139, 28.181714], [85.33814, 28.181642], [85.338385, 28.181645], [85.338383, 28.181717], [85.338465, 28.181718], [85.338466, 28.181646], [85.339199, 28.181655], [85.3392, 28.181583], [85.339689, 28.181589], [85.33969, 28.181517], [85.339772, 28.181518], [85.339773, 28.181445], [85.339936, 28.181447], [85.339937, 28.181375], [85.3401, 28.181377], [85.340101, 28.181305], [85.340264, 28.181307], [85.340265, 28.181235], [85.340346, 28.181236], [85.340348, 28.181164], [85.340429, 28.181165], [85.34043, 28.181092], [85.340512, 28.181093], [85.340513, 28.181021], [85.340594, 28.181022], [85.340595, 28.18095], [85.340677, 28.180951], [85.340678, 28.180879], [85.340759, 28.18088], [85.340761, 28.180808], [85.340923, 28.18081], [85.340925, 28.180737], [85.341006, 28.180738], [85.341007, 28.180666], [85.341089, 28.180667], [85.34109, 28.180595], [85.341171, 28.180596], [85.341172, 28.180524], [85.341254, 28.180525], [85.341255, 28.180453], [85.341336, 28.180454], [85.341337, 28.180381], [85.341419, 28.180382], [85.341421, 28.180238], [85.341503, 28.180239], [85.341506, 28.180022], [85.341587, 28.180023], [85.341591, 28.179807], [85.341672, 28.179808], [85.341674, 28.179663], [85.341756, 28.179664], [85.341758, 28.17952], [85.34184, 28.179521], [85.341842, 28.179377], [85.341923, 28.179378], [85.341924, 28.179305], [85.342006, 28.179306], [85.342011, 28.178946], [85.34193, 28.178945], [85.341931, 28.178872], [85.342013, 28.178873], [85.34202, 28.178368], [85.342102, 28.178369], [85.342115, 28.177503], [85.342034, 28.177502], [85.34204, 28.177069], [85.341959, 28.177068], [85.34197, 28.176346], [85.341889, 28.176345], [85.341891, 28.1762], [85.341809, 28.176199], [85.341811, 28.176127], [85.341892, 28.176128], [85.341904, 28.175334], [85.341986, 28.175335], [85.341991, 28.174974], [85.34191, 28.174973], [85.341913, 28.174757], [85.341832, 28.174756], [85.341836, 28.174467], [85.341918, 28.174468], [85.341921, 28.174251], [85.342002, 28.174252], [85.342005, 28.174108], [85.342086, 28.174109], [85.342097, 28.173387], [85.342179, 28.173388], [85.342182, 28.173172], [85.342263, 28.173173], [85.342265, 28.1731], [85.342183, 28.173099], [85.342184, 28.173027], [85.341695, 28.173021], [85.341697, 28.172949], [85.341615, 28.172948], [85.341623, 28.172443], [85.341541, 28.172442], [85.341546, 28.172153], [85.341627, 28.172154], [85.341632, 28.171865], [85.341713, 28.171866], [85.341714, 28.171794], [85.341796, 28.171795], [85.341797, 28.171723], [85.341878, 28.171724], [85.34188, 28.171652], [85.341961, 28.171653], [85.341963, 28.171508], [85.342045, 28.171509], [85.342054, 28.170932], [85.341972, 28.170931], [85.341973, 28.170859], [85.341892, 28.170858], [85.341894, 28.170713], [85.341975, 28.170714], [85.34198, 28.170426], [85.341898, 28.170425], [85.341903, 28.170136], [85.341821, 28.170135], [85.341827, 28.169774], [85.341746, 28.169773], [85.341753, 28.169268], [85.341672, 28.169267], [85.34168, 28.168761], [85.341598, 28.16876], [85.341605, 28.168327], [85.341523, 28.168326], [85.341529, 28.167965], [85.34161, 28.167966], [85.341626, 28.166956], [85.341545, 28.166955], [85.341554, 28.166377], [85.341635, 28.166378], [85.341636, 28.166306], [85.341555, 28.166305], [85.341556, 28.166233], [85.341637, 28.166234], [85.341638, 28.166162], [85.341883, 28.166165], [85.341884, 28.166092], [85.341965, 28.166093], [85.341967, 28.165949], [85.341886, 28.165948], [85.341888, 28.165804], [85.341807, 28.165803], [85.341808, 28.165731], [85.341075, 28.165722], [85.341076, 28.165649], [85.340913, 28.165647], [85.340914, 28.165575], [85.340751, 28.165573], [85.340752, 28.165501], [85.340589, 28.165499], [85.340591, 28.165427], [85.340509, 28.165426], [85.34051, 28.165354], [85.340347, 28.165352], [85.340348, 28.16528], [85.340185, 28.165278], [85.340187, 28.165205], [85.340024, 28.165203], [85.340025, 28.165131], [85.339699, 28.165127], [85.3397, 28.165055], [85.33913, 28.165048], [85.339131, 28.164976], [85.338968, 28.164974], [85.338969, 28.164902], [85.338725, 28.164899], [85.338726, 28.164827], [85.338563, 28.164825], [85.338564, 28.164753], [85.338401, 28.164751], [85.338402, 28.164678], [85.338321, 28.164677], [85.338322, 28.164605], [85.338241, 28.164604], [85.338242, 28.164532], [85.337834, 28.164527], [85.337836, 28.164455], [85.337673, 28.164453], [85.337674, 28.164381], [85.337592, 28.16438], [85.337593, 28.164308], [85.337512, 28.164307], [85.337513, 28.164234], [85.337432, 28.164233], [85.337433, 28.164161], [85.337351, 28.16416], [85.337352, 28.164088], [85.337271, 28.164087], [85.337272, 28.164015], [85.337191, 28.164014], [85.337192, 28.163942], [85.33711, 28.163941], [85.337113, 28.163796], [85.337031, 28.163795], [85.337032, 28.163723], [85.336788, 28.16372], [85.336787, 28.163792], [85.336624, 28.16379], [85.336625, 28.163718], [85.336543, 28.163717], [85.336546, 28.163573], [85.336627, 28.163574], [85.336633, 28.163213], [85.336551, 28.163212], [85.336561, 28.162562], [85.33648, 28.162561], [85.336481, 28.162489], [85.3364, 28.162488], [85.336401, 28.162416], [85.336319, 28.162415], [85.33632, 28.162343], [85.336239, 28.162342], [85.336242, 28.162125], [85.336161, 28.162124], [85.336162, 28.162052], [85.33608, 28.162051], [85.336082, 28.161979], [85.336, 28.161978], [85.336001, 28.161906], [85.33592, 28.161905], [85.335929, 28.161327], [85.335847, 28.161326], [85.335851, 28.16111], [85.335769, 28.161109], [85.335772, 28.160892], [85.335691, 28.160891], [85.335694, 28.160675], [85.335613, 28.160674], [85.335614, 28.160601], [85.335533, 28.1606], [85.335534, 28.160528], [85.335452, 28.160527], [85.335454, 28.160383], [85.335373, 28.160382], [85.335374, 28.16031], [85.335293, 28.160309], [85.335295, 28.160164], [85.335051, 28.160161], [85.335052, 28.160089], [85.33497, 28.160088], [85.334971, 28.160016], [85.33489, 28.160015], [85.334891, 28.159943], [85.33481, 28.159942], [85.334812, 28.159797], [85.33473, 28.159796], [85.334733, 28.159652], [85.334651, 28.159651], [85.334652, 28.159579], [85.334571, 28.159578], [85.334573, 28.159434], [85.334492, 28.159433], [85.334493, 28.15936], [85.333923, 28.159353], [85.333924, 28.159281], [85.333679, 28.159278], [85.33368, 28.159206], [85.333355, 28.159202], [85.333356, 28.15913], [85.33303, 28.159126], [85.333031, 28.159054], [85.332868, 28.159052], [85.332869, 28.15898], [85.332788, 28.158979], [85.332789, 28.158906], [85.33287, 28.158907], [85.332874, 28.158691], [85.332792, 28.15869], [85.332793, 28.158618], [85.332712, 28.158617], [85.332713, 28.158545], [85.332469, 28.158542], [85.33247, 28.158469], [85.331981, 28.158463], [85.331982, 28.158391], [85.331819, 28.158389], [85.331821, 28.158317], [85.331739, 28.158316], [85.331748, 28.157739], [85.331829, 28.15774], [85.331832, 28.157595], [85.331669, 28.157593], [85.33167, 28.157521], [85.331426, 28.157518], [85.331424, 28.15759], [85.331099, 28.157586], [85.3311, 28.157514], [85.330855, 28.157511], [85.330857, 28.157439], [85.330775, 28.157438], [85.330777, 28.157294], [85.330696, 28.157293], [85.3307, 28.157004], [85.330619, 28.157003], [85.330622, 28.156786], [85.330541, 28.156785], [85.330542, 28.156713], [85.330379, 28.156711], [85.33038, 28.156639], [85.330217, 28.156637], [85.330218, 28.156565], [85.329974, 28.156562], [85.329975, 28.15649], [85.329812, 28.156488], [85.329813, 28.156415], [85.329732, 28.156414], [85.329733, 28.156342], [85.329489, 28.156339], [85.32949, 28.156267], [85.329164, 28.156263], [85.329165, 28.156191], [85.329084, 28.15619], [85.329086, 28.156046], [85.329005, 28.156045], [85.329006, 28.155972], [85.328924, 28.155971], [85.328926, 28.155827], [85.328845, 28.155826], [85.328846, 28.155754], [85.328765, 28.155753], [85.328766, 28.155681], [85.328684, 28.15568], [85.328685, 28.155607], [85.328604, 28.155606], [85.328605, 28.155534], [85.328524, 28.155533], [85.328526, 28.155389], [85.328445, 28.155388], [85.328446, 28.155316], [85.328283, 28.155314], [85.328282, 28.155386], [85.328119, 28.155384], [85.32812, 28.155312], [85.328038, 28.155311], [85.32804, 28.155239], [85.327958, 28.155238], [85.327964, 28.154877], [85.327882, 28.154876], [85.327884, 28.154731], [85.327803, 28.15473], [85.327804, 28.154658], [85.327723, 28.154657], [85.327724, 28.154585], [85.327642, 28.154584], [85.327644, 28.154512], [85.327562, 28.154511], [85.327563, 28.154439], [85.327482, 28.154438], [85.327483, 28.154365], [85.32732, 28.154363], [85.327321, 28.154291], [85.32724, 28.15429], [85.327241, 28.154218], [85.327159, 28.154217], [85.327162, 28.154073], [85.326999, 28.154071], [85.327, 28.153998], [85.326755, 28.153995], [85.326757, 28.153923], [85.326594, 28.153921], [85.326595, 28.153849], [85.326513, 28.153848], [85.326516, 28.153704], [85.326434, 28.153703], [85.326435, 28.153631], [85.326354, 28.15363], [85.326355, 28.153557], [85.326274, 28.153556], [85.326275, 28.153484], [85.326193, 28.153483], [85.326195, 28.153339], [85.326033, 28.153337], [85.326034, 28.153265], [85.325952, 28.153264], [85.325954, 28.153119], [85.325873, 28.153118], [85.325874, 28.153046], [85.32563, 28.153043], [85.325631, 28.152971], [85.325468, 28.152969], [85.325469, 28.152897], [85.325388, 28.152896], [85.325389, 28.152824], [85.325307, 28.152823], [85.325309, 28.15275], [85.325064, 28.152747], [85.325065, 28.152675], [85.324984, 28.152674], [85.324985, 28.152602], [85.325066, 28.152603], [85.325068, 28.152531], [85.325149, 28.152532], [85.325151, 28.152387], [85.324988, 28.152385], [85.324989, 28.152313], [85.324908, 28.152312], [85.324909, 28.15224], [85.324746, 28.152238], [85.324747, 28.152166], [85.324666, 28.152165], [85.324667, 28.152093], [85.324586, 28.152092], [85.324587, 28.15202], [85.324668, 28.152021], [85.324669, 28.151948], [85.324751, 28.151949], [85.324752, 28.151877], [85.324589, 28.151875], [85.32459, 28.151803], [85.324509, 28.151802], [85.32451, 28.15173], [85.324428, 28.151729], [85.324431, 28.151584], [85.324349, 28.151583], [85.324355, 28.151223], [85.32411, 28.15122], [85.324109, 28.151292], [85.323865, 28.151289], [85.323863, 28.151433], [85.323781, 28.151432], [85.32378, 28.151504], [85.323699, 28.151503], [85.3237, 28.151431], [85.323537, 28.151429], [85.323538, 28.151357], [85.323457, 28.151356], [85.323456, 28.151428], [85.323374, 28.151427], [85.323375, 28.151355], [85.323212, 28.151353], [85.323213, 28.151281], [85.323132, 28.15128], [85.323133, 28.151208], [85.323052, 28.151207], [85.323053, 28.151134], [85.322727, 28.15113], [85.322728, 28.151058], [85.322321, 28.151053], [85.32232, 28.151125], [85.322157, 28.151123], [85.322156, 28.151196], [85.321911, 28.151193], [85.321913, 28.15112], [85.321831, 28.151119], [85.321832, 28.151047], [85.321751, 28.151046], [85.321752, 28.150974], [85.321671, 28.150973], [85.321672, 28.150901], [85.321509, 28.150899], [85.32151, 28.150827], [85.321428, 28.150826], [85.32143, 28.150754], [85.321348, 28.150753], [85.32135, 28.150608], [85.321269, 28.150607], [85.32127, 28.150535], [85.321189, 28.150534], [85.32119, 28.150462], [85.321108, 28.150461], [85.321109, 28.150389], [85.320702, 28.150384], [85.320703, 28.150311], [85.320622, 28.15031], [85.320623, 28.150238], [85.320542, 28.150237], [85.320544, 28.150093], [85.320381, 28.150091], [85.320382, 28.150019], [85.320219, 28.150017], [85.32022, 28.149945], [85.320139, 28.149944], [85.32014, 28.149871], [85.320221, 28.149872], [85.320223, 28.1498], [85.320304, 28.149801], [85.320306, 28.149657], [85.320225, 28.149656], [85.320227, 28.149511], [85.320146, 28.14951], [85.320147, 28.149438], [85.320065, 28.149437], [85.320066, 28.149365], [85.319985, 28.149364], [85.319984, 28.149436], [85.319902, 28.149435], [85.319901, 28.149507], [85.31982, 28.149506], [85.319821, 28.149434], [85.31974, 28.149433], [85.319741, 28.149361], [85.319578, 28.149359], [85.319577, 28.149431], [85.319495, 28.14943], [85.319494, 28.149502], [85.319413, 28.149501], [85.319412, 28.149574], [85.319249, 28.149572], [85.31925, 28.149499], [85.318924, 28.149495], [85.318925, 28.149423], [85.318844, 28.149422], [85.318846, 28.149278], [85.318764, 28.149277], [85.318766, 28.149205], [85.318684, 28.149204], [85.318685, 28.149131], [85.318604, 28.14913], [85.318606, 28.148986], [85.318688, 28.148987], [85.31869, 28.148843], [85.318771, 28.148844], [85.318774, 28.148699], [85.318692, 28.148698], [85.318693, 28.148626], [85.318612, 28.148625], [85.318613, 28.148553], [85.318287, 28.148549], [85.318288, 28.148477], [85.318125, 28.148475], [85.318126, 28.148403], [85.318045, 28.148402], [85.318046, 28.148329], [85.317965, 28.148328], [85.317966, 28.148256], [85.317722, 28.148253], [85.317723, 28.148181], [85.317478, 28.148178], [85.317479, 28.148106], [85.317235, 28.148103], [85.317236, 28.148031], [85.317155, 28.14803], [85.317156, 28.147958], [85.317075, 28.147957], [85.317076, 28.147884], [85.316994, 28.147883], [85.316998, 28.147667], [85.316753, 28.147664], [85.316754, 28.147592], [85.316673, 28.147591], [85.316674, 28.147518], [85.316593, 28.147517], [85.316595, 28.147373], [85.316513, 28.147372], [85.316515, 28.1473], [85.315945, 28.147293], [85.315946, 28.147221], [85.315864, 28.14722], [85.315865, 28.147147], [85.315784, 28.147146], [85.315785, 28.147074], [85.315622, 28.147072], [85.315623, 28.147], [85.31546, 28.146998], [85.315462, 28.146926], [85.315299, 28.146924], [85.3153, 28.146852], [85.315218, 28.146851], [85.315219, 28.146779], [85.315138, 28.146778], [85.315139, 28.146705], [85.314976, 28.146703], [85.314977, 28.146631], [85.314815, 28.146629], [85.314816, 28.146557], [85.314653, 28.146555], [85.314654, 28.146483], [85.31441, 28.14648], [85.314411, 28.146408], [85.314329, 28.146407], [85.31433, 28.146334], [85.314249, 28.146333], [85.31425, 28.146261], [85.314169, 28.14626], [85.31417, 28.146188], [85.313763, 28.146183], [85.313764, 28.146111], [85.313682, 28.14611], [85.313683, 28.146038], [85.313439, 28.146035], [85.31344, 28.145962], [85.313277, 28.14596], [85.313278, 28.145888], [85.313197, 28.145887], [85.313198, 28.145815], [85.313035, 28.145813], [85.313036, 28.145741], [85.312955, 28.14574], [85.312956, 28.145668], [85.312875, 28.145667], [85.312876, 28.145594], [85.312794, 28.145593], [85.312795, 28.145521], [85.312714, 28.14552], [85.312715, 28.145448], [85.312634, 28.145447], [85.312636, 28.145303], [85.312555, 28.145302], [85.312556, 28.14523], [85.312474, 28.145229], [85.312475, 28.145156], [85.312394, 28.145155], [85.312396, 28.145011], [85.312315, 28.14501], [85.312316, 28.144938], [85.312234, 28.144937], [85.312236, 28.144865], [85.312154, 28.144864], [85.312155, 28.144791], [85.312074, 28.14479], [85.312073, 28.144863], [85.31191, 28.144861], [85.311911, 28.144788], [85.31183, 28.144787], [85.311831, 28.144715], [85.311749, 28.144714], [85.31175, 28.144642], [85.311669, 28.144641], [85.31167, 28.144569], [85.311589, 28.144568], [85.31159, 28.144496], [85.311508, 28.144495], [85.311509, 28.144422], [85.311591, 28.144423], [85.311593, 28.144279], [85.311512, 28.144278], [85.311513, 28.144206], [85.311594, 28.144207], [85.311595, 28.144135], [85.311677, 28.144136], [85.311678, 28.144064], [85.311922, 28.144067], [85.311926, 28.14385], [85.312007, 28.143851], [85.312008, 28.143779], [85.311927, 28.143778], [85.311928, 28.143706], [85.311847, 28.143705], [85.311848, 28.143632], [85.311685, 28.14363], [85.311686, 28.143558], [85.311604, 28.143557], [85.311606, 28.143485], [85.311524, 28.143484], [85.311529, 28.143195], [85.311447, 28.143194], [85.311448, 28.143122], [85.311367, 28.143121], [85.311368, 28.143049], [85.310879, 28.143043], [85.310878, 28.143115], [85.310797, 28.143114], [85.310796, 28.143186], [85.310551, 28.143183], [85.31055, 28.143255], [85.310469, 28.143254], [85.31047, 28.143182], [85.310389, 28.143181], [85.310391, 28.143037], [85.310228, 28.143035], [85.310227, 28.143107], [85.310145, 28.143106], [85.310144, 28.143178], [85.310063, 28.143177], [85.310062, 28.143249], [85.30998, 28.143248], [85.309979, 28.143321], [85.309898, 28.14332], [85.309899, 28.143247], [85.309817, 28.143246], [85.309819, 28.143174], [85.309737, 28.143173], [85.309738, 28.143101], [85.309575, 28.143099], [85.309576, 28.143027], [85.309414, 28.143025], [85.309415, 28.142953], [85.309333, 28.142952], [85.309334, 28.142879], [85.309253, 28.142878], [85.309254, 28.142806], [85.309091, 28.142804], [85.309092, 28.142732], [85.30893, 28.14273], [85.308931, 28.142658], [85.308849, 28.142657], [85.30885, 28.142585], [85.308769, 28.142584], [85.308773, 28.142295], [85.308611, 28.142293], [85.308612, 28.142221], [85.30853, 28.14222], [85.308531, 28.142148], [85.308287, 28.142145], [85.308288, 28.142072], [85.308044, 28.142069], [85.308045, 28.141997], [85.307882, 28.141995], [85.307883, 28.141923], [85.307639, 28.14192], [85.30764, 28.141848], [85.307477, 28.141846], [85.307478, 28.141774], [85.307397, 28.141773], [85.307398, 28.1417], [85.307235, 28.141698], [85.307236, 28.141626], [85.307155, 28.141625], [85.307156, 28.141553], [85.306993, 28.141551], [85.306992, 28.141623], [85.306911, 28.141622], [85.306912, 28.14155], [85.30683, 28.141549], [85.306831, 28.141477], [85.30675, 28.141476], [85.306751, 28.141404], [85.306588, 28.141402], [85.306589, 28.141329], [85.306508, 28.141328], [85.306509, 28.141256], [85.306428, 28.141255], [85.306431, 28.141039], [85.30635, 28.141038], [85.306352, 28.140893], [85.30627, 28.140892], [85.306272, 28.14082], [85.30619, 28.140819], [85.306192, 28.140675], [85.306111, 28.140674], [85.306112, 28.140601], [85.306031, 28.1406], [85.306033, 28.140456], [85.305952, 28.140455], [85.305953, 28.140383], [85.305871, 28.140382], [85.305872, 28.14031], [85.305791, 28.140309], [85.305793, 28.140164], [85.305712, 28.140163], [85.305713, 28.140091], [85.305632, 28.14009], [85.305633, 28.140018], [85.30547, 28.140016], [85.305471, 28.139944], [85.305389, 28.139943], [85.305391, 28.139871], [85.305309, 28.13987], [85.30531, 28.139797], [85.305229, 28.139796], [85.305235, 28.139435], [85.305153, 28.139434], [85.305154, 28.139362], [85.305073, 28.139361], [85.305075, 28.139217], [85.304994, 28.139216], [85.304996, 28.139071], [85.304752, 28.139068], [85.304753, 28.138996], [85.304671, 28.138995], [85.30467, 28.139067], [85.304507, 28.139065], [85.304508, 28.138993], [85.304427, 28.138992], [85.304428, 28.13892], [85.304347, 28.138919], [85.304348, 28.138847], [85.304266, 28.138846], [85.304268, 28.138774], [85.304186, 28.138773], [85.304188, 28.138628], [85.30427, 28.138629], [85.304271, 28.138557], [85.30419, 28.138556], [85.304194, 28.138267], [85.304276, 28.138268], [85.304286, 28.137619], [85.304204, 28.137618], [85.304207, 28.137473], [85.304125, 28.137472], [85.30413, 28.137184], [85.304048, 28.137183], [85.304049, 28.13711], [85.304131, 28.137111], [85.304137, 28.13675], [85.304055, 28.136749], [85.30406, 28.136461], [85.303978, 28.13646], [85.303979, 28.136388], [85.303898, 28.136387], [85.3039, 28.136242], [85.303819, 28.136241], [85.303822, 28.136025], [85.303904, 28.136026], [85.303905, 28.135953], [85.303986, 28.135954], [85.303985, 28.136027], [85.304148, 28.136029], [85.304149, 28.135956], [85.304393, 28.135959], [85.304392, 28.136032], [85.304474, 28.136033], [85.304473, 28.136105], [85.304554, 28.136106], [85.304553, 28.136178], [85.304716, 28.13618], [85.304715, 28.136252], [85.304877, 28.136254], [85.304876, 28.136326], [85.304958, 28.136327], [85.304953, 28.136616], [85.305116, 28.136618], [85.305115, 28.13669], [85.305196, 28.136691], [85.305195, 28.136764], [85.305277, 28.136765], [85.305278, 28.136692], [85.305929, 28.1367], [85.30593, 28.136628], [85.306093, 28.13663], [85.306092, 28.136702], [85.306173, 28.136703], [85.306171, 28.136848], [85.306253, 28.136849], [85.306252, 28.136921], [85.306333, 28.136922], [85.306332, 28.136994], [85.30625, 28.136993], [85.306249, 28.137065], [85.306168, 28.137064], [85.306167, 28.137137], [85.306248, 28.137138], [85.306245, 28.137354], [85.306326, 28.137355], [85.306325, 28.137427], [85.306406, 28.137428], [85.306403, 28.137645], [85.306484, 28.137646], [85.30648, 28.137935], [85.306561, 28.137936], [85.306553, 28.138441], [85.306635, 28.138442], [85.306634, 28.138514], [85.306715, 28.138515], [85.306708, 28.138948], [85.306627, 28.138947], [85.306626, 28.139019], [85.306463, 28.139017], [85.306458, 28.139306], [85.30654, 28.139307], [85.306539, 28.139379], [85.306702, 28.139381], [85.306703, 28.139309], [85.306784, 28.13931], [85.306783, 28.139382], [85.306864, 28.139383], [85.306863, 28.139456], [85.307026, 28.139458], [85.307025, 28.13953], [85.307106, 28.139531], [85.307104, 28.139675], [85.307186, 28.139676], [85.307184, 28.139748], [85.307836, 28.139756], [85.307835, 28.139829], [85.307916, 28.13983], [85.307915, 28.139902], [85.307997, 28.139903], [85.307995, 28.139975], [85.308077, 28.139976], [85.308076, 28.140048], [85.308157, 28.140049], [85.308156, 28.140121], [85.308319, 28.140123], [85.308318, 28.140196], [85.308481, 28.140198], [85.308482, 28.140125], [85.308726, 28.140128], [85.308725, 28.140201], [85.308806, 28.140202], [85.308805, 28.140274], [85.308887, 28.140275], [85.308885, 28.140347], [85.308967, 28.140348], [85.308966, 28.14042], [85.309047, 28.140421], [85.309045, 28.140566], [85.309126, 28.140567], [85.309124, 28.140711], [85.309287, 28.140713], [85.309286, 28.140785], [85.30953, 28.140788], [85.309529, 28.14086], [85.30961, 28.140861], [85.309607, 28.141078], [85.309933, 28.141082], [85.309934, 28.14101], [85.310015, 28.141011], [85.310017, 28.140938], [85.310342, 28.140943], [85.310343, 28.14087], [85.310751, 28.140875], [85.310753, 28.140731], [85.310834, 28.140732], [85.310835, 28.14066], [85.310998, 28.140662], [85.310997, 28.140734], [85.31116, 28.140736], [85.311159, 28.140808], [85.311322, 28.14081], [85.311321, 28.140882], [85.311402, 28.140883], [85.311401, 28.140956], [85.311482, 28.140957], [85.311481, 28.141029], [85.311563, 28.14103], [85.311562, 28.141102], [85.311643, 28.141103], [85.311642, 28.141175], [85.311723, 28.141176], [85.311722, 28.141248], [85.311804, 28.141249], [85.311802, 28.141322], [85.311965, 28.141324], [85.311964, 28.141396], [85.312046, 28.141397], [85.312044, 28.141469], [85.312126, 28.14147], [85.312124, 28.141614], [85.312205, 28.141615], [85.312203, 28.14176], [85.312284, 28.141761], [85.31228, 28.142049], [85.312361, 28.14205], [85.31236, 28.142123], [85.312441, 28.142124], [85.312439, 28.142268], [85.312521, 28.142269], [85.31252, 28.142341], [85.312601, 28.142342], [85.3126, 28.142414], [85.312681, 28.142415], [85.312679, 28.14256], [85.31276, 28.142561], [85.312759, 28.142633], [85.312841, 28.142634], [85.312838, 28.142778], [85.31292, 28.142779], [85.312918, 28.142924], [85.312999, 28.142925], [85.312997, 28.143069], [85.31316, 28.143071], [85.313159, 28.143143], [85.31324, 28.143144], [85.313239, 28.143216], [85.31332, 28.143217], [85.313319, 28.14329], [85.313401, 28.143291], [85.313399, 28.143363], [85.313481, 28.143364], [85.31348, 28.143436], [85.313643, 28.143438], [85.313642, 28.14351], [85.313723, 28.143511], [85.313721, 28.143656], [85.313802, 28.143657], [85.3138, 28.143801], [85.313881, 28.143802], [85.31388, 28.143874], [85.313799, 28.143873], [85.313795, 28.14409], [85.313877, 28.144091], [85.313878, 28.144018], [85.314041, 28.14402], [85.31404, 28.144093], [85.314121, 28.144094], [85.31412, 28.144166], [85.314201, 28.144167], [85.314199, 28.144311], [85.314281, 28.144312], [85.314279, 28.144384], [85.314442, 28.144386], [85.314441, 28.144459], [85.314523, 28.14446], [85.314522, 28.144532], [85.314684, 28.144534], [85.314683, 28.144606], [85.31509, 28.144611], [85.315093, 28.144467], [85.315011, 28.144466], [85.315012, 28.144393], [85.314931, 28.144392], [85.314932, 28.14432], [85.315014, 28.144321], [85.315015, 28.144249], [85.315178, 28.144251], [85.315176, 28.144323], [85.315502, 28.144327], [85.315501, 28.144399], [85.315582, 28.1444], [85.315581, 28.144473], [85.315663, 28.144474], [85.315662, 28.144546], [85.315743, 28.144547], [85.31574, 28.144763], [85.315903, 28.144765], [85.315901, 28.144838], [85.316064, 28.14484], [85.316063, 28.144912], [85.316145, 28.144913], [85.316142, 28.145057], [85.316224, 28.145058], [85.316223, 28.14513], [85.316467, 28.145133], [85.316468, 28.145061], [85.31655, 28.145062], [85.316548, 28.145134], [85.31663, 28.145135], [85.316628, 28.14528], [85.317116, 28.145286], [85.317115, 28.145358], [85.317197, 28.145359], [85.317195, 28.145431], [85.317277, 28.145432], [85.317276, 28.145504], [85.317439, 28.145506], [85.317438, 28.145578], [85.317519, 28.145579], [85.317518, 28.145652], [85.317681, 28.145654], [85.31768, 28.145726], [85.317761, 28.145727], [85.31776, 28.145799], [85.317841, 28.1458], [85.317839, 28.145944], [85.317921, 28.145945], [85.317917, 28.146162], [85.318161, 28.146165], [85.31816, 28.146237], [85.318242, 28.146238], [85.318241, 28.14631], [85.318404, 28.146312], [85.318405, 28.14624], [85.31873, 28.146244], [85.318729, 28.146316], [85.319055, 28.14632], [85.319054, 28.146392], [85.319135, 28.146393], [85.319134, 28.146466], [85.319297, 28.146468], [85.319296, 28.14654], [85.319377, 28.146541], [85.319376, 28.146613], [85.319458, 28.146614], [85.319457, 28.146686], [85.319538, 28.146687], [85.319536, 28.146832], [85.319617, 28.146833], [85.319616, 28.146905], [85.319698, 28.146906], [85.319696, 28.146978], [85.319778, 28.146979], [85.319777, 28.147051], [85.31994, 28.147053], [85.319938, 28.147125], [85.320183, 28.147128], [85.320182, 28.1472], [85.320263, 28.147201], [85.320262, 28.147274], [85.320343, 28.147275], [85.320342, 28.147347], [85.320424, 28.147348], [85.320423, 28.14742], [85.320504, 28.147421], [85.320503, 28.147493], [85.320747, 28.147496], [85.320746, 28.147568], [85.320828, 28.147569], [85.320826, 28.147642], [85.320908, 28.147643], [85.320906, 28.147787], [85.320987, 28.147788], [85.320986, 28.14786], [85.321067, 28.147861], [85.321065, 28.148005], [85.321147, 28.148006], [85.321145, 28.148079], [85.32139, 28.148082], [85.321389, 28.148154], [85.32147, 28.148155], [85.321469, 28.148227], [85.32155, 28.148228], [85.321549, 28.1483], [85.321631, 28.148301], [85.321627, 28.148518], [85.321709, 28.148519], [85.321707, 28.148663], [85.321788, 28.148664], [85.321787, 28.148736], [85.321868, 28.148737], [85.321866, 28.148882], [85.321785, 28.148881], [85.321783, 28.148953], [85.321865, 28.148954], [85.321864, 28.149026], [85.321945, 28.149027], [85.321944, 28.149099], [85.321863, 28.149098], [85.321858, 28.149387], [85.32194, 28.149388], [85.321937, 28.149532], [85.322019, 28.149533], [85.322018, 28.149606], [85.322099, 28.149607], [85.322098, 28.149679], [85.322179, 28.14968], [85.322178, 28.149752], [85.322341, 28.149754], [85.32234, 28.149826], [85.322666, 28.14983], [85.322667, 28.149758], [85.322748, 28.149759], [85.32275, 28.149687], [85.322994, 28.14969], [85.322993, 28.149762], [85.323074, 28.149763], [85.323073, 28.149835], [85.323236, 28.149837], [85.323235, 28.149909], [85.323479, 28.149912], [85.32348, 28.14984], [85.32405, 28.149847], [85.324051, 28.149775], [85.324133, 28.149776], [85.324134, 28.149704], [85.324297, 28.149706], [85.324298, 28.149633], [85.324542, 28.149636], [85.324541, 28.149709], [85.324623, 28.14971], [85.324622, 28.149782], [85.324703, 28.149783], [85.324702, 28.149855], [85.324946, 28.149858], [85.324945, 28.14993], [85.325271, 28.149934], [85.32527, 28.150006], [85.325514, 28.150009], [85.325513, 28.150082], [85.325594, 28.150083], [85.325593, 28.150155], [85.325675, 28.150156], [85.325674, 28.150228], [85.325755, 28.150229], [85.325754, 28.150301], [85.325835, 28.150302], [85.325834, 28.150374], [85.325916, 28.150375], [85.325912, 28.150592], [85.326075, 28.150594], [85.326074, 28.150666], [85.326156, 28.150667], [85.326154, 28.150739], [85.326317, 28.150741], [85.326316, 28.150813], [85.326479, 28.150815], [85.326478, 28.150888], [85.326559, 28.150889], [85.326557, 28.151033], [85.326639, 28.151034], [85.326636, 28.151178], [85.326718, 28.151179], [85.326714, 28.151396], [85.326796, 28.151397], [85.326795, 28.151469], [85.326958, 28.151471], [85.326957, 28.151543], [85.327038, 28.151544], [85.327037, 28.151616], [85.327118, 28.151617], [85.327117, 28.15169], [85.327199, 28.151691], [85.327197, 28.151763], [85.327279, 28.151764], [85.327278, 28.151836], [85.327359, 28.151837], [85.327358, 28.151909], [85.32744, 28.15191], [85.327438, 28.151982], [85.327357, 28.151981], [85.327356, 28.152053], [85.327519, 28.152055], [85.327518, 28.152128], [85.327681, 28.15213], [85.327679, 28.152202], [85.327761, 28.152203], [85.32776, 28.152275], [85.327841, 28.152276], [85.32784, 28.152348], [85.327921, 28.152349], [85.32792, 28.152421], [85.328002, 28.152422], [85.328001, 28.152494], [85.328082, 28.152495], [85.32808, 28.15264], [85.328161, 28.152641], [85.32816, 28.152713], [85.328242, 28.152714], [85.328241, 28.152786], [85.328322, 28.152787], [85.32832, 28.152932], [85.328401, 28.152933], [85.3284, 28.153005], [85.328482, 28.153006], [85.32848, 28.153078], [85.328725, 28.153081], [85.328724, 28.153153], [85.328805, 28.153154], [85.328804, 28.153226], [85.328885, 28.153227], [85.328884, 28.153299], [85.329047, 28.153301], [85.329046, 28.153374], [85.329127, 28.153375], [85.329126, 28.153447], [85.329208, 28.153448], [85.329207, 28.15352], [85.329288, 28.153521], [85.329287, 28.153593], [85.329368, 28.153594], [85.329367, 28.153666], [85.329449, 28.153667], [85.329448, 28.15374], [85.329529, 28.153741], [85.329528, 28.153813], [85.329609, 28.153814], [85.329608, 28.153886], [85.32969, 28.153887], [85.329689, 28.153959], [85.32977, 28.15396], [85.329769, 28.154032], [85.32985, 28.154033], [85.329848, 28.154178], [85.32993, 28.154179], [85.329927, 28.154323], [85.330009, 28.154324], [85.330007, 28.154468], [85.330088, 28.154469], [85.330087, 28.154542], [85.330168, 28.154543], [85.330165, 28.154759], [85.330246, 28.15476], [85.330243, 28.154977], [85.330325, 28.154978], [85.330322, 28.155122], [85.330404, 28.155123], [85.330401, 28.155267], [85.330483, 28.155268], [85.330481, 28.155413], [85.330562, 28.155414], [85.330561, 28.155486], [85.330642, 28.155487], [85.330641, 28.155559], [85.33113, 28.155565], [85.331129, 28.155637], [85.331292, 28.155639], [85.331291, 28.155711], [85.331372, 28.155712], [85.331371, 28.155785], [85.331452, 28.155786], [85.331451, 28.155858], [85.331533, 28.155859], [85.331529, 28.156075], [85.331692, 28.156077], [85.331693, 28.156005], [85.331938, 28.156008], [85.331937, 28.15608], [85.332018, 28.156081], [85.332014, 28.15637], [85.332177, 28.156372], [85.332178, 28.1563], [85.332259, 28.156301], [85.332258, 28.156373], [85.332339, 28.156374], [85.332338, 28.156446], [85.332257, 28.156445], [85.332256, 28.156517], [85.332337, 28.156518], [85.332336, 28.156591], [85.332418, 28.156592], [85.332416, 28.156664], [85.332579, 28.156666], [85.332578, 28.156738], [85.332741, 28.15674], [85.33274, 28.156812], [85.333066, 28.156816], [85.333065, 28.156888], [85.333146, 28.156889], [85.333145, 28.156961], [85.333308, 28.156963], [85.333307, 28.157036], [85.33347, 28.157038], [85.333469, 28.15711], [85.33355, 28.157111], [85.333546, 28.157399], [85.333627, 28.1574], [85.333626, 28.157473], [85.333707, 28.157474], [85.333706, 28.157546], [85.333788, 28.157547], [85.333786, 28.157619], [85.334031, 28.157622], [85.33403, 28.157694], [85.334111, 28.157695], [85.33411, 28.157767], [85.334762, 28.157775], [85.334761, 28.157847], [85.335168, 28.157852], [85.335167, 28.157925], [85.335411, 28.157928], [85.33541, 28.158], [85.335654, 28.158003], [85.335653, 28.158075], [85.335735, 28.158076], [85.335733, 28.158148], [85.335815, 28.158149], [85.335814, 28.158221], [85.335895, 28.158222], [85.335894, 28.158294], [85.335976, 28.158295], [85.335974, 28.158368], [85.336056, 28.158369], [85.336055, 28.158441], [85.336218, 28.158443], [85.336217, 28.158515], [85.336298, 28.158516], [85.336295, 28.158732], [85.336376, 28.158733], [85.336373, 28.15895], [85.336454, 28.158951], [85.336453, 28.159023], [85.336535, 28.159024], [85.336532, 28.159169], [85.336614, 28.15917], [85.336613, 28.159242], [85.336694, 28.159243], [85.336693, 28.159315], [85.336774, 28.159316], [85.336773, 28.159388], [85.336855, 28.159389], [85.336854, 28.159461], [85.337098, 28.159464], [85.337097, 28.159536], [85.337178, 28.159537], [85.337177, 28.15961], [85.337259, 28.159611], [85.337258, 28.159683], [85.337339, 28.159684], [85.33734, 28.159612], [85.337422, 28.159613], [85.33742, 28.159685], [85.337502, 28.159686], [85.337501, 28.159758], [85.337582, 28.159759], [85.33758, 28.159903], [85.337661, 28.159904], [85.33766, 28.159976], [85.337742, 28.159977], [85.337741, 28.16005], [85.337822, 28.160051], [85.337821, 28.160123], [85.337902, 28.160124], [85.337901, 28.160196], [85.337983, 28.160197], [85.337982, 28.160269], [85.338063, 28.16027], [85.33806, 28.160487], [85.338141, 28.160488], [85.338138, 28.160704], [85.338219, 28.160705], [85.338217, 28.16085], [85.338299, 28.160851], [85.338296, 28.160995], [85.338378, 28.160996], [85.338377, 28.161068], [85.338458, 28.161069], [85.338457, 28.161141], [85.338538, 28.161142], [85.338537, 28.161214], [85.338619, 28.161215], [85.338615, 28.161432], [85.338697, 28.161433], [85.338696, 28.161505], [85.338777, 28.161506], [85.338776, 28.161578], [85.338858, 28.161579], [85.338854, 28.161796], [85.338936, 28.161797], [85.338935, 28.161869], [85.339016, 28.16187], [85.339015, 28.161942], [85.339178, 28.161944], [85.339177, 28.162016], [85.33934, 28.162018], [85.339339, 28.162091], [85.33942, 28.162092], [85.339419, 28.162164], [85.339582, 28.162166], [85.339581, 28.162238], [85.339744, 28.16224], [85.339742, 28.162312], [85.339824, 28.162313], [85.339823, 28.162385], [85.339904, 28.162386], [85.339902, 28.162531], [85.339983, 28.162532], [85.339981, 28.162676], [85.340063, 28.162677], [85.340062, 28.162749], [85.340143, 28.16275], [85.340142, 28.162822], [85.340223, 28.162823], [85.340222, 28.162896], [85.340304, 28.162896], [85.340303, 28.162969], [85.340384, 28.16297], [85.340382, 28.163114], [85.340463, 28.163115], [85.340462, 28.163187], [85.340544, 28.163188], [85.340542, 28.16326], [85.340624, 28.163261], [85.340623, 28.163334], [85.340867, 28.163337], [85.340868, 28.163264], [85.341031, 28.163266], [85.341032, 28.163194], [85.341195, 28.163196], [85.341196, 28.163124], [85.341359, 28.163126], [85.34136, 28.163054], [85.341442, 28.163055], [85.341441, 28.163127], [85.341522, 28.163128], [85.341523, 28.163056], [85.341686, 28.163058], [85.341687, 28.162985], [85.341932, 28.162988], [85.341933, 28.162916], [85.343073, 28.16293], [85.343072, 28.163002], [85.343153, 28.163003], [85.343152, 28.163075], [85.343234, 28.163076], [85.343232, 28.163221], [85.343476, 28.163224], [85.343478, 28.163079], [85.34356, 28.16308], [85.343561, 28.163008], [85.343724, 28.16301], [85.343725, 28.162938], [85.343806, 28.162939], [85.343807, 28.162867], [85.343889, 28.162868], [85.34389, 28.162796], [85.344053, 28.162797], [85.344054, 28.162725], [85.344135, 28.162726], [85.344136, 28.162654], [85.344218, 28.162655], [85.344219, 28.162583], [85.3443, 28.162584], [85.344302, 28.162512], [85.344464, 28.162514], [85.344466, 28.162441], [85.34471, 28.162444], [85.344711, 28.162372], [85.344874, 28.162374], [85.344875, 28.162302], [85.345038, 28.162304], [85.345039, 28.162232], [85.345121, 28.162233], [85.345122, 28.162161], [85.345203, 28.162162], [85.345204, 28.162089], [85.345286, 28.16209], [85.345287, 28.162018], [85.345368, 28.162019], [85.345369, 28.161947], [85.345451, 28.161948], [85.345452, 28.161876], [85.345533, 28.161877], [85.345534, 28.161805], [85.345616, 28.161806], [85.345617, 28.161733], [85.345699, 28.161734], [85.3457, 28.161662], [85.345781, 28.161663], [85.345782, 28.161591], [85.345864, 28.161592], [85.345865, 28.16152], [85.345946, 28.161521], [85.345947, 28.161449], [85.346029, 28.16145], [85.346031, 28.161305], [85.346112, 28.161306], [85.346114, 28.161234], [85.346195, 28.161235], [85.346196, 28.161163], [85.346278, 28.161164], [85.34628, 28.161019], [85.346361, 28.16102], [85.346362, 28.160948], [85.346444, 28.160949], [85.346445, 28.160877], [85.346526, 28.160878], [85.346527, 28.160806], [85.346609, 28.160807], [85.34661, 28.160735], [85.346773, 28.160737], [85.346774, 28.160664], [85.346855, 28.160665], [85.346857, 28.160593], [85.347101, 28.160596], [85.347102, 28.160524], [85.347265, 28.160526], [85.347266, 28.160454], [85.347429, 28.160456], [85.34743, 28.160383], [85.347593, 28.160385], [85.347594, 28.160313], [85.347676, 28.160314], [85.347677, 28.160242], [85.347758, 28.160243], [85.347759, 28.160171], [85.347841, 28.160172], [85.347843, 28.160027], [85.347924, 28.160028], [85.347927, 28.159884], [85.348008, 28.159885], [85.348009, 28.159813], [85.348091, 28.159814], [85.348092, 28.159742], [85.348173, 28.159743], [85.348174, 28.15967], [85.348419, 28.159673], [85.34842, 28.159601], [85.348583, 28.159603], [85.348584, 28.159531], [85.348665, 28.159532], [85.348664, 28.159604], [85.348746, 28.159605], [85.348743, 28.15975], [85.348662, 28.159749], [85.34866, 28.159893], [85.348578, 28.159892], [85.348575, 28.160108], [85.348493, 28.160108], [85.348492, 28.16018], [85.348574, 28.160181], [85.348572, 28.160325], [85.34849, 28.160324], [85.348487, 28.160541], [85.348405, 28.16054], [85.348402, 28.160756], [85.348321, 28.160755], [85.348317, 28.160972], [85.348236, 28.160971], [85.348235, 28.161043], [85.348153, 28.161042], [85.348152, 28.161114], [85.347989, 28.161112], [85.347988, 28.161184], [85.347907, 28.161183], [85.347905, 28.161256], [85.347743, 28.161254], [85.347741, 28.161326], [85.34766, 28.161325], [85.347659, 28.161397], [85.347415, 28.161394], [85.347413, 28.161466], [85.347332, 28.161465], [85.347331, 28.161537], [85.347249, 28.161537], [85.347248, 28.161609], [85.347167, 28.161608], [85.347166, 28.16168], [85.347084, 28.161679], [85.347083, 28.161751], [85.347002, 28.16175], [85.346998, 28.161967], [85.346917, 28.161966], [85.346916, 28.162038], [85.346834, 28.162037], [85.346833, 28.162109], [85.346752, 28.162108], [85.34675, 28.162252], [85.346668, 28.162251], [85.346667, 28.162324], [85.346586, 28.162323], [85.346585, 28.162395], [85.346503, 28.162394], [85.346501, 28.162538], [85.346419, 28.162537], [85.346416, 28.162754], [85.346335, 28.162753], [85.346333, 28.162825], [85.346252, 28.162824], [85.346251, 28.162896], [85.346169, 28.162895], [85.346168, 28.162967], [85.346087, 28.162966], [85.346086, 28.163039], [85.345679, 28.163034], [85.345677, 28.163106], [85.345596, 28.163105], [85.345595, 28.163177], [85.345513, 28.163176], [85.345512, 28.163248], [85.345349, 28.163246], [85.345348, 28.163319], [85.345185, 28.163317], [85.345184, 28.163389], [85.345103, 28.163388], [85.345102, 28.16346], [85.344939, 28.163458], [85.344938, 28.16353], [85.344775, 28.163528], [85.344774, 28.1636], [85.344692, 28.163599], [85.344691, 28.163672], [85.34461, 28.163671], [85.344609, 28.163743], [85.344527, 28.163742], [85.344525, 28.163886], [85.344443, 28.163885], [85.344442, 28.163957], [85.344361, 28.163956], [85.34436, 28.164029], [85.344197, 28.164027], [85.344196, 28.164099], [85.344114, 28.164098], [85.344111, 28.164314], [85.344029, 28.164313], [85.344028, 28.164386], [85.343865, 28.164384], [85.343864, 28.164456], [85.343783, 28.164455], [85.343782, 28.164527], [85.3437, 28.164526], [85.343699, 28.164598], [85.343618, 28.164597], [85.343615, 28.164742], [85.343534, 28.164741], [85.343532, 28.164885], [85.34345, 28.164884], [85.343448, 28.165028], [85.343367, 28.165027], [85.343364, 28.165172], [85.343283, 28.165171], [85.34328, 28.165387], [85.343361, 28.165388], [85.343359, 28.165533], [85.34344, 28.165534], [85.343435, 28.165895], [85.343516, 28.165896], [85.343515, 28.165968], [85.343597, 28.165969], [85.343595, 28.166041], [85.343677, 28.166042], [85.343676, 28.166114], [85.343757, 28.166115], [85.343755, 28.166259], [85.343837, 28.16626], [85.343832, 28.166549], [85.343751, 28.166548], [85.343747, 28.166765], [85.343829, 28.166766], [85.343828, 28.166838], [85.343746, 28.166837], [85.343742, 28.167126], [85.34366, 28.167125], [85.343657, 28.167341], [85.343575, 28.16734], [85.343569, 28.167773], [85.343487, 28.167772], [85.343483, 28.168061], [85.343401, 28.16806], [85.3434, 28.168132], [85.343237, 28.16813], [85.343236, 28.168203], [85.343155, 28.168202], [85.343154, 28.168274], [85.343072, 28.168273], [85.34307, 28.168417], [85.343152, 28.168418], [85.343147, 28.168707], [85.343229, 28.168708], [85.343226, 28.168852], [85.343308, 28.168853], [85.343307, 28.168925], [85.343388, 28.168926], [85.343383, 28.169287], [85.343301, 28.169286], [85.343294, 28.169719], [85.343376, 28.16972], [85.343373, 28.169937], [85.343454, 28.169938], [85.343448, 28.170299], [85.34353, 28.1703], [85.343528, 28.170444], [85.343446, 28.170443], [85.343436, 28.171093], [85.343355, 28.171092], [85.34335, 28.171381], [85.343269, 28.17138], [85.343265, 28.171596], [85.343184, 28.171595], [85.343183, 28.171668], [85.343264, 28.171669], [85.34326, 28.171957], [85.343341, 28.171958], [85.343338, 28.172175], [85.343419, 28.172176], [85.343418, 28.172248], [85.3435, 28.172249], [85.343499, 28.172321], [85.34358, 28.172322], [85.343574, 28.172755], [85.343655, 28.172756], [85.343644, 28.173478], [85.343725, 28.173479], [85.343719, 28.173912], [85.3438, 28.173913], [85.343799, 28.173985], [85.343718, 28.173984], [85.343708, 28.174634], [85.343626, 28.174633], [85.343624, 28.174777], [85.343542, 28.174776], [85.34354, 28.174921], [85.343459, 28.17492], [85.343456, 28.175064], [85.343375, 28.175063], [85.343369, 28.175424], [85.343451, 28.175425], [85.34345, 28.175497], [85.343531, 28.175498], [85.34353, 28.175571], [85.343937, 28.175575], [85.343936, 28.175648], [85.344018, 28.175649], [85.344016, 28.175793], [85.344097, 28.175794], [85.344095, 28.175938], [85.344013, 28.175937], [85.344012, 28.17601], [85.343931, 28.176009], [85.34393, 28.176081], [85.343767, 28.176079], [85.343766, 28.176151], [85.343603, 28.176149], [85.343599, 28.176366], [85.343681, 28.176367], [85.343677, 28.176583], [85.343759, 28.176584], [85.343756, 28.176801], [85.343674, 28.1768], [85.343673, 28.176872], [85.343592, 28.176871], [85.343588, 28.177087], [85.34367, 28.177088], [85.343664, 28.177449], [85.343746, 28.17745], [85.343743, 28.177595], [85.343662, 28.177594], [85.34366, 28.177738], [85.343741, 28.177739], [85.343739, 28.177883], [85.343657, 28.177882], [85.343652, 28.178243], [85.34357, 28.178242], [85.343565, 28.178603], [85.343646, 28.178604], [85.343645, 28.178676], [85.343727, 28.178677], [85.343726, 28.17875], [85.343807, 28.178751], [85.343801, 28.179112], [85.34372, 28.179111], [85.343712, 28.179616], [85.343794, 28.179617], [85.34379, 28.179833], [85.343709, 28.179832], [85.343706, 28.180049], [85.343624, 28.180048], [85.343623, 28.18012], [85.343542, 28.180119], [85.34354, 28.180191], [85.343459, 28.18019], [85.343449, 28.18084], [85.34353, 28.180841], [85.343526, 28.18113], [85.343444, 28.181129], [85.343442, 28.181273], [85.343361, 28.181272], [85.34336, 28.181344], [85.343441, 28.181345], [85.34344, 28.181418], [85.343359, 28.181417], [85.343356, 28.181561], [85.343438, 28.181562], [85.343437, 28.181634], [85.343518, 28.181635], [85.343517, 28.181707], [85.34368, 28.181709], [85.343681, 28.181637], [85.343763, 28.181638], [85.343761, 28.18171], [85.343843, 28.181711], [85.34384, 28.181928], [85.344003, 28.18193], [85.344001, 28.182002], [85.344083, 28.182003], [85.344081, 28.182147], [85.343999, 28.182146], [85.343998, 28.182219], [85.34408, 28.18222], [85.344078, 28.182292], [85.34416, 28.182293], [85.344158, 28.182437], [85.344239, 28.182438], [85.344237, 28.182582], [85.3444, 28.182584], [85.344399, 28.182657], [85.34448, 28.182658], [85.344476, 28.182946], [85.344394, 28.182945], [85.344393, 28.183018], [85.344475, 28.183019], [85.344472, 28.183163], [85.344635, 28.183165], [85.344634, 28.183237], [85.344716, 28.183238], [85.344713, 28.183382], [85.344632, 28.183381], [85.344625, 28.183815], [85.344707, 28.183816], [85.344705, 28.18396], [85.344786, 28.183961], [85.344784, 28.184105], [85.344865, 28.184106], [85.344864, 28.184178], [85.344946, 28.184179], [85.344945, 28.184252], [85.345026, 28.184253], [85.345024, 28.184397], [85.345105, 28.184398], [85.345104, 28.18447], [85.345186, 28.184471], [85.345185, 28.184543], [85.345266, 28.184544], [85.345265, 28.184616], [85.345346, 28.184617], [85.345345, 28.18469], [85.345427, 28.184691], [85.345426, 28.184763], [85.345507, 28.184764], [85.345505, 28.184908], [85.345586, 28.184909], [85.345583, 28.185126], [85.345664, 28.185127], [85.345662, 28.185271], [85.345744, 28.185272], [85.345741, 28.185416], [85.345904, 28.185418], [85.345903, 28.185491], [85.345985, 28.185492], [85.345984, 28.185564], [85.346147, 28.185566], [85.346145, 28.185638], [85.346227, 28.185639], [85.346226, 28.185711], [85.346307, 28.185712], [85.346306, 28.185784], [85.346469, 28.185786], [85.346468, 28.185858], [85.34655, 28.185859], [85.346548, 28.185932], [85.34663, 28.185933], [85.346628, 28.186077], [85.346709, 28.186078], [85.346707, 28.186222], [85.346625, 28.186221], [85.346621, 28.18651], [85.346784, 28.186512], [85.346783, 28.186584], [85.346864, 28.186585], [85.34686, 28.186874], [85.346941, 28.186875], [85.34694, 28.186947], [85.347022, 28.186948], [85.347021, 28.18702], [85.347102, 28.187021], [85.347098, 28.18731], [85.347179, 28.187311], [85.347177, 28.187455], [85.347258, 28.187456], [85.347257, 28.187529], [85.347339, 28.187529], [85.347335, 28.187746], [85.347417, 28.187747], [85.347416, 28.187819], [85.347497, 28.18782], [85.347496, 28.187892], [85.347659, 28.187894], [85.347658, 28.187967], [85.347739, 28.187968], [85.347737, 28.188112], [85.347819, 28.188113], [85.347815, 28.188329], [85.347897, 28.18833], [85.347896, 28.188403], [85.347977, 28.188404], [85.347974, 28.18862], [85.348055, 28.188621], [85.348052, 28.188838], [85.348133, 28.188839], [85.348132, 28.188911], [85.348214, 28.188912], [85.348206, 28.189417], [85.348288, 28.189418], [85.348282, 28.189779], [85.348363, 28.18978], [85.348362, 28.189852], [85.348525, 28.189854], [85.348524, 28.189926], [85.348606, 28.189927], [85.348605, 28.19], [85.348686, 28.190001], [85.348685, 28.190073], [85.348766, 28.190074], [85.348765, 28.190146], [85.348847, 28.190147], [85.348845, 28.190291], [85.348926, 28.190292], [85.348925, 28.190364], [85.349006, 28.190365], [85.349004, 28.19051], [85.349086, 28.190511], [85.349084, 28.190583], [85.349329, 28.190586], [85.349328, 28.190658], [85.349409, 28.190659], [85.349405, 28.190948], [85.349486, 28.190949], [85.349485, 28.191021], [85.349567, 28.191022], [85.349563, 28.191239], [85.349645, 28.19124], [85.349644, 28.191312], [85.349562, 28.191311], [85.349556, 28.191744], [85.349637, 28.191745], [85.349635, 28.191889], [85.349716, 28.19189], [85.349715, 28.191962], [85.349797, 28.191963], [85.349794, 28.192108], [85.349957, 28.19211], [85.349956, 28.192182], [85.350038, 28.192183], [85.350037, 28.192255], [85.350118, 28.192256], [85.350116, 28.1924], [85.350197, 28.192401], [85.350196, 28.192474], [85.350278, 28.192475], [85.350277, 28.192547], [85.350358, 28.192548], [85.350349, 28.193125], [85.350431, 28.193126], [85.350429, 28.193271], [85.35051, 28.193272], [85.350509, 28.193344], [85.35059, 28.193345], [85.350589, 28.193417], [85.350671, 28.193418], [85.35067, 28.19349], [85.350751, 28.193491], [85.35075, 28.193563], [85.350832, 28.193564], [85.350827, 28.193853], [85.350909, 28.193854], [85.350906, 28.193998], [85.350988, 28.193999], [85.350987, 28.194071], [85.351068, 28.194072], [85.351066, 28.194217], [85.351147, 28.194218], [85.351144, 28.194434], [85.351226, 28.194435], [85.351223, 28.19458], [85.351305, 28.194581], [85.351302, 28.194797], [85.35122, 28.194796], [85.351219, 28.194868], [85.351137, 28.194867], [85.351134, 28.195084], [85.351216, 28.195085], [85.351211, 28.195374], [85.35113, 28.195373], [85.351126, 28.195589], [85.351045, 28.195588], [85.351044, 28.195661], [85.351125, 28.195662], [85.351118, 28.196167], [85.351199, 28.196168], [85.351198, 28.19624], [85.351279, 28.196241], [85.351277, 28.196385], [85.351359, 28.196386], [85.351356, 28.196531], [85.351438, 28.196532], [85.351437, 28.196604], [85.351518, 28.196605], [85.351517, 28.196677], [85.351599, 28.196678], [85.351598, 28.19675], [85.351679, 28.196751], [85.351678, 28.196823], [85.351759, 28.196824], [85.351757, 28.196969], [85.351839, 28.19697], [85.351838, 28.197042], [85.351919, 28.197043], [85.351918, 28.197115], [85.351999, 28.197116], [85.351998, 28.197188], [85.35208, 28.197189], [85.352079, 28.197261], [85.35216, 28.197262], [85.352158, 28.197407], [85.352239, 28.197408], [85.352237, 28.197552], [85.352319, 28.197553], [85.352316, 28.197697], [85.352398, 28.197698], [85.352397, 28.197771], [85.352478, 28.197772], [85.352476, 28.197916], [85.352558, 28.197917], [85.352554, 28.198134], [85.352636, 28.198135], [85.352634, 28.198279], [85.352715, 28.19828], [85.352713, 28.198424], [85.352794, 28.198425], [85.352793, 28.198497], [85.352875, 28.198498], [85.352872, 28.198643], [85.352954, 28.198644], [85.352953, 28.198716], [85.353034, 28.198717], [85.353031, 28.198933], [85.353112, 28.198934], [85.35311, 28.199079], [85.353192, 28.19908], [85.353191, 28.199152], [85.353272, 28.199153], [85.353268, 28.199442], [85.353349, 28.199443], [85.353345, 28.199731], [85.353426, 28.199732], [85.353423, 28.199949], [85.353504, 28.19995], [85.353502, 28.200094], [85.353584, 28.200095], [85.353583, 28.200168], [85.353664, 28.200168], [85.353663, 28.200241], [85.353744, 28.200242], [85.353743, 28.200314], [85.353825, 28.200315], [85.353824, 28.200387], [85.353905, 28.200388], [85.353904, 28.20046], [85.353985, 28.200461], [85.353983, 28.200606], [85.353902, 28.200605], [85.353901, 28.200677], [85.353738, 28.200675], [85.353736, 28.200819], [85.353654, 28.200818], [85.353651, 28.201035], [85.353569, 28.201034], [85.353564, 28.201395], [85.353645, 28.201396], [85.353642, 28.201612], [85.353723, 28.201613], [85.353721, 28.201758], [85.353803, 28.201759], [85.353801, 28.201831], [85.353883, 28.201832], [85.353882, 28.201904], [85.353963, 28.201905], [85.353962, 28.201977], [85.354044, 28.201978], [85.354043, 28.20205], [85.354124, 28.202051], [85.354117, 28.202484], [85.354036, 28.202483], [85.354035, 28.202556], [85.354116, 28.202557], [85.354112, 28.202845], [85.354193, 28.202846], [85.35419, 28.203063], [85.354272, 28.203064], [85.35427, 28.203136], [85.354352, 28.203137], [85.354348, 28.203426], [85.354429, 28.203427], [85.354428, 28.203499], [85.354509, 28.2035], [85.354506, 28.203716], [85.354588, 28.203717], [85.354586, 28.20379], [85.354668, 28.203791], [85.354666, 28.203935], [85.354747, 28.203936], [85.354746, 28.204008], [85.354828, 28.204009], [85.354826, 28.204081], [85.354989, 28.204083], [85.354988, 28.204155], [85.35507, 28.204156], [85.355069, 28.204229], [85.354987, 28.204228], [85.354982, 28.204589], [85.355063, 28.204589], [85.355061, 28.204734], [85.355142, 28.204735], [85.355141, 28.204807], [85.355223, 28.204808], [85.355221, 28.204952], [85.355302, 28.204953], [85.355301, 28.205026], [85.355383, 28.205027], [85.355381, 28.205099], [85.355463, 28.2051], [85.355462, 28.205172], [85.355543, 28.205173], [85.355542, 28.205245], [85.355624, 28.205246], [85.35562, 28.205463], [85.355865, 28.205466], [85.355864, 28.205538], [85.355945, 28.205539], [85.355943, 28.205683], [85.355861, 28.205682], [85.35586, 28.205754], [85.355942, 28.205755], [85.3559, 28.208498], [85.355818, 28.208497], [85.355817, 28.20857], [85.355736, 28.208569], [85.355735, 28.208641], [85.355653, 28.20864], [85.355652, 28.208712], [85.355571, 28.208711], [85.355523, 28.211815], [85.355605, 28.211816], [85.355603, 28.211888], [85.355685, 28.211889], [85.355683, 28.212033], [85.355601, 28.212033], [85.355598, 28.212249], [85.355516, 28.212248], [85.355515, 28.21232], [85.355434, 28.212319], [85.355433, 28.212391], [85.355351, 28.212391], [85.35535, 28.212463], [85.355432, 28.212464], [85.35543, 28.212536], [85.355512, 28.212537], [85.355511, 28.212609], [85.355429, 28.212608], [85.355423, 28.213041], [85.355504, 28.213042], [85.355495, 28.21362], [85.355414, 28.213619], [85.355413, 28.213691], [85.355494, 28.213692], [85.35549, 28.213981], [85.355408, 28.21398], [85.355403, 28.214341], [85.355484, 28.214342], [85.355482, 28.214486], [85.355564, 28.214487], [85.355558, 28.214848], [85.355477, 28.214847], [85.355474, 28.214991], [85.355393, 28.21499], [85.35539, 28.215207], [85.355471, 28.215208], [85.355468, 28.215424], [85.355386, 28.215423], [85.355384, 28.215568], [85.355466, 28.215569], [85.355463, 28.215713], [85.355545, 28.215714], [85.355544, 28.215786], [85.355625, 28.215787], [85.355624, 28.215859], [85.355706, 28.21586], [85.355703, 28.216005], [85.355785, 28.216006], [85.355782, 28.216222], [85.355863, 28.216223], [85.355862, 28.216295], [85.355943, 28.216296], [85.355941, 28.216441], [85.356023, 28.216442], [85.356022, 28.216514], [85.356103, 28.216515], [85.356096, 28.216948], [85.356178, 28.216949], [85.356177, 28.217021], [85.356258, 28.217022], [85.356256, 28.217167], [85.356338, 28.217168], [85.356337, 28.21724], [85.356418, 28.217241], [85.356417, 28.217313], [85.356498, 28.217314], [85.356494, 28.217603], [85.356575, 28.217604], [85.356573, 28.217748], [85.356655, 28.217749], [85.356651, 28.217966], [85.356733, 28.217966], [85.35673, 28.218183], [85.356811, 28.218184], [85.356809, 28.218328], [85.35689, 28.218329], [85.356888, 28.218474], [85.35697, 28.218475], [85.356967, 28.218619], [85.357049, 28.21862], [85.357047, 28.218764], [85.357128, 28.218765], [85.357126, 28.21891], [85.357208, 28.218911], [85.357206, 28.218983], [85.357288, 28.218984], [85.357287, 28.219056], [85.357368, 28.219057], [85.357367, 28.219129], [85.357449, 28.21913], [85.357447, 28.219275], [85.357528, 28.219276], [85.357527, 28.219348], [85.357608, 28.219349], [85.357607, 28.219421], [85.357689, 28.219422], [85.357687, 28.219566], [85.357768, 28.219567], [85.357766, 28.219712], [85.357847, 28.219713], [85.357846, 28.219785], [85.358009, 28.219787], [85.358008, 28.219859], [85.35809, 28.21986], [85.358089, 28.219932], [85.35817, 28.219933], [85.358169, 28.220005], [85.35825, 28.220006], [85.358248, 28.220151], [85.35833, 28.220152], [85.358329, 28.220224], [85.35841, 28.220225], [85.358409, 28.220297], [85.358491, 28.220298], [85.358489, 28.22037], [85.358571, 28.220371], [85.358569, 28.220516], [85.35865, 28.220516], [85.358648, 28.220661], [85.358729, 28.220662], [85.358728, 28.220734], [85.35881, 28.220735], [85.358808, 28.220879], [85.358889, 28.22088], [85.358888, 28.220953], [85.35897, 28.220954], [85.358968, 28.221026], [85.35905, 28.221027], [85.359049, 28.221099], [85.35913, 28.2211], [85.359129, 28.221172], [85.359048, 28.221171], [85.359047, 28.221243], [85.359128, 28.221244], [85.359127, 28.221316], [85.359209, 28.221317], [85.359207, 28.22139], [85.359126, 28.221389], [85.359125, 28.221461], [85.358962, 28.221459]]]}, "properties": {"layer": "event peak inundation", "depth_min_m": 0.5, "model": "2D SWE 8 m, V=100 Mm3"}}]}