{"type": "FeatureCollection", "features": [{"type": "Feature", "geometry": {"type": "Polygon", "coordinates": [[[85.457428, 28.337326], [85.45743, 28.337182], [85.457104, 28.337178], [85.457106, 28.337034], [85.456616, 28.337028], [85.456618, 28.336884], [85.456455, 28.336882], [85.456457, 28.336738], [85.456131, 28.336734], [85.456133, 28.33659], [85.454827, 28.336575], [85.454829, 28.33643], [85.453687, 28.336417], [85.453689, 28.336273], [85.452873, 28.336264], [85.452875, 28.336119], [85.452549, 28.336116], [85.452551, 28.335971], [85.452225, 28.335968], [85.452227, 28.335823], [85.451411, 28.335814], [85.451409, 28.335958], [85.451246, 28.335957], [85.451248, 28.335812], [85.449779, 28.335795], [85.449781, 28.335651], [85.449455, 28.335647], [85.449457, 28.335503], [85.449294, 28.335501], [85.449292, 28.335646], [85.449129, 28.335644], [85.449131, 28.335499], [85.447499, 28.335481], [85.447497, 28.335625], [85.447171, 28.335621], [85.447168, 28.335766], [85.447005, 28.335764], [85.447003, 28.335908], [85.44684, 28.335906], [85.446838, 28.336051], [85.446675, 28.336049], [85.446673, 28.336193], [85.445041, 28.336175], [85.445043, 28.33603], [85.44488, 28.336029], [85.444882, 28.335884], [85.443903, 28.335873], [85.443905, 28.335729], [85.440641, 28.335691], [85.440639, 28.335836], [85.440476, 28.335834], [85.440478, 28.335689], [85.440152, 28.335686], [85.44015, 28.33583], [85.439171, 28.335819], [85.439173, 28.335675], [85.43901, 28.335673], [85.439012, 28.335528], [85.438196, 28.335519], [85.438198, 28.335375], [85.437545, 28.335367], [85.437547, 28.335223], [85.437384, 28.335221], [85.437386, 28.335076], [85.43706, 28.335073], [85.437062, 28.334928], [85.436246, 28.334919], [85.436248, 28.334775], [85.435922, 28.334771], [85.435924, 28.334627], [85.435761, 28.334625], [85.435763, 28.33448], [85.4356, 28.334478], [85.435602, 28.334334], [85.435275, 28.33433], [85.435278, 28.334186], [85.434951, 28.334182], [85.434953, 28.334038], [85.43479, 28.334036], [85.434792, 28.333892], [85.434466, 28.333888], [85.434468, 28.333743], [85.434305, 28.333742], [85.434307, 28.333597], [85.434144, 28.333595], [85.434146, 28.333451], [85.433983, 28.333449], [85.433985, 28.333305], [85.433822, 28.333303], [85.433824, 28.333158], [85.433661, 28.333157], [85.433663, 28.333012], [85.4335, 28.33301], [85.433502, 28.332866], [85.433339, 28.332864], [85.433341, 28.33272], [85.433177, 28.332718], [85.433184, 28.332285], [85.433021, 28.332283], [85.433023, 28.332138], [85.432696, 28.332135], [85.432699, 28.33199], [85.432535, 28.331988], [85.432538, 28.331844], [85.431395, 28.331831], [85.431397, 28.331687], [85.431234, 28.331685], [85.431236, 28.33154], [85.431073, 28.331538], [85.431075, 28.331394], [85.430912, 28.331392], [85.430914, 28.331248], [85.430751, 28.331246], [85.430753, 28.331102], [85.430264, 28.331096], [85.430266, 28.330952], [85.430103, 28.33095], [85.430101, 28.331094], [85.429937, 28.331092], [85.42994, 28.330948], [85.427329, 28.330918], [85.427331, 28.330773], [85.427168, 28.330771], [85.42717, 28.330627], [85.427333, 28.330629], [85.427335, 28.330485], [85.427662, 28.330488], [85.427664, 28.330344], [85.4275, 28.330342], [85.427505, 28.330053], [85.427668, 28.330055], [85.42767, 28.329911], [85.427996, 28.329915], [85.427994, 28.330059], [85.428484, 28.330065], [85.428486, 28.32992], [85.428975, 28.329926], [85.428977, 28.329781], [85.429467, 28.329787], [85.429465, 28.329932], [85.429791, 28.329935], [85.429789, 28.33008], [85.430279, 28.330085], [85.430276, 28.33023], [85.431255, 28.330241], [85.431253, 28.330385], [85.43158, 28.330389], [85.431578, 28.330533], [85.431741, 28.330535], [85.431737, 28.330824], [85.4319, 28.330826], [85.431898, 28.33097], [85.432061, 28.330972], [85.432059, 28.331117], [85.432548, 28.331122], [85.432546, 28.331267], [85.433036, 28.331272], [85.433033, 28.331417], [85.433197, 28.331418], [85.433194, 28.331563], [85.433358, 28.331565], [85.433351, 28.331998], [85.433678, 28.332002], [85.433675, 28.332146], [85.433839, 28.332148], [85.433837, 28.332292], [85.434, 28.332294], [85.433995, 28.332583], [85.434159, 28.332585], [85.434152, 28.333018], [85.434315, 28.33302], [85.434313, 28.333164], [85.434477, 28.333166], [85.434474, 28.33331], [85.434638, 28.333312], [85.434635, 28.333457], [85.434962, 28.33346], [85.43496, 28.333605], [85.435286, 28.333608], [85.435284, 28.333753], [85.435447, 28.333755], [85.435449, 28.33361], [85.435612, 28.333612], [85.435615, 28.333468], [85.435778, 28.33347], [85.435776, 28.333614], [85.435939, 28.333616], [85.435932, 28.334049], [85.436259, 28.334053], [85.436257, 28.334197], [85.43642, 28.334199], [85.436418, 28.334343], [85.436744, 28.334347], [85.436742, 28.334491], [85.437231, 28.334497], [85.437229, 28.334641], [85.437556, 28.334645], [85.437558, 28.334501], [85.437721, 28.334503], [85.437719, 28.334647], [85.439351, 28.334666], [85.439349, 28.33481], [85.439838, 28.334816], [85.439836, 28.33496], [85.440162, 28.334964], [85.440164, 28.334819], [85.441143, 28.334831], [85.441146, 28.334686], [85.442125, 28.334697], [85.442123, 28.334842], [85.442449, 28.334846], [85.442447, 28.33499], [85.444894, 28.335018], [85.444897, 28.334873], [85.44506, 28.334875], [85.445058, 28.33502], [85.445384, 28.335023], [85.445382, 28.335168], [85.446198, 28.335177], [85.4462, 28.335033], [85.446363, 28.335035], [85.446365, 28.33489], [85.446691, 28.334894], [85.446694, 28.33475], [85.448815, 28.334774], [85.448817, 28.334629], [85.449796, 28.33464], [85.449794, 28.334785], [85.450936, 28.334798], [85.450934, 28.334942], [85.451424, 28.334948], [85.451422, 28.335092], [85.451585, 28.335094], [85.451587, 28.33495], [85.453382, 28.33497], [85.45338, 28.335114], [85.453706, 28.335118], [85.453704, 28.335262], [85.453867, 28.335264], [85.453863, 28.335553], [85.454026, 28.335555], [85.454022, 28.335844], [85.454348, 28.335847], [85.454346, 28.335992], [85.454836, 28.335997], [85.454838, 28.335853], [85.456143, 28.335868], [85.456145, 28.335723], [85.456309, 28.335725], [85.456306, 28.33587], [85.456959, 28.335877], [85.456957, 28.336021], [85.457447, 28.336027], [85.457445, 28.336171], [85.460219, 28.336203], [85.460221, 28.336058], [85.461037, 28.336067], [85.461039, 28.335923], [85.461202, 28.335925], [85.461204, 28.33578], [85.462183, 28.335791], [85.462185, 28.335647], [85.462511, 28.335651], [85.462513, 28.335506], [85.464472, 28.335528], [85.464474, 28.335384], [85.464963, 28.33539], [85.464965, 28.335245], [85.465128, 28.335247], [85.465131, 28.335103], [85.465294, 28.335105], [85.465296, 28.33496], [85.466112, 28.334969], [85.466114, 28.334825], [85.466603, 28.33483], [85.466605, 28.334686], [85.466932, 28.33469], [85.466934, 28.334545], [85.46775, 28.334555], [85.467752, 28.33441], [85.468241, 28.334416], [85.468243, 28.334271], [85.468896, 28.334279], [85.468898, 28.334134], [85.469061, 28.334136], [85.469063, 28.333992], [85.469227, 28.333993], [85.469229, 28.333849], [85.469881, 28.333856], [85.469883, 28.333712], [85.470047, 28.333714], [85.470049, 28.33357], [85.470212, 28.333571], [85.470214, 28.333427], [85.470377, 28.333429], [85.470375, 28.333573], [85.470538, 28.333575], [85.470536, 28.333719], [85.470699, 28.333721], [85.470701, 28.333577], [85.470865, 28.333579], [85.470867, 28.333434], [85.472662, 28.333454], [85.472664, 28.33331], [85.473806, 28.333323], [85.473808, 28.333178], [85.474297, 28.333184], [85.4743, 28.33304], [85.474463, 28.333041], [85.474465, 28.332897], [85.475444, 28.332908], [85.475446, 28.332764], [85.475772, 28.332767], [85.475774, 28.332623], [85.476101, 28.332626], [85.476099, 28.332771], [85.476588, 28.332776], [85.47659, 28.332632], [85.477406, 28.332641], [85.477408, 28.332497], [85.477898, 28.332502], [85.4779, 28.332358], [85.479205, 28.332372], [85.479203, 28.332517], [85.479366, 28.332518], [85.479368, 28.332374], [85.480674, 28.332389], [85.480676, 28.332244], [85.480839, 28.332246], [85.480837, 28.33239], [85.482632, 28.33241], [85.48263, 28.332555], [85.483119, 28.33256], [85.483121, 28.332416], [85.483937, 28.332425], [85.483939, 28.332281], [85.484102, 28.332282], [85.484104, 28.332138], [85.484594, 28.332143], [85.484596, 28.331999], [85.484759, 28.332001], [85.484761, 28.331857], [85.484924, 28.331858], [85.484927, 28.331714], [85.48509, 28.331716], [85.485092, 28.331571], [85.485255, 28.331573], [85.485257, 28.331429], [85.48542, 28.331431], [85.485422, 28.331286], [85.485585, 28.331288], [85.485589, 28.330999], [85.485753, 28.331001], [85.485755, 28.330857], [85.486081, 28.33086], [85.486083, 28.330716], [85.486246, 28.330718], [85.486248, 28.330573], [85.489675, 28.330611], [85.489677, 28.330467], [85.48984, 28.330469], [85.489838, 28.330613], [85.490328, 28.330619], [85.490326, 28.330763], [85.490652, 28.330767], [85.49065, 28.330911], [85.491629, 28.330922], [85.491627, 28.331066], [85.492116, 28.331072], [85.492114, 28.331216], [85.492278, 28.331218], [85.492276, 28.331362], [85.492439, 28.331364], [85.492441, 28.33122], [85.49293, 28.331225], [85.492928, 28.331369], [85.493907, 28.33138], [85.493905, 28.331525], [85.494558, 28.331532], [85.494556, 28.331676], [85.494719, 28.331678], [85.494717, 28.331822], [85.497165, 28.331849], [85.497163, 28.331994], [85.497489, 28.331997], [85.497487, 28.332142], [85.49814, 28.332149], [85.498138, 28.332293], [85.498301, 28.332295], [85.498299, 28.332439], [85.498136, 28.332438], [85.498134, 28.332582], [85.494707, 28.332544], [85.494709, 28.3324], [85.494546, 28.332398], [85.494548, 28.332254], [85.494711, 28.332255], [85.494713, 28.332111], [85.493571, 28.332098], [85.493569, 28.332243], [85.493079, 28.332237], [85.493081, 28.332093], [85.492265, 28.332084], [85.492267, 28.33194], [85.491451, 28.331931], [85.491454, 28.331786], [85.491127, 28.331783], [85.491129, 28.331638], [85.489824, 28.331624], [85.489826, 28.331479], [85.489663, 28.331478], [85.489665, 28.331333], [85.489012, 28.331326], [85.489014, 28.331182], [85.487545, 28.331165], [85.487543, 28.33131], [85.48738, 28.331308], [85.487378, 28.331452], [85.486889, 28.331447], [85.486887, 28.331591], [85.486397, 28.331586], [85.486395, 28.33173], [85.486232, 28.331728], [85.48623, 28.331873], [85.486067, 28.331871], [85.486065, 28.332015], [85.485901, 28.332014], [85.485897, 28.332302], [85.485734, 28.332301], [85.485732, 28.332445], [85.485406, 28.332441], [85.485404, 28.332586], [85.485241, 28.332584], [85.485239, 28.332728], [85.485075, 28.332726], [85.485073, 28.332871], [85.48491, 28.332869], [85.484908, 28.333013], [85.484582, 28.33301], [85.48458, 28.333154], [85.484417, 28.333152], [85.484414, 28.333297], [85.483925, 28.333291], [85.483923, 28.333436], [85.481475, 28.333408], [85.481477, 28.333264], [85.480172, 28.333249], [85.48017, 28.333394], [85.479354, 28.333385], [85.479352, 28.333529], [85.479189, 28.333527], [85.479191, 28.333383], [85.478864, 28.333379], [85.478866, 28.333235], [85.477724, 28.333222], [85.477722, 28.333367], [85.477396, 28.333363], [85.477398, 28.333219], [85.475929, 28.333202], [85.475927, 28.333347], [85.475438, 28.333341], [85.475436, 28.333485], [85.474946, 28.33348], [85.474944, 28.333624], [85.474128, 28.333615], [85.474126, 28.33376], [85.473963, 28.333758], [85.473961, 28.333902], [85.473308, 28.333895], [85.473306, 28.334039], [85.47298, 28.334036], [85.472978, 28.33418], [85.472325, 28.334173], [85.472323, 28.334317], [85.471507, 28.334308], [85.471509, 28.334163], [85.47053, 28.334153], [85.470528, 28.334297], [85.470365, 28.334295], [85.470363, 28.334439], [85.469873, 28.334434], [85.469871, 28.334578], [85.469545, 28.334575], [85.469543, 28.334719], [85.469379, 28.334717], [85.469377, 28.334862], [85.469214, 28.33486], [85.46921, 28.335149], [85.469047, 28.335147], [85.469045, 28.335291], [85.468882, 28.335289], [85.46888, 28.335434], [85.468716, 28.335432], [85.468714, 28.335576], [85.468062, 28.335569], [85.46806, 28.335713], [85.467244, 28.335704], [85.467246, 28.33556], [85.466919, 28.335556], [85.466917, 28.3357], [85.466428, 28.335695], [85.466426, 28.335839], [85.466262, 28.335837], [85.46626, 28.335982], [85.465771, 28.335976], [85.465769, 28.336121], [85.465442, 28.336117], [85.46544, 28.336261], [85.465114, 28.336258], [85.465112, 28.336402], [85.464296, 28.336393], [85.464298, 28.336249], [85.463156, 28.336236], [85.463154, 28.33638], [85.462991, 28.336378], [85.462988, 28.336523], [85.462499, 28.336517], [85.462497, 28.336661], [85.461681, 28.336652], [85.461679, 28.336797], [85.461516, 28.336795], [85.461514, 28.336939], [85.46135, 28.336937], [85.461348, 28.337082], [85.459227, 28.337058], [85.459229, 28.336913], [85.45825, 28.336902], [85.458248, 28.337047], [85.458085, 28.337045], [85.458083, 28.337189], [85.457919, 28.337187], [85.457917, 28.337332], [85.457754, 28.33733], [85.457756, 28.337186], [85.457593, 28.337184], [85.457591, 28.337328], [85.457428, 28.337326]]]}, "properties": {"layer": "breach scenario inundation", "volume_Mm3": 5, "depth_min_m": 0.25}}, {"type": "Feature", "geometry": {"type": "Polygon", "coordinates": [[[85.51885, 28.321545], [85.518852, 28.321401], [85.518689, 28.321399], [85.518717, 28.319378], [85.51888, 28.319379], [85.518884, 28.319091], [85.518721, 28.319089], [85.518723, 28.318944], [85.51856, 28.318943], [85.51857, 28.318221], [85.518407, 28.318219], [85.518409, 28.318075], [85.518246, 28.318073], [85.518264, 28.316773], [85.518427, 28.316775], [85.518429, 28.316631], [85.518755, 28.316634], [85.518757, 28.31649], [85.51892, 28.316492], [85.518922, 28.316347], [85.519085, 28.316349], [85.519083, 28.316493], [85.519247, 28.316495], [85.519243, 28.316784], [85.519406, 28.316786], [85.519404, 28.31693], [85.519567, 28.316932], [85.519565, 28.317076], [85.519728, 28.317078], [85.519726, 28.317222], [85.519889, 28.317224], [85.519887, 28.317369], [85.519724, 28.317367], [85.519722, 28.317511], [85.519559, 28.317509], [85.519555, 28.317798], [85.519718, 28.3178], [85.51972, 28.317656], [85.519883, 28.317657], [85.519885, 28.317513], [85.520212, 28.317517], [85.520214, 28.317372], [85.520703, 28.317377], [85.520705, 28.317233], [85.520542, 28.317231], [85.520544, 28.317087], [85.520707, 28.317089], [85.520709, 28.316944], [85.520872, 28.316946], [85.520874, 28.316802], [85.521037, 28.316803], [85.521035, 28.316948], [85.521362, 28.316951], [85.52136, 28.317096], [85.521523, 28.317098], [85.521517, 28.317531], [85.52168, 28.317532], [85.521676, 28.317821], [85.521839, 28.317823], [85.521835, 28.318112], [85.521672, 28.31811], [85.52167, 28.318254], [85.521833, 28.318256], [85.521829, 28.318545], [85.521666, 28.318543], [85.521664, 28.318688], [85.521501, 28.318686], [85.521497, 28.318975], [85.521334, 28.318973], [85.521332, 28.319117], [85.521168, 28.319115], [85.521166, 28.31926], [85.52084, 28.319256], [85.520838, 28.319401], [85.520675, 28.319399], [85.520673, 28.319543], [85.52051, 28.319541], [85.520508, 28.319686], [85.520182, 28.319682], [85.520178, 28.319971], [85.520014, 28.319969], [85.520008, 28.320402], [85.519845, 28.320401], [85.519843, 28.320545], [85.51968, 28.320543], [85.519678, 28.320688], [85.519352, 28.320684], [85.519348, 28.320973], [85.519185, 28.320971], [85.519179, 28.321404], [85.519015, 28.321402], [85.519013, 28.321547], [85.51885, 28.321545]]]}, "properties": {"layer": "breach scenario inundation", "volume_Mm3": 5, "depth_min_m": 0.25}}, {"type": "Feature", "geometry": {"type": "Polygon", "coordinates": [[[85.504314, 28.334094], [85.504316, 28.33395], [85.503011, 28.333935], [85.503013, 28.333791], [85.502197, 28.333782], [85.502199, 28.333638], [85.500893, 28.333623], [85.500895, 28.333479], [85.500569, 28.333475], [85.500571, 28.333331], [85.499755, 28.333322], [85.499757, 28.333177], [85.499594, 28.333176], [85.499596, 28.333031], [85.498943, 28.333024], [85.498945, 28.33288], [85.498782, 28.332878], [85.498784, 28.332734], [85.498621, 28.332732], [85.498623, 28.332587], [85.49846, 28.332586], [85.498462, 28.332441], [85.498625, 28.332443], [85.498627, 28.332299], [85.500096, 28.332315], [85.500094, 28.332459], [85.500583, 28.332465], [85.500581, 28.332609], [85.50156, 28.33262], [85.501558, 28.332764], [85.502048, 28.332769], [85.502046, 28.332914], [85.504004, 28.332935], [85.504006, 28.332791], [85.505148, 28.332803], [85.505146, 28.332948], [85.505636, 28.332953], [85.505638, 28.332809], [85.50629, 28.332816], [85.506292, 28.332672], [85.506456, 28.332673], [85.506458, 28.332529], [85.506621, 28.332531], [85.506623, 28.332386], [85.506949, 28.33239], [85.506951, 28.332246], [85.507441, 28.332251], [85.507443, 28.332107], [85.508096, 28.332114], [85.508098, 28.331969], [85.508261, 28.331971], [85.508263, 28.331827], [85.508426, 28.331829], [85.508428, 28.331684], [85.508917, 28.331689], [85.508919, 28.331545], [85.509409, 28.33155], [85.509411, 28.331406], [85.510227, 28.331415], [85.510229, 28.331271], [85.510392, 28.331272], [85.510394, 28.331128], [85.51072, 28.331132], [85.510722, 28.330987], [85.510886, 28.330989], [85.510884, 28.331133], [85.511373, 28.331139], [85.511375, 28.330994], [85.511538, 28.330996], [85.511536, 28.33114], [85.511699, 28.331142], [85.511702, 28.330998], [85.512681, 28.331009], [85.512683, 28.330864], [85.512846, 28.330866], [85.512852, 28.330433], [85.513015, 28.330435], [85.513017, 28.33029], [85.513343, 28.330294], [85.513345, 28.330149], [85.513672, 28.330153], [85.513674, 28.330009], [85.514326, 28.330016], [85.514328, 28.329871], [85.514492, 28.329873], [85.514494, 28.329729], [85.514657, 28.32973], [85.514659, 28.329586], [85.515148, 28.329591], [85.51515, 28.329447], [85.515313, 28.329449], [85.515315, 28.329304], [85.515479, 28.329306], [85.515481, 28.329162], [85.515644, 28.329164], [85.515646, 28.329019], [85.515809, 28.329021], [85.515813, 28.328732], [85.515976, 28.328734], [85.515978, 28.32859], [85.516141, 28.328591], [85.516143, 28.328447], [85.516307, 28.328449], [85.516311, 28.32816], [85.516474, 28.328162], [85.516476, 28.328017], [85.516639, 28.328019], [85.516641, 28.327875], [85.51713, 28.32788], [85.517132, 28.327736], [85.517296, 28.327738], [85.517294, 28.327882], [85.517457, 28.327884], [85.517459, 28.327739], [85.517785, 28.327743], [85.517789, 28.327454], [85.517952, 28.327456], [85.517954, 28.327311], [85.518444, 28.327317], [85.518446, 28.327172], [85.518609, 28.327174], [85.518611, 28.32703], [85.518774, 28.327032], [85.518778, 28.326743], [85.518941, 28.326745], [85.518945, 28.326456], [85.519109, 28.326458], [85.519111, 28.326313], [85.519274, 28.326315], [85.519278, 28.326026], [85.519441, 28.326028], [85.519449, 28.32545], [85.519286, 28.325449], [85.519292, 28.325016], [85.519129, 28.325014], [85.519135, 28.324581], [85.518971, 28.324579], [85.518977, 28.324146], [85.518814, 28.324144], [85.51883, 28.322989], [85.518667, 28.322987], [85.518679, 28.322121], [85.518842, 28.322123], [85.518844, 28.321978], [85.519007, 28.32198], [85.519005, 28.322124], [85.519169, 28.322126], [85.519165, 28.322415], [85.519328, 28.322417], [85.51932, 28.322994], [85.519483, 28.322996], [85.519479, 28.323285], [85.519642, 28.323286], [85.51964, 28.323431], [85.519966, 28.323434], [85.519964, 28.323579], [85.520128, 28.323581], [85.520124, 28.323869], [85.520287, 28.323871], [85.520257, 28.326037], [85.52042, 28.326039], [85.520416, 28.326327], [85.520253, 28.326326], [85.520247, 28.326759], [85.520084, 28.326757], [85.52008, 28.327046], [85.519916, 28.327044], [85.51991, 28.327477], [85.519747, 28.327475], [85.519745, 28.32762], [85.519582, 28.327618], [85.519584, 28.327474], [85.519258, 28.32747], [85.519256, 28.327614], [85.519092, 28.327613], [85.51909, 28.327757], [85.518438, 28.32775], [85.518436, 28.327894], [85.518273, 28.327893], [85.518271, 28.328037], [85.518107, 28.328035], [85.518105, 28.32818], [85.517942, 28.328178], [85.517936, 28.328611], [85.517773, 28.328609], [85.517771, 28.328754], [85.517608, 28.328752], [85.51761, 28.328607], [85.517284, 28.328604], [85.517282, 28.328748], [85.517118, 28.328746], [85.517116, 28.328891], [85.516953, 28.328889], [85.516949, 28.329178], [85.516786, 28.329176], [85.51678, 28.329609], [85.516617, 28.329607], [85.516613, 28.329896], [85.516939, 28.3299], [85.516937, 28.330044], [85.5171, 28.330046], [85.517102, 28.329901], [85.517755, 28.329909], [85.517757, 28.329764], [85.51792, 28.329766], [85.517922, 28.329622], [85.518249, 28.329625], [85.518251, 28.329481], [85.518577, 28.329484], [85.518581, 28.329196], [85.518744, 28.329197], [85.518746, 28.329053], [85.518909, 28.329055], [85.518913, 28.328766], [85.519076, 28.328768], [85.519078, 28.328623], [85.519242, 28.328625], [85.519244, 28.328481], [85.519407, 28.328482], [85.519409, 28.328338], [85.519735, 28.328342], [85.519737, 28.328197], [85.5199, 28.328199], [85.519902, 28.328055], [85.520066, 28.328056], [85.520072, 28.327623], [85.520235, 28.327625], [85.520237, 28.327481], [85.520726, 28.327486], [85.52073, 28.327197], [85.520893, 28.327199], [85.520897, 28.32691], [85.521061, 28.326912], [85.521067, 28.326479], [85.52123, 28.326481], [85.521236, 28.326047], [85.521399, 28.326049], [85.521419, 28.324605], [85.521582, 28.324607], [85.521586, 28.324318], [85.521749, 28.32432], [85.521751, 28.324176], [85.521914, 28.324178], [85.52192, 28.323744], [85.522084, 28.323746], [85.522086, 28.323602], [85.522249, 28.323604], [85.522253, 28.323315], [85.522416, 28.323317], [85.522418, 28.323172], [85.522581, 28.323174], [85.522583, 28.32303], [85.522746, 28.323031], [85.522748, 28.322887], [85.522911, 28.322889], [85.522917, 28.322456], [85.52308, 28.322457], [85.523082, 28.322313], [85.523246, 28.322315], [85.52325, 28.322026], [85.523413, 28.322028], [85.523415, 28.321883], [85.523578, 28.321885], [85.52358, 28.321741], [85.523743, 28.321742], [85.523745, 28.321598], [85.523908, 28.3216], [85.52391, 28.321455], [85.523747, 28.321454], [85.523749, 28.321309], [85.523586, 28.321308], [85.52359, 28.321019], [85.523427, 28.321017], [85.523429, 28.320873], [85.523266, 28.320871], [85.523268, 28.320727], [85.523104, 28.320725], [85.523106, 28.32058], [85.522943, 28.320579], [85.522947, 28.32029], [85.522784, 28.320288], [85.522788, 28.319999], [85.522625, 28.319998], [85.522629, 28.319709], [85.522466, 28.319707], [85.522468, 28.319563], [85.522305, 28.319561], [85.522309, 28.319272], [85.522145, 28.31927], [85.522147, 28.319126], [85.521984, 28.319124], [85.521988, 28.318835], [85.522151, 28.318837], [85.522157, 28.318404], [85.522321, 28.318406], [85.522323, 28.318261], [85.522649, 28.318265], [85.522647, 28.318409], [85.522973, 28.318413], [85.522977, 28.318124], [85.522814, 28.318122], [85.522816, 28.317978], [85.522327, 28.317973], [85.522329, 28.317828], [85.522165, 28.317827], [85.522167, 28.317682], [85.522004, 28.31768], [85.522006, 28.317536], [85.521843, 28.317534], [85.521845, 28.31739], [85.521682, 28.317388], [85.521684, 28.317244], [85.521847, 28.317245], [85.521849, 28.317101], [85.522828, 28.317112], [85.52283, 28.316967], [85.522993, 28.316969], [85.522995, 28.316825], [85.522669, 28.316821], [85.522667, 28.316966], [85.521362, 28.316951], [85.521364, 28.316807], [85.5212, 28.316805], [85.521202, 28.316661], [85.521366, 28.316663], [85.521368, 28.316518], [85.522836, 28.316534], [85.522838, 28.31639], [85.523001, 28.316392], [85.522999, 28.316536], [85.523325, 28.316539], [85.523323, 28.316684], [85.523487, 28.316686], [85.523483, 28.316974], [85.523809, 28.316978], [85.523811, 28.316834], [85.523974, 28.316835], [85.523976, 28.316691], [85.52626, 28.316716], [85.526258, 28.31686], [85.526421, 28.316862], [85.526419, 28.317006], [85.526583, 28.317008], [85.526581, 28.317152], [85.526907, 28.317156], [85.526905, 28.3173], [85.527068, 28.317302], [85.527064, 28.317591], [85.527227, 28.317592], [85.527225, 28.317737], [85.527388, 28.317739], [85.527361, 28.31976], [85.527197, 28.319758], [85.527189, 28.320336], [85.527026, 28.320334], [85.527024, 28.320478], [85.526698, 28.320475], [85.526694, 28.320764], [85.526531, 28.320762], [85.526529, 28.320906], [85.526366, 28.320904], [85.526358, 28.321482], [85.526195, 28.32148], [85.526191, 28.321769], [85.526027, 28.321767], [85.526025, 28.321912], [85.526189, 28.321913], [85.526187, 28.322058], [85.526023, 28.322056], [85.526021, 28.3222], [85.525695, 28.322197], [85.525693, 28.322341], [85.52553, 28.322339], [85.525528, 28.322484], [85.525365, 28.322482], [85.525363, 28.322626], [85.5252, 28.322625], [85.525202, 28.32248], [85.525038, 28.322479], [85.52504, 28.322334], [85.524714, 28.322331], [85.524712, 28.322475], [85.524549, 28.322473], [85.524547, 28.322618], [85.524384, 28.322616], [85.524382, 28.32276], [85.524219, 28.322758], [85.524217, 28.322903], [85.524053, 28.322901], [85.524047, 28.323334], [85.523884, 28.323332], [85.523882, 28.323477], [85.523393, 28.323472], [85.523385, 28.324049], [85.523222, 28.324047], [85.52322, 28.324192], [85.522893, 28.324188], [85.522887, 28.324621], [85.522724, 28.32462], [85.522722, 28.324764], [85.522559, 28.324762], [85.522553, 28.325195], [85.52239, 28.325194], [85.522384, 28.325627], [85.522221, 28.325625], [85.522213, 28.326202], [85.52205, 28.326201], [85.522034, 28.327356], [85.52187, 28.327354], [85.521866, 28.327643], [85.521703, 28.327641], [85.521699, 28.32793], [85.521536, 28.327928], [85.521534, 28.328072], [85.521371, 28.328071], [85.521369, 28.328215], [85.521206, 28.328213], [85.521204, 28.328358], [85.521041, 28.328356], [85.521039, 28.3285], [85.520712, 28.328497], [85.52071, 28.328641], [85.520547, 28.328639], [85.520545, 28.328784], [85.520382, 28.328782], [85.52038, 28.328926], [85.520217, 28.328924], [85.520215, 28.329069], [85.520052, 28.329067], [85.520046, 28.3295], [85.520209, 28.329502], [85.520207, 28.329646], [85.520044, 28.329645], [85.520042, 28.329789], [85.519878, 28.329787], [85.519876, 28.329932], [85.519713, 28.32993], [85.519711, 28.330074], [85.519548, 28.330072], [85.519546, 28.330217], [85.51922, 28.330213], [85.519218, 28.330358], [85.518891, 28.330354], [85.518889, 28.330498], [85.518563, 28.330495], [85.518561, 28.330639], [85.518235, 28.330636], [85.518233, 28.33078], [85.517906, 28.330777], [85.517904, 28.330921], [85.517578, 28.330917], [85.517576, 28.331062], [85.515944, 28.331044], [85.515942, 28.331188], [85.515453, 28.331183], [85.515451, 28.331328], [85.514961, 28.331322], [85.514959, 28.331467], [85.514469, 28.331461], [85.514467, 28.331606], [85.513488, 28.331595], [85.513486, 28.331739], [85.51316, 28.331736], [85.513158, 28.33188], [85.511689, 28.331864], [85.511687, 28.332009], [85.511198, 28.332003], [85.511196, 28.332148], [85.510706, 28.332142], [85.510704, 28.332287], [85.510378, 28.332283], [85.510376, 28.332427], [85.51005, 28.332424], [85.510048, 28.332568], [85.509884, 28.332566], [85.509882, 28.332711], [85.509393, 28.332705], [85.509391, 28.33285], [85.509228, 28.332848], [85.509226, 28.332992], [85.508899, 28.332989], [85.508897, 28.333133], [85.508571, 28.33313], [85.508569, 28.333274], [85.508406, 28.333272], [85.508404, 28.333417], [85.508241, 28.333415], [85.508239, 28.333559], [85.507749, 28.333554], [85.507747, 28.333698], [85.506768, 28.333688], [85.506766, 28.333832], [85.506603, 28.33383], [85.506601, 28.333975], [85.504479, 28.333951], [85.504477, 28.334096], [85.504314, 28.334094]]]}, "properties": {"layer": "breach scenario inundation", "volume_Mm3": 5, "depth_min_m": 0.25}}, {"type": "Feature", "geometry": {"type": "Polygon", "coordinates": [[[85.424888, 28.330456], [85.42489, 28.330312], [85.422769, 28.330287], [85.422771, 28.330143], [85.422281, 28.330137], [85.422283, 28.329993], [85.421141, 28.32998], [85.421143, 28.329835], [85.42098, 28.329834], [85.420984, 28.329545], [85.420658, 28.329541], [85.42066, 28.329397], [85.420497, 28.329395], [85.420499, 28.32925], [85.420662, 28.329252], [85.420667, 28.328964], [85.419851, 28.328954], [85.419853, 28.32881], [85.419527, 28.328806], [85.419529, 28.328662], [85.419202, 28.328658], [85.419205, 28.328513], [85.418552, 28.328506], [85.418554, 28.328361], [85.418391, 28.32836], [85.418393, 28.328215], [85.418067, 28.328211], [85.418069, 28.328067], [85.417906, 28.328065], [85.417908, 28.327921], [85.417745, 28.327919], [85.417749, 28.32763], [85.417096, 28.327623], [85.417094, 28.327767], [85.416115, 28.327756], [85.416117, 28.327611], [85.415954, 28.327609], [85.415956, 28.327465], [85.41514, 28.327455], [85.415143, 28.327311], [85.414979, 28.327309], [85.414982, 28.327165], [85.414818, 28.327163], [85.414821, 28.327019], [85.414657, 28.327017], [85.414662, 28.326728], [85.414498, 28.326726], [85.414501, 28.326582], [85.414337, 28.32658], [85.41434, 28.326435], [85.414176, 28.326433], [85.414179, 28.326289], [85.414015, 28.326287], [85.414018, 28.326143], [85.413854, 28.326141], [85.413859, 28.325852], [85.413696, 28.32585], [85.413698, 28.325706], [85.413535, 28.325704], [85.413537, 28.32556], [85.413374, 28.325558], [85.413376, 28.325413], [85.413212, 28.325411], [85.413215, 28.325267], [85.413051, 28.325265], [85.413066, 28.324255], [85.412903, 28.324253], [85.41291, 28.32382], [85.412747, 28.323818], [85.412749, 28.323673], [85.412586, 28.323671], [85.412588, 28.323527], [85.412425, 28.323525], [85.412431, 28.323092], [85.412268, 28.32309], [85.41227, 28.322946], [85.412107, 28.322944], [85.412109, 28.322799], [85.411946, 28.322798], [85.411952, 28.322364], [85.411789, 28.322363], [85.411791, 28.322218], [85.411954, 28.32222], [85.411959, 28.321931], [85.411796, 28.321929], [85.411813, 28.320774], [85.411976, 28.320776], [85.411987, 28.320054], [85.41215, 28.320056], [85.412152, 28.319912], [85.411989, 28.31991], [85.411991, 28.319766], [85.412154, 28.319768], [85.412191, 28.317313], [85.412354, 28.317315], [85.412356, 28.317171], [85.412519, 28.317173], [85.412528, 28.316595], [85.412364, 28.316593], [85.412367, 28.316449], [85.412203, 28.316447], [85.41221, 28.316014], [85.412047, 28.316012], [85.412051, 28.315723], [85.411888, 28.315721], [85.411894, 28.315288], [85.411731, 28.315286], [85.411733, 28.315142], [85.41157, 28.31514], [85.411589, 28.313841], [85.411753, 28.313843], [85.411755, 28.313698], [85.411918, 28.3137], [85.411926, 28.313123], [85.41209, 28.313124], [85.412092, 28.31298], [85.412255, 28.312982], [85.412257, 28.312838], [85.412094, 28.312836], [85.412096, 28.312691], [85.411933, 28.312689], [85.411946, 28.311823], [85.411783, 28.311821], [85.411787, 28.311533], [85.411624, 28.311531], [85.411626, 28.311386], [85.411463, 28.311384], [85.411465, 28.31124], [85.411302, 28.311238], [85.411304, 28.311094], [85.411141, 28.311092], [85.411156, 28.310081], [85.411319, 28.310083], [85.411336, 28.308928], [85.411173, 28.308926], [85.411175, 28.308782], [85.411012, 28.30878], [85.411014, 28.308636], [85.410851, 28.308634], [85.410853, 28.308489], [85.41069, 28.308487], [85.410692, 28.308343], [85.410203, 28.308337], [85.410205, 28.308193], [85.410042, 28.308191], [85.410044, 28.308047], [85.409881, 28.308045], [85.409883, 28.3079], [85.409557, 28.307897], [85.409559, 28.307752], [85.409396, 28.30775], [85.409398, 28.307606], [85.409235, 28.307604], [85.409237, 28.30746], [85.409074, 28.307458], [85.409078, 28.307169], [85.408915, 28.307167], [85.408919, 28.306878], [85.408756, 28.306876], [85.408758, 28.306732], [85.408595, 28.30673], [85.408597, 28.306586], [85.408434, 28.306584], [85.408438, 28.306295], [85.408275, 28.306293], [85.408277, 28.306149], [85.408114, 28.306147], [85.408116, 28.306003], [85.407953, 28.306001], [85.407955, 28.305856], [85.407792, 28.305854], [85.407794, 28.30571], [85.407305, 28.305704], [85.407307, 28.30556], [85.407144, 28.305558], [85.407146, 28.305414], [85.406983, 28.305412], [85.406985, 28.305267], [85.406822, 28.305265], [85.406824, 28.305121], [85.406661, 28.305119], [85.406668, 28.304686], [85.406504, 28.304684], [85.406507, 28.30454], [85.406344, 28.304538], [85.40635, 28.304105], [85.406187, 28.304103], [85.406189, 28.303959], [85.406026, 28.303957], [85.406028, 28.303812], [85.405865, 28.30381], [85.405863, 28.303955], [85.405373, 28.303949], [85.405376, 28.303805], [85.405212, 28.303803], [85.405215, 28.303658], [85.405051, 28.303656], [85.405054, 28.303512], [85.40489, 28.30351], [85.404893, 28.303366], [85.404729, 28.303364], [85.404732, 28.303219], [85.404569, 28.303218], [85.404571, 28.303073], [85.404244, 28.303069], [85.404247, 28.302925], [85.404083, 28.302923], [85.40409, 28.30249], [85.403927, 28.302488], [85.403931, 28.302199], [85.403768, 28.302197], [85.403772, 28.301909], [85.403609, 28.301907], [85.403611, 28.301762], [85.402959, 28.301755], [85.402961, 28.30161], [85.402635, 28.301607], [85.402633, 28.301751], [85.402306, 28.301747], [85.402308, 28.301603], [85.402145, 28.301601], [85.402148, 28.301456], [85.402311, 28.301458], [85.402313, 28.301314], [85.401987, 28.30131], [85.401989, 28.301166], [85.401826, 28.301164], [85.401828, 28.30102], [85.401991, 28.301021], [85.401993, 28.300877], [85.402319, 28.300881], [85.402317, 28.301025], [85.40248, 28.301027], [85.402478, 28.301172], [85.403457, 28.301183], [85.403455, 28.301327], [85.404107, 28.301335], [85.404105, 28.301479], [85.404268, 28.301481], [85.404266, 28.301626], [85.404429, 28.301628], [85.404425, 28.301916], [85.404262, 28.301914], [85.404257, 28.302203], [85.404747, 28.302209], [85.404745, 28.302353], [85.404908, 28.302355], [85.404903, 28.302644], [85.405066, 28.302646], [85.405064, 28.30279], [85.405227, 28.302792], [85.40523, 28.302648], [85.405393, 28.30265], [85.405391, 28.302794], [85.405717, 28.302798], [85.405715, 28.302942], [85.405878, 28.302944], [85.405876, 28.303088], [85.406039, 28.30309], [85.406037, 28.303235], [85.4062, 28.303237], [85.406198, 28.303381], [85.406361, 28.303383], [85.406359, 28.303527], [85.406522, 28.303529], [85.40652, 28.303674], [85.406683, 28.303675], [85.406678, 28.303964], [85.406842, 28.303966], [85.406837, 28.304255], [85.407, 28.304257], [85.406998, 28.304401], [85.407161, 28.304403], [85.407159, 28.304547], [85.407485, 28.304551], [85.407483, 28.304696], [85.407973, 28.304701], [85.40797, 28.304846], [85.408297, 28.304849], [85.408295, 28.304994], [85.408458, 28.304996], [85.408456, 28.30514], [85.408619, 28.305142], [85.408617, 28.305286], [85.40878, 28.305288], [85.408778, 28.305433], [85.408941, 28.305435], [85.408934, 28.305868], [85.409097, 28.30587], [85.409095, 28.306014], [85.409421, 28.306018], [85.409419, 28.306162], [85.409582, 28.306164], [85.40958, 28.306308], [85.409743, 28.30631], [85.409741, 28.306455], [85.409904, 28.306457], [85.409898, 28.30689], [85.410061, 28.306892], [85.410059, 28.307036], [85.410385, 28.30704], [85.410383, 28.307184], [85.410546, 28.307186], [85.410544, 28.30733], [85.41087, 28.307334], [85.410868, 28.307479], [85.411031, 28.307481], [85.411029, 28.307625], [85.411192, 28.307627], [85.41119, 28.307771], [85.411516, 28.307775], [85.411514, 28.307919], [85.411677, 28.307921], [85.411675, 28.308066], [85.412002, 28.308069], [85.411999, 28.308214], [85.412163, 28.308216], [85.41216, 28.30836], [85.412323, 28.308362], [85.412313, 28.309084], [85.41215, 28.309082], [85.412147, 28.309226], [85.412311, 28.309228], [85.412308, 28.309373], [85.412472, 28.309375], [85.412465, 28.309808], [85.412628, 28.30981], [85.412624, 28.310098], [85.412461, 28.310096], [85.412459, 28.310241], [85.412296, 28.310239], [85.412289, 28.310672], [85.412452, 28.310674], [85.412454, 28.310529], [85.412618, 28.310531], [85.412615, 28.310676], [85.412779, 28.310678], [85.412768, 28.3114], [85.412931, 28.311401], [85.412927, 28.31169], [85.41309, 28.311692], [85.413083, 28.312125], [85.413247, 28.312127], [85.413244, 28.312271], [85.413734, 28.312277], [85.413732, 28.312422], [85.413895, 28.312423], [85.413891, 28.312712], [85.414054, 28.312714], [85.414049, 28.313003], [85.413886, 28.313001], [85.413884, 28.313145], [85.414047, 28.313147], [85.414028, 28.314447], [85.413865, 28.314445], [85.413863, 28.314589], [85.4137, 28.314587], [85.413693, 28.31502], [85.413856, 28.315022], [85.413854, 28.315167], [85.414017, 28.315168], [85.414009, 28.315746], [85.413846, 28.315744], [85.413843, 28.315888], [85.414007, 28.31589], [85.414004, 28.316035], [85.413841, 28.316033], [85.413839, 28.316177], [85.414002, 28.316179], [85.414, 28.316323], [85.414163, 28.316325], [85.414161, 28.31647], [85.413998, 28.316468], [85.413996, 28.316612], [85.413833, 28.31661], [85.413835, 28.316466], [85.413672, 28.316464], [85.413655, 28.317619], [85.413818, 28.317621], [85.413809, 28.318198], [85.413972, 28.3182], [85.41397, 28.318345], [85.414133, 28.318347], [85.414127, 28.31878], [85.413964, 28.318778], [85.413962, 28.318922], [85.413798, 28.31892], [85.413796, 28.319065], [85.413633, 28.319063], [85.413635, 28.318918], [85.413472, 28.318917], [85.413476, 28.318628], [85.41364, 28.31863], [85.413642, 28.318485], [85.413315, 28.318481], [85.413294, 28.319925], [85.413457, 28.319927], [85.413453, 28.320216], [85.41329, 28.320214], [85.413283, 28.320647], [85.41312, 28.320645], [85.413118, 28.32079], [85.412955, 28.320788], [85.412951, 28.321076], [85.412787, 28.321075], [85.412783, 28.321363], [85.412946, 28.321365], [85.412942, 28.321654], [85.413105, 28.321656], [85.413103, 28.3218], [85.413266, 28.321802], [85.413255, 28.322524], [85.413092, 28.322522], [85.41309, 28.322666], [85.413253, 28.322668], [85.413249, 28.322957], [85.413086, 28.322955], [85.413077, 28.323533], [85.41324, 28.323535], [85.413238, 28.323679], [85.413401, 28.323681], [85.413397, 28.32397], [85.41356, 28.323972], [85.413547, 28.324838], [85.413711, 28.32484], [85.413713, 28.324695], [85.414039, 28.324699], [85.414037, 28.324843], [85.4142, 28.324845], [85.414198, 28.32499], [85.414361, 28.324992], [85.414357, 28.32528], [85.41452, 28.325282], [85.414518, 28.325427], [85.414681, 28.325429], [85.414679, 28.325573], [85.414842, 28.325575], [85.41484, 28.325719], [85.415003, 28.325721], [85.415001, 28.325865], [85.415164, 28.325867], [85.415162, 28.326012], [85.415325, 28.326014], [85.415323, 28.326158], [85.415486, 28.32616], [85.415484, 28.326304], [85.415647, 28.326306], [85.415645, 28.326451], [85.415808, 28.326452], [85.415806, 28.326597], [85.416132, 28.326601], [85.41613, 28.326745], [85.41662, 28.326751], [85.416622, 28.326606], [85.41809, 28.326623], [85.418088, 28.326768], [85.418251, 28.32677], [85.418249, 28.326914], [85.418412, 28.326916], [85.41841, 28.32706], [85.418736, 28.327064], [85.418734, 28.327208], [85.419224, 28.327214], [85.419222, 28.327358], [85.419385, 28.32736], [85.419383, 28.327505], [85.419709, 28.327508], [85.419707, 28.327653], [85.41987, 28.327655], [85.419868, 28.327799], [85.420194, 28.327803], [85.420192, 28.327947], [85.420355, 28.327949], [85.420353, 28.328094], [85.420516, 28.328095], [85.420512, 28.328384], [85.420675, 28.328386], [85.420673, 28.32853], [85.420836, 28.328532], [85.420834, 28.328677], [85.420997, 28.328679], [85.420995, 28.328823], [85.421321, 28.328827], [85.421319, 28.328971], [85.421646, 28.328975], [85.421643, 28.329119], [85.421807, 28.329121], [85.421805, 28.329265], [85.422131, 28.329269], [85.422129, 28.329414], [85.422781, 28.329421], [85.422779, 28.329566], [85.423921, 28.329579], [85.423919, 28.329723], [85.424082, 28.329725], [85.42408, 28.329869], [85.424733, 28.329877], [85.424731, 28.330021], [85.425384, 28.330029], [85.425381, 28.330173], [85.425545, 28.330175], [85.425542, 28.330319], [85.425379, 28.330318], [85.425377, 28.330462], [85.424888, 28.330456]], [[85.413197, 28.315448], [85.41336, 28.31545], [85.413369, 28.314872], [85.413206, 28.31487], [85.413212, 28.314437], [85.413375, 28.314439], [85.413378, 28.314295], [85.413214, 28.314293], [85.413227, 28.313426], [85.413064, 28.313425], [85.413053, 28.314146], [85.41289, 28.314145], [85.412888, 28.314289], [85.412725, 28.314287], [85.412719, 28.31472], [85.412882, 28.314722], [85.41288, 28.314866], [85.413043, 28.314868], [85.413036, 28.315301], [85.413199, 28.315303], [85.413197, 28.315448]]]}, "properties": {"layer": "breach scenario inundation", "volume_Mm3": 5, "depth_min_m": 0.25}}, {"type": "Feature", "geometry": {"type": "Polygon", "coordinates": [[[85.401499, 28.30116], [85.401502, 28.301016], [85.401338, 28.301014], [85.401341, 28.300869], [85.401177, 28.300868], [85.40118, 28.300723], [85.401016, 28.300721], [85.401019, 28.300577], [85.400692, 28.300573], [85.400695, 28.300429], [85.400531, 28.300427], [85.400534, 28.300282], [85.40037, 28.30028], [85.400373, 28.300136], [85.400209, 28.300134], [85.400212, 28.29999], [85.400049, 28.299988], [85.400051, 28.299844], [85.399888, 28.299842], [85.39989, 28.299697], [85.399727, 28.299695], [85.399729, 28.299551], [85.399566, 28.299549], [85.399568, 28.299405], [85.399405, 28.299403], [85.399407, 28.299258], [85.398754, 28.299251], [85.398752, 28.299395], [85.398589, 28.299393], [85.398591, 28.299249], [85.398428, 28.299247], [85.39843, 28.299103], [85.398267, 28.299101], [85.398272, 28.298812], [85.398108, 28.29881], [85.398111, 28.298666], [85.397947, 28.298664], [85.39795, 28.298519], [85.398113, 28.298521], [85.398115, 28.298377], [85.398278, 28.298379], [85.39828, 28.298234], [85.398117, 28.298232], [85.398119, 28.298088], [85.397956, 28.298086], [85.397952, 28.298375], [85.397789, 28.298373], [85.397786, 28.298517], [85.397623, 28.298515], [85.397626, 28.298371], [85.397136, 28.298365], [85.397138, 28.298221], [85.396975, 28.298219], [85.396977, 28.298075], [85.396488, 28.298069], [85.39649, 28.297925], [85.396327, 28.297923], [85.396331, 28.297634], [85.396495, 28.297636], [85.396499, 28.297347], [85.396662, 28.297349], [85.396673, 28.296627], [85.396836, 28.296629], [85.39684, 28.29634], [85.396677, 28.296338], [85.396679, 28.296194], [85.396842, 28.296196], [85.396845, 28.296052], [85.396681, 28.29605], [85.396684, 28.295905], [85.396521, 28.295903], [85.396525, 28.295615], [85.396362, 28.295613], [85.396364, 28.295468], [85.396527, 28.29547], [85.396529, 28.295326], [85.396366, 28.295324], [85.396368, 28.29518], [85.396205, 28.295178], [85.396214, 28.2946], [85.396051, 28.294598], [85.396053, 28.294454], [85.39589, 28.294452], [85.395901, 28.29373], [85.395737, 28.293728], [85.39574, 28.293584], [85.395576, 28.293582], [85.395583, 28.293149], [85.39542, 28.293147], [85.395422, 28.293002], [85.395259, 28.293001], [85.395261, 28.292856], [85.395098, 28.292854], [85.3951, 28.29271], [85.394937, 28.292708], [85.394939, 28.292564], [85.394776, 28.292562], [85.394778, 28.292417], [85.394615, 28.292415], [85.394617, 28.292271], [85.394454, 28.292269], [85.394456, 28.292125], [85.394293, 28.292123], [85.394295, 28.291978], [85.394132, 28.291976], [85.394134, 28.291832], [85.393971, 28.29183], [85.393974, 28.291686], [85.39381, 28.291684], [85.393817, 28.291251], [85.393654, 28.291249], [85.393656, 28.291104], [85.393493, 28.291103], [85.393491, 28.291247], [85.393328, 28.291245], [85.39333, 28.291101], [85.393167, 28.291099], [85.393169, 28.290954], [85.393332, 28.290956], [85.393334, 28.290812], [85.393008, 28.290808], [85.39301, 28.290664], [85.392847, 28.290662], [85.392849, 28.290517], [85.392686, 28.290515], [85.392688, 28.290371], [85.392362, 28.290367], [85.392364, 28.290223], [85.392201, 28.290221], [85.392214, 28.289355], [85.392377, 28.289357], [85.392379, 28.289212], [85.392542, 28.289214], [85.39254, 28.289359], [85.392867, 28.289362], [85.392864, 28.289507], [85.393027, 28.289509], [85.393021, 28.289942], [85.393184, 28.289944], [85.393182, 28.290088], [85.393345, 28.29009], [85.393341, 28.290379], [85.393504, 28.290381], [85.393499, 28.290669], [85.393663, 28.290671], [85.39366, 28.290816], [85.393987, 28.29082], [85.393984, 28.290964], [85.394147, 28.290966], [85.394145, 28.29111], [85.394635, 28.291116], [85.394637, 28.290972], [85.3948, 28.290974], [85.394798, 28.291118], [85.394961, 28.29112], [85.394957, 28.291409], [85.394793, 28.291407], [85.394791, 28.291551], [85.394954, 28.291553], [85.394952, 28.291697], [85.395115, 28.291699], [85.395113, 28.291844], [85.395276, 28.291846], [85.395274, 28.29199], [85.395437, 28.291992], [85.395435, 28.292136], [85.395598, 28.292138], [85.395596, 28.292282], [85.395759, 28.292284], [85.395757, 28.292429], [85.39592, 28.292431], [85.395918, 28.292575], [85.396081, 28.292577], [85.396079, 28.292721], [85.396242, 28.292723], [85.39624, 28.292868], [85.396403, 28.29287], [85.396396, 28.293303], [85.397049, 28.29331], [85.397047, 28.293455], [85.39721, 28.293457], [85.397208, 28.293601], [85.397044, 28.293599], [85.397042, 28.293743], [85.396716, 28.29374], [85.396712, 28.294028], [85.397038, 28.294032], [85.39704, 28.293888], [85.397203, 28.29389], [85.397205, 28.293745], [85.397369, 28.293747], [85.397366, 28.293892], [85.397529, 28.293894], [85.397527, 28.294038], [85.39769, 28.29404], [85.397686, 28.294329], [85.397523, 28.294327], [85.397521, 28.294471], [85.397358, 28.294469], [85.397356, 28.294614], [85.397029, 28.29461], [85.397025, 28.294898], [85.397351, 28.294902], [85.397349, 28.295047], [85.397512, 28.295049], [85.39751, 28.295193], [85.397347, 28.295191], [85.397343, 28.29548], [85.397669, 28.295484], [85.397667, 28.295628], [85.39783, 28.29563], [85.397825, 28.295919], [85.397989, 28.295921], [85.397976, 28.296787], [85.398139, 28.296789], [85.398137, 28.296933], [85.3983, 28.296935], [85.398297, 28.297079], [85.398461, 28.297081], [85.398458, 28.297226], [85.398622, 28.297228], [85.398619, 28.297372], [85.398782, 28.297374], [85.39878, 28.297518], [85.398943, 28.29752], [85.398941, 28.297665], [85.399104, 28.297666], [85.399102, 28.297811], [85.399265, 28.297813], [85.399263, 28.297957], [85.399426, 28.297959], [85.399424, 28.298103], [85.399587, 28.298105], [85.399585, 28.29825], [85.399911, 28.298253], [85.399909, 28.298398], [85.400072, 28.2984], [85.40007, 28.298544], [85.400233, 28.298546], [85.400229, 28.298835], [85.400392, 28.298837], [85.40039, 28.298981], [85.400553, 28.298983], [85.400551, 28.299127], [85.400714, 28.299129], [85.400712, 28.299274], [85.400875, 28.299276], [85.400873, 28.29942], [85.401036, 28.299422], [85.401034, 28.299566], [85.401197, 28.299568], [85.401195, 28.299713], [85.401358, 28.299714], [85.401356, 28.299859], [85.401519, 28.299861], [85.401514, 28.300149], [85.401678, 28.300151], [85.401675, 28.300296], [85.401512, 28.300294], [85.401506, 28.300727], [85.401669, 28.300729], [85.401667, 28.300873], [85.40183, 28.300875], [85.401828, 28.30102], [85.401665, 28.301018], [85.401662, 28.301162], [85.401499, 28.30116]]]}, "properties": {"layer": "breach scenario inundation", "volume_Mm3": 5, "depth_min_m": 0.25}}, {"type": "Feature", "geometry": {"type": "Polygon", "coordinates": [[[85.391566, 28.289058], [85.391568, 28.288914], [85.391405, 28.288912], [85.391407, 28.288768], [85.391244, 28.288766], [85.391246, 28.288621], [85.391083, 28.288619], [85.391085, 28.288475], [85.390922, 28.288473], [85.39092, 28.288617], [85.390757, 28.288616], [85.390759, 28.288471], [85.39027, 28.288465], [85.390272, 28.288321], [85.389946, 28.288317], [85.389948, 28.288173], [85.389622, 28.288169], [85.389624, 28.288025], [85.389461, 28.288023], [85.389463, 28.287878], [85.3893, 28.287876], [85.389302, 28.287732], [85.389139, 28.28773], [85.389141, 28.287586], [85.388978, 28.287584], [85.38898, 28.287439], [85.388817, 28.287437], [85.388819, 28.287293], [85.388656, 28.287291], [85.388658, 28.287147], [85.388495, 28.287145], [85.388498, 28.287001], [85.388334, 28.286999], [85.388337, 28.286854], [85.388173, 28.286852], [85.388176, 28.286708], [85.388013, 28.286706], [85.388015, 28.286562], [85.387852, 28.28656], [85.387849, 28.286704], [85.387523, 28.2867], [85.387525, 28.286556], [85.387036, 28.28655], [85.387038, 28.286406], [85.386875, 28.286404], [85.386877, 28.286259], [85.386062, 28.28625], [85.386064, 28.286105], [85.385901, 28.286103], [85.385903, 28.285959], [85.385577, 28.285955], [85.385579, 28.285811], [85.385416, 28.285809], [85.385418, 28.285665], [85.385255, 28.285663], [85.385257, 28.285518], [85.384931, 28.285514], [85.384933, 28.28537], [85.38477, 28.285368], [85.384772, 28.285224], [85.384609, 28.285222], [85.384611, 28.285077], [85.384448, 28.285075], [85.384451, 28.284931], [85.384287, 28.284929], [85.384294, 28.284496], [85.384131, 28.284494], [85.384133, 28.28435], [85.384296, 28.284352], [85.384298, 28.284207], [85.384461, 28.284209], [85.384459, 28.284354], [85.384949, 28.284359], [85.384946, 28.284504], [85.385109, 28.284506], [85.385107, 28.28465], [85.38527, 28.284652], [85.385268, 28.284796], [85.385594, 28.2848], [85.385592, 28.284945], [85.385755, 28.284947], [85.385753, 28.285091], [85.385916, 28.285093], [85.385918, 28.284948], [85.386082, 28.28495], [85.386079, 28.285095], [85.386732, 28.285102], [85.38673, 28.285247], [85.386893, 28.285249], [85.38689, 28.285393], [85.387054, 28.285395], [85.387051, 28.285539], [85.38803, 28.285551], [85.388028, 28.285695], [85.388191, 28.285697], [85.388189, 28.285842], [85.388352, 28.285844], [85.38835, 28.285988], [85.388513, 28.28599], [85.388511, 28.286134], [85.388674, 28.286136], [85.388671, 28.286281], [85.388835, 28.286283], [85.388832, 28.286427], [85.388996, 28.286429], [85.388993, 28.286573], [85.389156, 28.286575], [85.389154, 28.286719], [85.389317, 28.286721], [85.389315, 28.286866], [85.389478, 28.286868], [85.389476, 28.287012], [85.390129, 28.28702], [85.390126, 28.287164], [85.390289, 28.287166], [85.390287, 28.28731], [85.39045, 28.287312], [85.390446, 28.287601], [85.390935, 28.287607], [85.390933, 28.287751], [85.391096, 28.287753], [85.391094, 28.287898], [85.391257, 28.287899], [85.391255, 28.288044], [85.391418, 28.288046], [85.391412, 28.288479], [85.391901, 28.288485], [85.391899, 28.288629], [85.392062, 28.288631], [85.39206, 28.288775], [85.391897, 28.288773], [85.391894, 28.288918], [85.391731, 28.288916], [85.391729, 28.28906], [85.391566, 28.289058]]]}, "properties": {"layer": "breach scenario inundation", "volume_Mm3": 5, "depth_min_m": 0.25}}, {"type": "Feature", "geometry": {"type": "Polygon", "coordinates": [[[85.384135, 28.284205], [85.384137, 28.284061], [85.383974, 28.284059], [85.383977, 28.283915], [85.383487, 28.283909], [85.383489, 28.283765], [85.383163, 28.283761], [85.383165, 28.283616], [85.383002, 28.283614], [85.383005, 28.28347], [85.382841, 28.283468], [85.382844, 28.283324], [85.382681, 28.283322], [85.382683, 28.283177], [85.38252, 28.283175], [85.382524, 28.282887], [85.382361, 28.282885], [85.382363, 28.28274], [85.3822, 28.282738], [85.382202, 28.282594], [85.382039, 28.282592], [85.382041, 28.282448], [85.381878, 28.282446], [85.38188, 28.282302], [85.381717, 28.2823], [85.381724, 28.281866], [85.381887, 28.281868], [85.381889, 28.281724], [85.382052, 28.281726], [85.38205, 28.28187], [85.382376, 28.281874], [85.382374, 28.282019], [85.3827, 28.282022], [85.382698, 28.282167], [85.382861, 28.282169], [85.382859, 28.282313], [85.383022, 28.282315], [85.38302, 28.282459], [85.383183, 28.282461], [85.383179, 28.28275], [85.383342, 28.282752], [85.383339, 28.282896], [85.383503, 28.282898], [85.3835, 28.283043], [85.383663, 28.283045], [85.383661, 28.283189], [85.383987, 28.283193], [85.383985, 28.283337], [85.384148, 28.283339], [85.384146, 28.283484], [85.383983, 28.283482], [85.383981, 28.283626], [85.384144, 28.283628], [85.384142, 28.283772], [85.384305, 28.283774], [85.384303, 28.283919], [85.384466, 28.283921], [85.384464, 28.284065], [85.384301, 28.284063], [85.384298, 28.284207], [85.384135, 28.284205]]]}, "properties": {"layer": "breach scenario inundation", "volume_Mm3": 5, "depth_min_m": 0.25}}, {"type": "Feature", "geometry": {"type": "Polygon", "coordinates": [[[85.381237, 28.281716], [85.381239, 28.281572], [85.381076, 28.28157], [85.38108, 28.281281], [85.380917, 28.281279], [85.380919, 28.281135], [85.380756, 28.281133], [85.380758, 28.280989], [85.380595, 28.280987], [85.380597, 28.280842], [85.380271, 28.280838], [85.380273, 28.280694], [85.38011, 28.280692], [85.380113, 28.280548], [85.379949, 28.280546], [85.379952, 28.280401], [85.379789, 28.2804], [85.379791, 28.280255], [85.379628, 28.280253], [85.379625, 28.280398], [85.379462, 28.280396], [85.379465, 28.280251], [85.378812, 28.280244], [85.378814, 28.280099], [85.378651, 28.280097], [85.378653, 28.279953], [85.37849, 28.279951], [85.378493, 28.279807], [85.37833, 28.279805], [85.378332, 28.27966], [85.377842, 28.279654], [85.377845, 28.27951], [85.377682, 28.279508], [85.377684, 28.279364], [85.377521, 28.279362], [85.377523, 28.279217], [85.37736, 28.279215], [85.377362, 28.279071], [85.377199, 28.279069], [85.377197, 28.279214], [85.377034, 28.279212], [85.377036, 28.279067], [85.376873, 28.279065], [85.376875, 28.278921], [85.377038, 28.278923], [85.377042, 28.278634], [85.376879, 28.278632], [85.376886, 28.278199], [85.376723, 28.278197], [85.376725, 28.278053], [85.376562, 28.278051], [85.376564, 28.277906], [85.376401, 28.277905], [85.376405, 28.277616], [85.376242, 28.277614], [85.376282, 28.275015], [85.376445, 28.275017], [85.376447, 28.274873], [85.37661, 28.274875], [85.376619, 28.274297], [85.376456, 28.274295], [85.376458, 28.274151], [85.376295, 28.274149], [85.376301, 28.273716], [85.376138, 28.273714], [85.37614, 28.273569], [85.375977, 28.273568], [85.375988, 28.272846], [85.376151, 28.272848], [85.376156, 28.272559], [85.375993, 28.272557], [85.376008, 28.271546], [85.375845, 28.271544], [85.375847, 28.2714], [85.375684, 28.271398], [85.375724, 28.268799], [85.375887, 28.268801], [85.375889, 28.268657], [85.376052, 28.268659], [85.376063, 28.267937], [85.3759, 28.267935], [85.375904, 28.267646], [85.375741, 28.267644], [85.37575, 28.267067], [85.375587, 28.267065], [85.375591, 28.266776], [85.375428, 28.266774], [85.37543, 28.26663], [85.375267, 28.266628], [85.375269, 28.266484], [85.374943, 28.26648], [85.374945, 28.266335], [85.374782, 28.266333], [85.374785, 28.266189], [85.374458, 28.266185], [85.374461, 28.266041], [85.374134, 28.266037], [85.374137, 28.265892], [85.373974, 28.265891], [85.373976, 28.265746], [85.373813, 28.265744], [85.373815, 28.2656], [85.373652, 28.265598], [85.373654, 28.265454], [85.373491, 28.265452], [85.373493, 28.265307], [85.373167, 28.265303], [85.373169, 28.265159], [85.373006, 28.265157], [85.373008, 28.265013], [85.372845, 28.265011], [85.372847, 28.264866], [85.372684, 28.264864], [85.372689, 28.264576], [85.372852, 28.264578], [85.372854, 28.264433], [85.373017, 28.264435], [85.373015, 28.26458], [85.373178, 28.264581], [85.373176, 28.264726], [85.373339, 28.264728], [85.373337, 28.264872], [85.3735, 28.264874], [85.373498, 28.265018], [85.373824, 28.265022], [85.373821, 28.265167], [85.373985, 28.265169], [85.373982, 28.265313], [85.374145, 28.265315], [85.374143, 28.265459], [85.374306, 28.265461], [85.374304, 28.265606], [85.374467, 28.265608], [85.374465, 28.265752], [85.374628, 28.265754], [85.374626, 28.265898], [85.374952, 28.265902], [85.37495, 28.266047], [85.375276, 28.26605], [85.375274, 28.266195], [85.3756, 28.266199], [85.375598, 28.266343], [85.375761, 28.266345], [85.375756, 28.266634], [85.375919, 28.266636], [85.375917, 28.26678], [85.37608, 28.266782], [85.376076, 28.267071], [85.376239, 28.267073], [85.376232, 28.267506], [85.376395, 28.267508], [85.376387, 28.268085], [85.37655, 28.268087], [85.376539, 28.268809], [85.376702, 28.268811], [85.3767, 28.268955], [85.376863, 28.268957], [85.376858, 28.269246], [85.377022, 28.269248], [85.377019, 28.269392], [85.376856, 28.26939], [85.376854, 28.269535], [85.376691, 28.269533], [85.376689, 28.269677], [85.376526, 28.269675], [85.376513, 28.270541], [85.376676, 28.270543], [85.376673, 28.270688], [85.37651, 28.270686], [85.376504, 28.271119], [85.376667, 28.271121], [85.376665, 28.271265], [85.376828, 28.271267], [85.376815, 28.272133], [85.376978, 28.272135], [85.376976, 28.27228], [85.377139, 28.272282], [85.377128, 28.273004], [85.376965, 28.273002], [85.376962, 28.273146], [85.376799, 28.273144], [85.376797, 28.273288], [85.37696, 28.27329], [85.376958, 28.273435], [85.377121, 28.273437], [85.377115, 28.27387], [85.377278, 28.273872], [85.377275, 28.274016], [85.377439, 28.274018], [85.377421, 28.275173], [85.377258, 28.275171], [85.377256, 28.275315], [85.377093, 28.275314], [85.377062, 28.277335], [85.377225, 28.277337], [85.377214, 28.278059], [85.377377, 28.278061], [85.377375, 28.278205], [85.377538, 28.278207], [85.377536, 28.278351], [85.377862, 28.278355], [85.37786, 28.278499], [85.378023, 28.278501], [85.378021, 28.278646], [85.378347, 28.27865], [85.378345, 28.278794], [85.378508, 28.278796], [85.378506, 28.27894], [85.378832, 28.278944], [85.37883, 28.279089], [85.378993, 28.27909], [85.378988, 28.279379], [85.379478, 28.279385], [85.379475, 28.279529], [85.379639, 28.279531], [85.379636, 28.279676], [85.379799, 28.279678], [85.379797, 28.279822], [85.37996, 28.279824], [85.379958, 28.279968], [85.380121, 28.27997], [85.380117, 28.280259], [85.380443, 28.280263], [85.380441, 28.280407], [85.38093, 28.280413], [85.380928, 28.280557], [85.381091, 28.280559], [85.381087, 28.280848], [85.38125, 28.28085], [85.381248, 28.280994], [85.381411, 28.280996], [85.381406, 28.281285], [85.381569, 28.281287], [85.381565, 28.281576], [85.381402, 28.281574], [85.3814, 28.281718], [85.381237, 28.281716]]]}, "properties": {"layer": "breach scenario inundation", "volume_Mm3": 5, "depth_min_m": 0.25}}, {"type": "Feature", "geometry": {"type": "Polygon", "coordinates": [[[85.37253, 28.264285], [85.372532, 28.264141], [85.372369, 28.264139], [85.372374, 28.26385], [85.372537, 28.263852], [85.372539, 28.263707], [85.372376, 28.263706], [85.372385, 28.263128], [85.372548, 28.26313], [85.372554, 28.262697], [85.372391, 28.262695], [85.372396, 28.262406], [85.372233, 28.262404], [85.372235, 28.26226], [85.372072, 28.262258], [85.372074, 28.262114], [85.371911, 28.262112], [85.371913, 28.261967], [85.371424, 28.261961], [85.371426, 28.261817], [85.371263, 28.261815], [85.371265, 28.261671], [85.371102, 28.261669], [85.371106, 28.26138], [85.37127, 28.261382], [85.371272, 28.261238], [85.371435, 28.26124], [85.371433, 28.261384], [85.371596, 28.261386], [85.371593, 28.26153], [85.371757, 28.261532], [85.371754, 28.261677], [85.37208, 28.26168], [85.372078, 28.261825], [85.372241, 28.261827], [85.372239, 28.261971], [85.372565, 28.261975], [85.372563, 28.262119], [85.372726, 28.262121], [85.372722, 28.26241], [85.372885, 28.262412], [85.372883, 28.262556], [85.373046, 28.262558], [85.373035, 28.26328], [85.372872, 28.263278], [85.372865, 28.263711], [85.372702, 28.263709], [85.3727, 28.263854], [85.372863, 28.263856], [85.372858, 28.264144], [85.372695, 28.264143], [85.372693, 28.264287], [85.37253, 28.264285]]]}, "properties": {"layer": "breach scenario inundation", "volume_Mm3": 5, "depth_min_m": 0.25}}, {"type": "Feature", "geometry": {"type": "Polygon", "coordinates": [[[85.3703, 28.260793], [85.370302, 28.260648], [85.370139, 28.260646], [85.370141, 28.260502], [85.369978, 28.2605], [85.36998, 28.260356], [85.369817, 28.260354], [85.369822, 28.260065], [85.369659, 28.260063], [85.369661, 28.259919], [85.369498, 28.259917], [85.3695, 28.259772], [85.369337, 28.259771], [85.36933, 28.260204], [85.369167, 28.260202], [85.369165, 28.260346], [85.369002, 28.260344], [85.369004, 28.2602], [85.368841, 28.260198], [85.368839, 28.260342], [85.368187, 28.260334], [85.368189, 28.26019], [85.368026, 28.260188], [85.368028, 28.260044], [85.367865, 28.260042], [85.367867, 28.259897], [85.367704, 28.259895], [85.367706, 28.259751], [85.367543, 28.259749], [85.367546, 28.259605], [85.367219, 28.259601], [85.367222, 28.259456], [85.367059, 28.259455], [85.367061, 28.25931], [85.366898, 28.259308], [85.3669, 28.259164], [85.366737, 28.259162], [85.366739, 28.259018], [85.366576, 28.259016], [85.366578, 28.258871], [85.366415, 28.258869], [85.36642, 28.25858], [85.366093, 28.258577], [85.366096, 28.258432], [85.36577, 28.258428], [85.365772, 28.258284], [85.365609, 28.258282], [85.365611, 28.258138], [85.365448, 28.258136], [85.365452, 28.257847], [85.365289, 28.257845], [85.365294, 28.257556], [85.365457, 28.257558], [85.365459, 28.257414], [85.365622, 28.257416], [85.36562, 28.25756], [85.365783, 28.257562], [85.365778, 28.257851], [85.365941, 28.257853], [85.365939, 28.257997], [85.366102, 28.257999], [85.3661, 28.258143], [85.366263, 28.258145], [85.366261, 28.25829], [85.36675, 28.258296], [85.366748, 28.25844], [85.3674, 28.258448], [85.367398, 28.258592], [85.367561, 28.258594], [85.367557, 28.258883], [85.36772, 28.258885], [85.367717, 28.259029], [85.368044, 28.259033], [85.368041, 28.259177], [85.368204, 28.259179], [85.368202, 28.259324], [85.368365, 28.259326], [85.368363, 28.25947], [85.368852, 28.259476], [85.368857, 28.259187], [85.36902, 28.259189], [85.369022, 28.259045], [85.369185, 28.259047], [85.369183, 28.259191], [85.369346, 28.259193], [85.369344, 28.259337], [85.369507, 28.259339], [85.369504, 28.259484], [85.369667, 28.259486], [85.369665, 28.25963], [85.369828, 28.259632], [85.369826, 28.259776], [85.369989, 28.259778], [85.369987, 28.259923], [85.37015, 28.259925], [85.370148, 28.260069], [85.370311, 28.260071], [85.370307, 28.26036], [85.37047, 28.260362], [85.370467, 28.260506], [85.37063, 28.260508], [85.370628, 28.260652], [85.370465, 28.26065], [85.370463, 28.260795], [85.3703, 28.260793]]]}, "properties": {"layer": "breach scenario inundation", "volume_Mm3": 5, "depth_min_m": 0.25}}, {"type": "Feature", "geometry": {"type": "Polygon", "coordinates": [[[85.365466, 28.256981], [85.365468, 28.256836], [85.365305, 28.256834], [85.365311, 28.256401], [85.365148, 28.256399], [85.365153, 28.256111], [85.36499, 28.256109], [85.364992, 28.255964], [85.364829, 28.255962], [85.364831, 28.255818], [85.364668, 28.255816], [85.364677, 28.255238], [85.36484, 28.25524], [85.364842, 28.255096], [85.365005, 28.255098], [85.365007, 28.254954], [85.365333, 28.254958], [85.365331, 28.255102], [85.365494, 28.255104], [85.365488, 28.255537], [85.365651, 28.255539], [85.365648, 28.255683], [85.365811, 28.255685], [85.365805, 28.256118], [85.365642, 28.256116], [85.36564, 28.256261], [85.365803, 28.256263], [85.365794, 28.25684], [85.365631, 28.256838], [85.365629, 28.256983], [85.365466, 28.256981]]]}, "properties": {"layer": "breach scenario inundation", "volume_Mm3": 5, "depth_min_m": 0.25}}, {"type": "Feature", "geometry": {"type": "Polygon", "coordinates": [[[85.364873, 28.253075], [85.364875, 28.25293], [85.364549, 28.252927], [85.364551, 28.252782], [85.364388, 28.25278], [85.364395, 28.252347], [85.364558, 28.252349], [85.364562, 28.25206], [85.364399, 28.252058], [85.364401, 28.251914], [85.364238, 28.251912], [85.36424, 28.251768], [85.364077, 28.251766], [85.364091, 28.250899], [85.363928, 28.250898], [85.36393, 28.250753], [85.363767, 28.250751], [85.363769, 28.250607], [85.363932, 28.250609], [85.363934, 28.250464], [85.363771, 28.250462], [85.363787, 28.249452], [85.36395, 28.249454], [85.363952, 28.249309], [85.364115, 28.249311], [85.364124, 28.248734], [85.363961, 28.248732], [85.363963, 28.248588], [85.3638, 28.248586], [85.363802, 28.248441], [85.363965, 28.248443], [85.363967, 28.248299], [85.36413, 28.248301], [85.364128, 28.248445], [85.364291, 28.248447], [85.364289, 28.248591], [85.364452, 28.248593], [85.364448, 28.248882], [85.364611, 28.248884], [85.364608, 28.249029], [85.364771, 28.24903], [85.364769, 28.249175], [85.364932, 28.249177], [85.36493, 28.249321], [85.365093, 28.249323], [85.365091, 28.249467], [85.365254, 28.249469], [85.36525, 28.249758], [85.365086, 28.249756], [85.365084, 28.249901], [85.364921, 28.249899], [85.364923, 28.249754], [85.364597, 28.24975], [85.364591, 28.250183], [85.364754, 28.250185], [85.364749, 28.250474], [85.364912, 28.250476], [85.364897, 28.251487], [85.36506, 28.251489], [85.365058, 28.251633], [85.365221, 28.251635], [85.365214, 28.252068], [85.365051, 28.252066], [85.365047, 28.252355], [85.36521, 28.252357], [85.365201, 28.252934], [85.365038, 28.252932], [85.365036, 28.253077], [85.364873, 28.253075]]]}, "properties": {"layer": "breach scenario inundation", "volume_Mm3": 5, "depth_min_m": 0.25}}, {"type": "Feature", "geometry": {"type": "Polygon", "coordinates": [[[85.363648, 28.247862], [85.36365, 28.247717], [85.363487, 28.247715], [85.363489, 28.247571], [85.363326, 28.247569], [85.363331, 28.24728], [85.363167, 28.247278], [85.363172, 28.24699], [85.363009, 28.246988], [85.363013, 28.246699], [85.36285, 28.246697], [85.362852, 28.246553], [85.362689, 28.246551], [85.362692, 28.246406], [85.362529, 28.246404], [85.362531, 28.24626], [85.362205, 28.246256], [85.362207, 28.246112], [85.362044, 28.24611], [85.362046, 28.245965], [85.361883, 28.245963], [85.361885, 28.245819], [85.361722, 28.245817], [85.361724, 28.245673], [85.361561, 28.245671], [85.361564, 28.245526], [85.361238, 28.245523], [85.36124, 28.245378], [85.361077, 28.245376], [85.361079, 28.245232], [85.360753, 28.245228], [85.360755, 28.245084], [85.360592, 28.245082], [85.360594, 28.244937], [85.360431, 28.244935], [85.360433, 28.244791], [85.36027, 28.244789], [85.360273, 28.244645], [85.36011, 28.244643], [85.360112, 28.244498], [85.359786, 28.244494], [85.359788, 28.24435], [85.359625, 28.244348], [85.359627, 28.244204], [85.359464, 28.244202], [85.359466, 28.244057], [85.35914, 28.244053], [85.359142, 28.243909], [85.358816, 28.243905], [85.358819, 28.243761], [85.358656, 28.243759], [85.358658, 28.243614], [85.358495, 28.243612], [85.358497, 28.243468], [85.358334, 28.243466], [85.358341, 28.243033], [85.358177, 28.243031], [85.358182, 28.242742], [85.358019, 28.24274], [85.358023, 28.242452], [85.358186, 28.242454], [85.358189, 28.242309], [85.358026, 28.242307], [85.358028, 28.242163], [85.357865, 28.242161], [85.357867, 28.242017], [85.357704, 28.242015], [85.357713, 28.241437], [85.35755, 28.241435], [85.357548, 28.24158], [85.357058, 28.241574], [85.357061, 28.241429], [85.356898, 28.241427], [85.356913, 28.240417], [85.357076, 28.240419], [85.357078, 28.240274], [85.357241, 28.240276], [85.357244, 28.240132], [85.357407, 28.240134], [85.357409, 28.239989], [85.357572, 28.239991], [85.357576, 28.239703], [85.357413, 28.239701], [85.357415, 28.239556], [85.357252, 28.239554], [85.357255, 28.23941], [85.357418, 28.239412], [85.35742, 28.239268], [85.357746, 28.239272], [85.357744, 28.239416], [85.357907, 28.239418], [85.357911, 28.239129], [85.358074, 28.239131], [85.358081, 28.238698], [85.358244, 28.2387], [85.358246, 28.238556], [85.358409, 28.238557], [85.358407, 28.238702], [85.35857, 28.238704], [85.358552, 28.239859], [85.358389, 28.239857], [85.358383, 28.24029], [85.35822, 28.240288], [85.358217, 28.240432], [85.358543, 28.240436], [85.358541, 28.240581], [85.358704, 28.240583], [85.358693, 28.241304], [85.358856, 28.241306], [85.358852, 28.241595], [85.358689, 28.241593], [85.358686, 28.241738], [85.358523, 28.241736], [85.358517, 28.242169], [85.358354, 28.242167], [85.358349, 28.242456], [85.358512, 28.242457], [85.358508, 28.242746], [85.358671, 28.242748], [85.358667, 28.243037], [85.35883, 28.243039], [85.358827, 28.243183], [85.359153, 28.243187], [85.359151, 28.243332], [85.359314, 28.243334], [85.35931, 28.243622], [85.359473, 28.243624], [85.359471, 28.243769], [85.359634, 28.243771], [85.359632, 28.243915], [85.359795, 28.243917], [85.359792, 28.244061], [85.360118, 28.244065], [85.360116, 28.24421], [85.360279, 28.244211], [85.360277, 28.244356], [85.36044, 28.244358], [85.360438, 28.244502], [85.360601, 28.244504], [85.360599, 28.244649], [85.360925, 28.244652], [85.360923, 28.244797], [85.361086, 28.244799], [85.361083, 28.244943], [85.361246, 28.244945], [85.361244, 28.245089], [85.36157, 28.245093], [85.361568, 28.245238], [85.361731, 28.24524], [85.361729, 28.245384], [85.362055, 28.245388], [85.362053, 28.245532], [85.362216, 28.245534], [85.362214, 28.245679], [85.362377, 28.245681], [85.362374, 28.245825], [85.3627, 28.245829], [85.362698, 28.245973], [85.362861, 28.245975], [85.362859, 28.24612], [85.363022, 28.246122], [85.36302, 28.246266], [85.363183, 28.246268], [85.363181, 28.246412], [85.363344, 28.246414], [85.363339, 28.246703], [85.363502, 28.246705], [85.363498, 28.246994], [85.363661, 28.246996], [85.363657, 28.247284], [85.36382, 28.247286], [85.363815, 28.247575], [85.363978, 28.247577], [85.363976, 28.247721], [85.363813, 28.247719], [85.363811, 28.247864], [85.363648, 28.247862]]]}, "properties": {"layer": "breach scenario inundation", "volume_Mm3": 5, "depth_min_m": 0.25}}, {"type": "Feature", "geometry": {"type": "Polygon", "coordinates": [[[85.357935, 28.237541], [85.357938, 28.237397], [85.357775, 28.237395], [85.357779, 28.237106], [85.357942, 28.237108], [85.357947, 28.236819], [85.35811, 28.236821], [85.358112, 28.236677], [85.358275, 28.236679], [85.358277, 28.236534], [85.35844, 28.236536], [85.358442, 28.236392], [85.358605, 28.236394], [85.358623, 28.235239], [85.358786, 28.235241], [85.358793, 28.234808], [85.358956, 28.23481], [85.35896, 28.234521], [85.359123, 28.234523], [85.359125, 28.234379], [85.359288, 28.23438], [85.35929, 28.234236], [85.359453, 28.234238], [85.359451, 28.234382], [85.359614, 28.234384], [85.359608, 28.234818], [85.359445, 28.234816], [85.35944, 28.235104], [85.359277, 28.235102], [85.359271, 28.235535], [85.359108, 28.235533], [85.359094, 28.2364], [85.358931, 28.236398], [85.358927, 28.236687], [85.358764, 28.236685], [85.358759, 28.236973], [85.358596, 28.236971], [85.358594, 28.237116], [85.358431, 28.237114], [85.358429, 28.237258], [85.358266, 28.237256], [85.358264, 28.237401], [85.358101, 28.237399], [85.358098, 28.237543], [85.357935, 28.237541]]]}, "properties": {"layer": "breach scenario inundation", "volume_Mm3": 5, "depth_min_m": 0.25}}, {"type": "Feature", "geometry": {"type": "Polygon", "coordinates": [[[85.360993, 28.229491], [85.360996, 28.229347], [85.360833, 28.229345], [85.360835, 28.229201], [85.360998, 28.229203], [85.361002, 28.228914], [85.360839, 28.228912], [85.360848, 28.228334], [85.361011, 28.228336], [85.361013, 28.228192], [85.36085, 28.22819], [85.360857, 28.227757], [85.360694, 28.227755], [85.360696, 28.227611], [85.360533, 28.227609], [85.36056, 28.225876], [85.360397, 28.225874], [85.360405, 28.225297], [85.360568, 28.225299], [85.360571, 28.225154], [85.360734, 28.225156], [85.36074, 28.224723], [85.360903, 28.224725], [85.360912, 28.224148], [85.360749, 28.224146], [85.360762, 28.223279], [85.360599, 28.223277], [85.360601, 28.223133], [85.360438, 28.223131], [85.360443, 28.222842], [85.36028, 28.22284], [85.360284, 28.222552], [85.360121, 28.22255], [85.360126, 28.222261], [85.359963, 28.222259], [85.359965, 28.222115], [85.359802, 28.222113], [85.359804, 28.221968], [85.359315, 28.221962], [85.359317, 28.221818], [85.359154, 28.221816], [85.359157, 28.221672], [85.358831, 28.221668], [85.358833, 28.221523], [85.35867, 28.221522], [85.358672, 28.221377], [85.358509, 28.221375], [85.358511, 28.221231], [85.358348, 28.221229], [85.35835, 28.221085], [85.358187, 28.221083], [85.358196, 28.220505], [85.358033, 28.220503], [85.358038, 28.220214], [85.357875, 28.220212], [85.357877, 28.220068], [85.357714, 28.220066], [85.357716, 28.219922], [85.357879, 28.219924], [85.357881, 28.219779], [85.358207, 28.219783], [85.358205, 28.219928], [85.358368, 28.21993], [85.358366, 28.220074], [85.358529, 28.220076], [85.358527, 28.22022], [85.35869, 28.220222], [85.358687, 28.220367], [85.35885, 28.220369], [85.358846, 28.220657], [85.359009, 28.220659], [85.359007, 28.220804], [85.35917, 28.220806], [85.359168, 28.22095], [85.359331, 28.220952], [85.359326, 28.221241], [85.359652, 28.221245], [85.35965, 28.221389], [85.360139, 28.221395], [85.360137, 28.221539], [85.3603, 28.221541], [85.360295, 28.22183], [85.360458, 28.221832], [85.360456, 28.221976], [85.360619, 28.221978], [85.360617, 28.222122], [85.36078, 28.222124], [85.360776, 28.222413], [85.360939, 28.222415], [85.360936, 28.22256], [85.361099, 28.222561], [85.361095, 28.22285], [85.361258, 28.222852], [85.361253, 28.223141], [85.361416, 28.223143], [85.361405, 28.223865], [85.361568, 28.223867], [85.361557, 28.224589], [85.36172, 28.224591], [85.361718, 28.224735], [85.361881, 28.224737], [85.36187, 28.225459], [85.361707, 28.225457], [85.361705, 28.225601], [85.361542, 28.225599], [85.361538, 28.225888], [85.361375, 28.225886], [85.361339, 28.228196], [85.361176, 28.228194], [85.361174, 28.228338], [85.361337, 28.22834], [85.361328, 28.228918], [85.361165, 28.228916], [85.361161, 28.229205], [85.361324, 28.229207], [85.361322, 28.229351], [85.361159, 28.229349], [85.361156, 28.229493], [85.360993, 28.229491]]]}, "properties": {"layer": "breach scenario inundation", "volume_Mm3": 5, "depth_min_m": 0.25}}]}