{"type": "FeatureCollection", "features": [{"type": "Feature", "geometry": {"type": "Polygon", "coordinates": [[[85.358555, 28.221382], [85.358559, 28.221165], [85.358314, 28.221162], [85.358321, 28.220729], [85.358565, 28.220732], [85.358569, 28.220516], [85.358813, 28.220518], [85.35881, 28.220735], [85.359054, 28.220738], [85.359048, 28.221171], [85.358803, 28.221168], [85.3588, 28.221385], [85.358555, 28.221382]]]}, "properties": {"prob_class": "P>=0.1", "depth_m": 2.0, "members": 40}}, {"type": "Feature", "geometry": {"type": "Polygon", "coordinates": [[[85.356871, 28.219629], [85.356874, 28.219412], [85.356629, 28.219409], [85.356636, 28.218976], [85.356391, 28.218973], [85.356395, 28.218757], [85.35615, 28.218754], [85.356157, 28.218321], [85.355912, 28.218318], [85.355916, 28.218101], [85.355671, 28.218098], [85.355675, 28.217882], [85.35543, 28.217879], [85.355433, 28.217662], [85.355189, 28.217659], [85.355192, 28.217443], [85.354948, 28.21744], [85.354951, 28.217223], [85.354707, 28.21722], [85.35471, 28.217004], [85.354465, 28.217001], [85.354469, 28.216784], [85.354224, 28.216781], [85.354261, 28.214399], [85.354016, 28.214396], [85.354046, 28.212447], [85.353802, 28.212444], [85.353805, 28.212228], [85.353561, 28.212225], [85.353564, 28.212008], [85.353319, 28.212005], [85.353323, 28.211789], [85.353078, 28.211786], [85.353085, 28.211352], [85.35284, 28.21135], [85.35287, 28.2094], [85.353115, 28.209403], [85.353118, 28.209187], [85.352874, 28.209184], [85.352894, 28.207885], [85.353138, 28.207888], [85.353141, 28.207671], [85.353386, 28.207674], [85.353389, 28.207457], [85.353634, 28.20746], [85.353637, 28.207244], [85.353393, 28.207241], [85.353396, 28.207024], [85.353151, 28.207021], [85.353161, 28.206372], [85.353406, 28.206375], [85.353409, 28.206158], [85.353165, 28.206155], [85.353168, 28.205938], [85.353412, 28.205941], [85.353416, 28.205725], [85.35366, 28.205728], [85.35367, 28.205078], [85.353426, 28.205075], [85.353432, 28.204642], [85.353188, 28.204639], [85.353191, 28.204423], [85.352947, 28.20442], [85.35295, 28.204203], [85.352706, 28.2042], [85.352709, 28.203984], [85.352465, 28.203981], [85.352475, 28.203331], [85.35223, 28.203328], [85.352237, 28.202895], [85.351992, 28.202892], [85.352002, 28.202242], [85.351758, 28.202239], [85.351798, 28.199641], [85.351553, 28.199638], [85.35156, 28.199205], [85.351315, 28.199202], [85.351322, 28.198768], [85.351078, 28.198766], [85.351084, 28.198332], [85.35084, 28.198329], [85.350846, 28.197896], [85.350602, 28.197893], [85.350605, 28.197677], [85.350361, 28.197674], [85.350364, 28.197457], [85.35012, 28.197454], [85.350123, 28.197238], [85.349634, 28.197232], [85.349638, 28.197015], [85.349393, 28.197012], [85.3494, 28.196579], [85.349155, 28.196576], [85.349175, 28.195277], [85.348931, 28.195274], [85.348941, 28.194624], [85.348696, 28.194621], [85.348706, 28.193972], [85.348462, 28.193969], [85.348469, 28.193536], [85.348224, 28.193533], [85.348231, 28.1931], [85.347986, 28.193097], [85.348003, 28.192014], [85.347759, 28.192011], [85.347769, 28.191361], [85.347524, 28.191358], [85.347528, 28.191142], [85.347283, 28.191139], [85.347286, 28.190922], [85.347042, 28.190919], [85.347052, 28.19027], [85.346808, 28.190267], [85.346811, 28.19005], [85.346567, 28.190047], [85.34657, 28.189831], [85.346081, 28.189825], [85.346084, 28.189608], [85.34584, 28.189605], [85.345853, 28.188739], [85.345609, 28.188736], [85.345619, 28.188086], [85.345374, 28.188083], [85.345381, 28.18765], [85.345137, 28.187647], [85.345147, 28.186998], [85.344902, 28.186995], [85.344909, 28.186562], [85.344665, 28.186559], [85.344668, 28.186342], [85.344423, 28.186339], [85.344427, 28.186123], [85.344182, 28.18612], [85.344189, 28.185686], [85.343945, 28.185683], [85.343955, 28.185034], [85.34371, 28.185031], [85.343714, 28.184814], [85.343469, 28.184811], [85.343476, 28.184378], [85.343231, 28.184375], [85.343238, 28.183942], [85.342994, 28.183939], [85.343, 28.183506], [85.342756, 28.183503], [85.342759, 28.183287], [85.342515, 28.183284], [85.342518, 28.183067], [85.342274, 28.183064], [85.342281, 28.182631], [85.341303, 28.182619], [85.3413, 28.182836], [85.340811, 28.18283], [85.340807, 28.183046], [85.339585, 28.183031], [85.339582, 28.183248], [85.338849, 28.183239], [85.338852, 28.183023], [85.338363, 28.183017], [85.338367, 28.1828], [85.337878, 28.182794], [85.337881, 28.182578], [85.337637, 28.182575], [85.33764, 28.182358], [85.337396, 28.182355], [85.337403, 28.181922], [85.337647, 28.181925], [85.33765, 28.181708], [85.339117, 28.181726], [85.33912, 28.18151], [85.340098, 28.181522], [85.340101, 28.181305], [85.34059, 28.181311], [85.340596, 28.180878], [85.340841, 28.180881], [85.340844, 28.180664], [85.341089, 28.180667], [85.341092, 28.180451], [85.341336, 28.180454], [85.34134, 28.180237], [85.341584, 28.18024], [85.341594, 28.17959], [85.341839, 28.179593], [85.341852, 28.178727], [85.342096, 28.17873], [85.342133, 28.176348], [85.341889, 28.176345], [85.341935, 28.173313], [85.34218, 28.173316], [85.342186, 28.172883], [85.341942, 28.17288], [85.341989, 28.169848], [85.341744, 28.169845], [85.341764, 28.168546], [85.34152, 28.168543], [85.341564, 28.165728], [85.340586, 28.165716], [85.340589, 28.165499], [85.340345, 28.165496], [85.340348, 28.16528], [85.338882, 28.165262], [85.338886, 28.165045], [85.338397, 28.165039], [85.3384, 28.164823], [85.337423, 28.164811], [85.337426, 28.164594], [85.337182, 28.164591], [85.337185, 28.164375], [85.336941, 28.164372], [85.336944, 28.164155], [85.3367, 28.164152], [85.336703, 28.163936], [85.336459, 28.163933], [85.336479, 28.162633], [85.336234, 28.162631], [85.336241, 28.162197], [85.335997, 28.162194], [85.336003, 28.161761], [85.335759, 28.161758], [85.335762, 28.161542], [85.335518, 28.161539], [85.335525, 28.161106], [85.33528, 28.161103], [85.335284, 28.160886], [85.335039, 28.160883], [85.335049, 28.160234], [85.334805, 28.160231], [85.334815, 28.159581], [85.334571, 28.159578], [85.334574, 28.159361], [85.333841, 28.159352], [85.333844, 28.159136], [85.333111, 28.159127], [85.333115, 28.15891], [85.33287, 28.158907], [85.332874, 28.158691], [85.332385, 28.158685], [85.332388, 28.158468], [85.3319, 28.158462], [85.331903, 28.158246], [85.331659, 28.158243], [85.331669, 28.157593], [85.330936, 28.157584], [85.330939, 28.157368], [85.330695, 28.157365], [85.330702, 28.156932], [85.330457, 28.156929], [85.330461, 28.156712], [85.329972, 28.156706], [85.329975, 28.15649], [85.329731, 28.156487], [85.329734, 28.15627], [85.329246, 28.156264], [85.329249, 28.156048], [85.329005, 28.156045], [85.329008, 28.155828], [85.328764, 28.155825], [85.328767, 28.155608], [85.328523, 28.155605], [85.328526, 28.155389], [85.328282, 28.155386], [85.328285, 28.155169], [85.328041, 28.155166], [85.328044, 28.15495], [85.3278, 28.154947], [85.327806, 28.154514], [85.327562, 28.154511], [85.327565, 28.154294], [85.327321, 28.154291], [85.327324, 28.154075], [85.326836, 28.154069], [85.326839, 28.153852], [85.326595, 28.153849], [85.326598, 28.153633], [85.326109, 28.153627], [85.326113, 28.15341], [85.325869, 28.153407], [85.325872, 28.15319], [85.325628, 28.153188], [85.325631, 28.152971], [85.325387, 28.152968], [85.32539, 28.152751], [85.325146, 28.152748], [85.325149, 28.152532], [85.324905, 28.152529], [85.324908, 28.152312], [85.324664, 28.152309], [85.32467, 28.151876], [85.324426, 28.151873], [85.324433, 28.15144], [85.324189, 28.151437], [85.324192, 28.151221], [85.323948, 28.151218], [85.323944, 28.151434], [85.323211, 28.151425], [85.323215, 28.151209], [85.321749, 28.151191], [85.321752, 28.150974], [85.321508, 28.150971], [85.321511, 28.150755], [85.321267, 28.150752], [85.32127, 28.150535], [85.321026, 28.150532], [85.321029, 28.150315], [85.32054, 28.150309], [85.320544, 28.150093], [85.320299, 28.15009], [85.320303, 28.149873], [85.320059, 28.14987], [85.320065, 28.149437], [85.319577, 28.149431], [85.319573, 28.149648], [85.31884, 28.149639], [85.318844, 28.149422], [85.318599, 28.149419], [85.318613, 28.148553], [85.318124, 28.148547], [85.318128, 28.14833], [85.317639, 28.148324], [85.317642, 28.148108], [85.317154, 28.148102], [85.317157, 28.147885], [85.316913, 28.147882], [85.316916, 28.147666], [85.316672, 28.147663], [85.316675, 28.147446], [85.316187, 28.14744], [85.31619, 28.147224], [85.315701, 28.147218], [85.315705, 28.147001], [85.315216, 28.146995], [85.315219, 28.146779], [85.314731, 28.146773], [85.314734, 28.146556], [85.31449, 28.146553], [85.314493, 28.146336], [85.314249, 28.146333], [85.314252, 28.146117], [85.313275, 28.146105], [85.313278, 28.145888], [85.313034, 28.145885], [85.313038, 28.145669], [85.312793, 28.145666], [85.312797, 28.145449], [85.312552, 28.145446], [85.312556, 28.14523], [85.312311, 28.145227], [85.312315, 28.14501], [85.31207, 28.145007], [85.312074, 28.14479], [85.31183, 28.144787], [85.311833, 28.144571], [85.311589, 28.144568], [85.311592, 28.144351], [85.311348, 28.144348], [85.311351, 28.144132], [85.311595, 28.144135], [85.311599, 28.143918], [85.311843, 28.143921], [85.311847, 28.143705], [85.311602, 28.143702], [85.311609, 28.143269], [85.311365, 28.143265], [85.311368, 28.143049], [85.309414, 28.143025], [85.309417, 28.142808], [85.309173, 28.142805], [85.309176, 28.142589], [85.308932, 28.142586], [85.308935, 28.142369], [85.308691, 28.142366], [85.308694, 28.14215], [85.308206, 28.142144], [85.308209, 28.141927], [85.307476, 28.141918], [85.30748, 28.141701], [85.306991, 28.141695], [85.306994, 28.141479], [85.30675, 28.141476], [85.306753, 28.141259], [85.306509, 28.141256], [85.306513, 28.14104], [85.306268, 28.141037], [85.306275, 28.140603], [85.306031, 28.1406], [85.306034, 28.140384], [85.30579, 28.140381], [85.305793, 28.140164], [85.305549, 28.140161], [85.305556, 28.139728], [85.305311, 28.139725], [85.305325, 28.138859], [85.305081, 28.138856], [85.305084, 28.138639], [85.30484, 28.138636], [85.304847, 28.138203], [85.305091, 28.138206], [85.305094, 28.13799], [85.305583, 28.137996], [85.30558, 28.138212], [85.305824, 28.138215], [85.305821, 28.138432], [85.306065, 28.138435], [85.306061, 28.138651], [85.306306, 28.138654], [85.306295, 28.139304], [85.30654, 28.139307], [85.306536, 28.139524], [85.307025, 28.13953], [85.307022, 28.139746], [85.307754, 28.139755], [85.307751, 28.139972], [85.307995, 28.139975], [85.307992, 28.140192], [85.308725, 28.140201], [85.308721, 28.140417], [85.308966, 28.14042], [85.308962, 28.140637], [85.309207, 28.14064], [85.309203, 28.140856], [85.309448, 28.140859], [85.309444, 28.141076], [85.309933, 28.141082], [85.309936, 28.140865], [85.310669, 28.140874], [85.310673, 28.140658], [85.311161, 28.140664], [85.311158, 28.14088], [85.311402, 28.140883], [85.311399, 28.1411], [85.311643, 28.141103], [85.31164, 28.14132], [85.311884, 28.141323], [85.31188, 28.141539], [85.312125, 28.141542], [85.312121, 28.141759], [85.312366, 28.141762], [85.312359, 28.142195], [85.312603, 28.142198], [85.3126, 28.142414], [85.312844, 28.142417], [85.312837, 28.14285], [85.313082, 28.142853], [85.313078, 28.14307], [85.313323, 28.143073], [85.313319, 28.14329], [85.313564, 28.143293], [85.31356, 28.143509], [85.313804, 28.143512], [85.313798, 28.143945], [85.314042, 28.143948], [85.314039, 28.144165], [85.314283, 28.144168], [85.314279, 28.144384], [85.314768, 28.14439], [85.314772, 28.144174], [85.315504, 28.144183], [85.315501, 28.144399], [85.315745, 28.144402], [85.315742, 28.144619], [85.315986, 28.144622], [85.315983, 28.144839], [85.316716, 28.144848], [85.316712, 28.145064], [85.316957, 28.145067], [85.316953, 28.145284], [85.317442, 28.14529], [85.317439, 28.145506], [85.317927, 28.145512], [85.317924, 28.145729], [85.318657, 28.145738], [85.318653, 28.145954], [85.318898, 28.145957], [85.318894, 28.146174], [85.319139, 28.146177], [85.319135, 28.146393], [85.31938, 28.146396], [85.319376, 28.146613], [85.319621, 28.146616], [85.319617, 28.146833], [85.319862, 28.146836], [85.319858, 28.147052], [85.320347, 28.147058], [85.320343, 28.147275], [85.320588, 28.147278], [85.320584, 28.147494], [85.321073, 28.1475], [85.32107, 28.147717], [85.321314, 28.14772], [85.321311, 28.147936], [85.321555, 28.147939], [85.321552, 28.148156], [85.321796, 28.148159], [85.321786, 28.148809], [85.32203, 28.148812], [85.32202, 28.149461], [85.322509, 28.149467], [85.322505, 28.149684], [85.324216, 28.149705], [85.324219, 28.149488], [85.324463, 28.149491], [85.32446, 28.149708], [85.324948, 28.149714], [85.324945, 28.14993], [85.325434, 28.149936], [85.32543, 28.150153], [85.325675, 28.150156], [85.325671, 28.150372], [85.325916, 28.150375], [85.325912, 28.150592], [85.326401, 28.150598], [85.326398, 28.150814], [85.326642, 28.150817], [85.326635, 28.15125], [85.32688, 28.151253], [85.326876, 28.15147], [85.327121, 28.151473], [85.327117, 28.15169], [85.327361, 28.151692], [85.327358, 28.151909], [85.327602, 28.151912], [85.327599, 28.152129], [85.327843, 28.152132], [85.32784, 28.152348], [85.328084, 28.152351], [85.328078, 28.152784], [85.328322, 28.152787], [85.328319, 28.153004], [85.328807, 28.15301], [85.328804, 28.153226], [85.329048, 28.153229], [85.329045, 28.153446], [85.329289, 28.153449], [85.329286, 28.153665], [85.32953, 28.153668], [85.329527, 28.153885], [85.329771, 28.153888], [85.329768, 28.154104], [85.330012, 28.154107], [85.330002, 28.154757], [85.330246, 28.15476], [85.33024, 28.155193], [85.330484, 28.155196], [85.330481, 28.155413], [85.331214, 28.155422], [85.33121, 28.155638], [85.331455, 28.155641], [85.331451, 28.155858], [85.33194, 28.155864], [85.331937, 28.15608], [85.332181, 28.156083], [85.332178, 28.1563], [85.332422, 28.156303], [85.332419, 28.156519], [85.332663, 28.156522], [85.33266, 28.156739], [85.333148, 28.156745], [85.333145, 28.156961], [85.333389, 28.156964], [85.333386, 28.157181], [85.33363, 28.157184], [85.333627, 28.1574], [85.333871, 28.157403], [85.333868, 28.15762], [85.334357, 28.157626], [85.334353, 28.157842], [85.335331, 28.157854], [85.335327, 28.158071], [85.335816, 28.158077], [85.335813, 28.158293], [85.336057, 28.158296], [85.336054, 28.158513], [85.336298, 28.158516], [85.336291, 28.158949], [85.336536, 28.158952], [85.336532, 28.159169], [85.336777, 28.159172], [85.336773, 28.159388], [85.337018, 28.159391], [85.337014, 28.159608], [85.337503, 28.159614], [85.3375, 28.15983], [85.337744, 28.159833], [85.337741, 28.16005], [85.337985, 28.160053], [85.337978, 28.160486], [85.338223, 28.160489], [85.338216, 28.160922], [85.33846, 28.160925], [85.338457, 28.161141], [85.338701, 28.161144], [85.338695, 28.161577], [85.338939, 28.16158], [85.338936, 28.161797], [85.33918, 28.1618], [85.339177, 28.162016], [85.339665, 28.162022], [85.339662, 28.162239], [85.339906, 28.162242], [85.339903, 28.162458], [85.340147, 28.162461], [85.340141, 28.162895], [85.340385, 28.162897], [85.340382, 28.163114], [85.341359, 28.163126], [85.341363, 28.162909], [85.343562, 28.162936], [85.343565, 28.162719], [85.344054, 28.162725], [85.344057, 28.162509], [85.344302, 28.162512], [85.344305, 28.162295], [85.345038, 28.162304], [85.345041, 28.162087], [85.345286, 28.16209], [85.345289, 28.161874], [85.345533, 28.161877], [85.345537, 28.16166], [85.345781, 28.161663], [85.345784, 28.161447], [85.346029, 28.16145], [85.346035, 28.161016], [85.34628, 28.161019], [85.346283, 28.160803], [85.346527, 28.160806], [85.346531, 28.160589], [85.34702, 28.160595], [85.347023, 28.160379], [85.347512, 28.160384], [85.347515, 28.160168], [85.347759, 28.160171], [85.347763, 28.159954], [85.348007, 28.159957], [85.34801, 28.159741], [85.348255, 28.159744], [85.348258, 28.159527], [85.348502, 28.15953], [85.348506, 28.159313], [85.34875, 28.159316], [85.348747, 28.159533], [85.348991, 28.159536], [85.348988, 28.159752], [85.348743, 28.15975], [85.348733, 28.160399], [85.348489, 28.160396], [85.348482, 28.160829], [85.348238, 28.160826], [85.348235, 28.161043], [85.34799, 28.16104], [85.347987, 28.161257], [85.347743, 28.161254], [85.347739, 28.16147], [85.347495, 28.161467], [85.347492, 28.161684], [85.347247, 28.161681], [85.347244, 28.161897], [85.347, 28.161894], [85.346996, 28.162111], [85.346752, 28.162108], [85.346749, 28.162325], [85.346504, 28.162322], [85.346494, 28.162971], [85.34625, 28.162968], [85.346246, 28.163185], [85.345758, 28.163179], [85.345754, 28.163396], [85.345266, 28.16339], [85.345262, 28.163606], [85.344774, 28.1636], [85.344767, 28.164034], [85.344523, 28.164031], [85.344519, 28.164247], [85.344031, 28.164241], [85.344027, 28.164458], [85.343783, 28.164455], [85.34378, 28.164671], [85.343535, 28.164668], [85.343515, 28.165968], [85.34376, 28.165971], [85.343733, 28.167703], [85.343488, 28.1677], [85.343482, 28.168133], [85.343237, 28.16813], [85.343224, 28.168997], [85.343468, 28.169], [85.343418, 28.172248], [85.343663, 28.172251], [85.343626, 28.174633], [85.343382, 28.17463], [85.343368, 28.175496], [85.343613, 28.175499], [85.343603, 28.176149], [85.343358, 28.176146], [85.343355, 28.176363], [85.343599, 28.176366], [85.343569, 28.178315], [85.343814, 28.178318], [85.343787, 28.18005], [85.343543, 28.180047], [85.343529, 28.180913], [85.343285, 28.18091], [85.343278, 28.181343], [85.343523, 28.181346], [85.343519, 28.181563], [85.343764, 28.181566], [85.34376, 28.181782], [85.344005, 28.181785], [85.343998, 28.182219], [85.344242, 28.182222], [85.344239, 28.182438], [85.344484, 28.182441], [85.344474, 28.183091], [85.344718, 28.183094], [85.344708, 28.183743], [85.344952, 28.183746], [85.344946, 28.184179], [85.34519, 28.184182], [85.345183, 28.184615], [85.345428, 28.184618], [85.345421, 28.185052], [85.345666, 28.185054], [85.345662, 28.185271], [85.345907, 28.185274], [85.345903, 28.185491], [85.346148, 28.185494], [85.346144, 28.18571], [85.346389, 28.185713], [85.346385, 28.18593], [85.34663, 28.185933], [85.34662, 28.186582], [85.346864, 28.186585], [85.346858, 28.187018], [85.347102, 28.187021], [85.347095, 28.187454], [85.34734, 28.187457], [85.347333, 28.18789], [85.347578, 28.187893], [85.347574, 28.18811], [85.347819, 28.188113], [85.347815, 28.188329], [85.34806, 28.188332], [85.34805, 28.188982], [85.348294, 28.188985], [85.348284, 28.189635], [85.348529, 28.189638], [85.348525, 28.189854], [85.34877, 28.189857], [85.348766, 28.190074], [85.349011, 28.190077], [85.349004, 28.19051], [85.349249, 28.190513], [85.349242, 28.190946], [85.349486, 28.190949], [85.349473, 28.191815], [85.349717, 28.191818], [85.349711, 28.192251], [85.349955, 28.192254], [85.349952, 28.192471], [85.350196, 28.192474], [85.350186, 28.193123], [85.350431, 28.193126], [85.350424, 28.193559], [85.350669, 28.193562], [85.350662, 28.193995], [85.350906, 28.193998], [85.3509, 28.194431], [85.351144, 28.194434], [85.351137, 28.194867], [85.350893, 28.194865], [85.35089, 28.195081], [85.351134, 28.195084], [85.351131, 28.195301], [85.350886, 28.195298], [85.35088, 28.195731], [85.351124, 28.195734], [85.351118, 28.196167], [85.351362, 28.19617], [85.351355, 28.196603], [85.3516, 28.196606], [85.351596, 28.196822], [85.351841, 28.196825], [85.351838, 28.197042], [85.352082, 28.197045], [85.352079, 28.197261], [85.352323, 28.197264], [85.35232, 28.197481], [85.352564, 28.197484], [85.352558, 28.197917], [85.352802, 28.19792], [85.352795, 28.198353], [85.35304, 28.198356], [85.353033, 28.198789], [85.353278, 28.198792], [85.353271, 28.199225], [85.353515, 28.199228], [85.353502, 28.200094], [85.353747, 28.200097], [85.353743, 28.200314], [85.353988, 28.200317], [85.353981, 28.20075], [85.353737, 28.200747], [85.35372, 28.20183], [85.353964, 28.201833], [85.353951, 28.202699], [85.354196, 28.202702], [85.354186, 28.203352], [85.35443, 28.203354], [85.354423, 28.203788], [85.354668, 28.203791], [85.354665, 28.204007], [85.354909, 28.20401], [85.354906, 28.204227], [85.35515, 28.20423], [85.355144, 28.204663], [85.355388, 28.204666], [85.355381, 28.205099], [85.355626, 28.205102], [85.355623, 28.205318], [85.355867, 28.205321], [85.355864, 28.205538], [85.356108, 28.205541], [85.356062, 28.208572], [85.355817, 28.20857], [85.355807, 28.209219], [85.355563, 28.209216], [85.35556, 28.209433], [85.355804, 28.209436], [85.355791, 28.210302], [85.355546, 28.210299], [85.355543, 28.210516], [85.355787, 28.210519], [85.355784, 28.210735], [85.35554, 28.210732], [85.355536, 28.210949], [85.355292, 28.210946], [85.355285, 28.211379], [85.35553, 28.211382], [85.355526, 28.211598], [85.355771, 28.211601], [85.355761, 28.212251], [85.355516, 28.212248], [85.3555, 28.213331], [85.355744, 28.213334], [85.355741, 28.21355], [85.355496, 28.213547], [85.355483, 28.214414], [85.355728, 28.214417], [85.355721, 28.21485], [85.355477, 28.214847], [85.355463, 28.215713], [85.355708, 28.215716], [85.355704, 28.215933], [85.355949, 28.215935], [85.355942, 28.216369], [85.356187, 28.216372], [85.356177, 28.217021], [85.356421, 28.217024], [85.356415, 28.217457], [85.356659, 28.21746], [85.356653, 28.217893], [85.356897, 28.217896], [85.356887, 28.218546], [85.357132, 28.218549], [85.357125, 28.218982], [85.357369, 28.218985], [85.357366, 28.219201], [85.357611, 28.219204], [85.357607, 28.219421], [85.357363, 28.219418], [85.357359, 28.219635], [85.356871, 28.219629]]]}, "properties": {"prob_class": "P>=0.1", "depth_m": 2.0, "members": 40}}, {"type": "Feature", "geometry": {"type": "Polygon", "coordinates": [[[85.356395, 28.218757], [85.356398, 28.21854], [85.356154, 28.218537], [85.35616, 28.218104], [85.355916, 28.218101], [85.355919, 28.217885], [85.355675, 28.217882], [85.355678, 28.217665], [85.355433, 28.217662], [85.355437, 28.217446], [85.355192, 28.217443], [85.355196, 28.217226], [85.354951, 28.217223], [85.354954, 28.217007], [85.35471, 28.217004], [85.354713, 28.216787], [85.354469, 28.216784], [85.354485, 28.215701], [85.354241, 28.215698], [85.354264, 28.214182], [85.35402, 28.214179], [85.354023, 28.213963], [85.354267, 28.213966], [85.354274, 28.213533], [85.35403, 28.21353], [85.354033, 28.213313], [85.354277, 28.213316], [85.354287, 28.212667], [85.354043, 28.212664], [85.354046, 28.212447], [85.353802, 28.212444], [85.353812, 28.211794], [85.353323, 28.211789], [85.353326, 28.211572], [85.353082, 28.211569], [85.353092, 28.210919], [85.352847, 28.210916], [85.352867, 28.209617], [85.353112, 28.20962], [85.353118, 28.209187], [85.352874, 28.209184], [85.35289, 28.208101], [85.353135, 28.208104], [85.353138, 28.207888], [85.353383, 28.20789], [85.353386, 28.207674], [85.35363, 28.207677], [85.353627, 28.207893], [85.353871, 28.207896], [85.353881, 28.207247], [85.354126, 28.20725], [85.354133, 28.206816], [85.353888, 28.206814], [85.353885, 28.20703], [85.353396, 28.207024], [85.353399, 28.206808], [85.353155, 28.206805], [85.353158, 28.206588], [85.353403, 28.206591], [85.353412, 28.205941], [85.353657, 28.205944], [85.35367, 28.205078], [85.353426, 28.205075], [85.353432, 28.204642], [85.353188, 28.204639], [85.353191, 28.204423], [85.352947, 28.20442], [85.35295, 28.204203], [85.352706, 28.2042], [85.352716, 28.20355], [85.352471, 28.203548], [85.352478, 28.203114], [85.352233, 28.203111], [85.352243, 28.202462], [85.351999, 28.202459], [85.352016, 28.201376], [85.351771, 28.201373], [85.351778, 28.20094], [85.352022, 28.200943], [85.352039, 28.19986], [85.351794, 28.199857], [85.351801, 28.199424], [85.351557, 28.199421], [85.351563, 28.198988], [85.351319, 28.198985], [85.351325, 28.198552], [85.351081, 28.198549], [85.351088, 28.198116], [85.350843, 28.198113], [85.35085, 28.19768], [85.350605, 28.197677], [85.350609, 28.19746], [85.350364, 28.197457], [85.350368, 28.197241], [85.349879, 28.197235], [85.349882, 28.197018], [85.349638, 28.197015], [85.349641, 28.196799], [85.349396, 28.196796], [85.349413, 28.195713], [85.349169, 28.19571], [85.349179, 28.19506], [85.348934, 28.195058], [85.348948, 28.194191], [85.348703, 28.194188], [85.34871, 28.193755], [85.348465, 28.193752], [85.348475, 28.193103], [85.348231, 28.1931], [85.348238, 28.192667], [85.347993, 28.192664], [85.348003, 28.192014], [85.347759, 28.192011], [85.347769, 28.191361], [85.347524, 28.191358], [85.347528, 28.191142], [85.347283, 28.191139], [85.34729, 28.190706], [85.347045, 28.190703], [85.347052, 28.19027], [85.346808, 28.190267], [85.346811, 28.19005], [85.346567, 28.190047], [85.34657, 28.189831], [85.346325, 28.189828], [85.346329, 28.189611], [85.346084, 28.189608], [85.346088, 28.189392], [85.345843, 28.189389], [85.345857, 28.188522], [85.345612, 28.188519], [85.345619, 28.188086], [85.345374, 28.188083], [85.345384, 28.187434], [85.34514, 28.187431], [85.34515, 28.186781], [85.344906, 28.186778], [85.344912, 28.186345], [85.344668, 28.186342], [85.344671, 28.186125], [85.344427, 28.186123], [85.34443, 28.185906], [85.344186, 28.185903], [85.344192, 28.18547], [85.343948, 28.185467], [85.343955, 28.185034], [85.34371, 28.185031], [85.343714, 28.184814], [85.343469, 28.184811], [85.343479, 28.184162], [85.343235, 28.184159], [85.343241, 28.183726], [85.342997, 28.183723], [85.343, 28.183506], [85.342756, 28.183503], [85.342759, 28.183287], [85.342515, 28.183284], [85.342522, 28.18285], [85.342277, 28.182848], [85.342281, 28.182631], [85.342036, 28.182628], [85.342039, 28.182411], [85.341551, 28.182406], [85.341547, 28.182622], [85.341059, 28.182616], [85.341055, 28.182833], [85.339589, 28.182815], [85.339585, 28.183031], [85.338852, 28.183023], [85.338856, 28.182806], [85.338611, 28.182803], [85.338614, 28.182587], [85.338126, 28.182581], [85.338129, 28.182364], [85.337885, 28.182361], [85.337891, 28.181928], [85.338136, 28.181931], [85.338139, 28.181714], [85.33985, 28.181735], [85.339853, 28.181519], [85.340342, 28.181524], [85.340345, 28.181308], [85.34059, 28.181311], [85.340593, 28.181094], [85.340838, 28.181097], [85.340841, 28.180881], [85.341085, 28.180884], [85.341089, 28.180667], [85.341333, 28.18067], [85.341336, 28.180454], [85.341581, 28.180456], [85.341587, 28.180023], [85.341832, 28.180026], [85.341842, 28.179377], [85.342086, 28.17938], [85.342136, 28.176131], [85.341892, 28.176128], [85.341905, 28.175262], [85.34215, 28.175265], [85.342186, 28.172883], [85.341942, 28.17288], [85.341945, 28.172663], [85.34219, 28.172666], [85.342196, 28.172233], [85.341952, 28.17223], [85.341992, 28.169632], [85.341748, 28.169629], [85.341791, 28.166813], [85.342036, 28.166816], [85.342046, 28.166167], [85.341801, 28.166164], [85.341805, 28.165947], [85.34156, 28.165944], [85.341564, 28.165728], [85.341075, 28.165722], [85.341078, 28.165505], [85.340589, 28.165499], [85.340593, 28.165283], [85.340104, 28.165277], [85.340107, 28.16506], [85.338886, 28.165045], [85.338889, 28.164829], [85.3384, 28.164823], [85.338404, 28.164606], [85.33767, 28.164597], [85.337674, 28.164381], [85.337429, 28.164378], [85.337433, 28.164161], [85.337188, 28.164158], [85.337192, 28.163942], [85.336947, 28.163939], [85.336951, 28.163722], [85.336706, 28.163719], [85.336723, 28.162636], [85.336479, 28.162633], [85.336485, 28.1622], [85.336241, 28.162197], [85.336248, 28.161764], [85.336003, 28.161761], [85.336007, 28.161545], [85.335762, 28.161542], [85.335769, 28.161109], [85.335525, 28.161106], [85.335531, 28.160673], [85.335287, 28.16067], [85.335301, 28.159803], [85.335056, 28.1598], [85.33506, 28.159584], [85.334815, 28.159581], [85.334819, 28.159364], [85.33433, 28.159358], [85.334333, 28.159142], [85.333111, 28.159127], [85.333115, 28.15891], [85.33287, 28.158907], [85.332874, 28.158691], [85.332629, 28.158688], [85.332633, 28.158471], [85.332144, 28.158465], [85.332147, 28.158249], [85.331903, 28.158246], [85.331913, 28.157596], [85.33118, 28.157587], [85.331183, 28.157371], [85.330939, 28.157368], [85.330942, 28.157151], [85.330698, 28.157148], [85.330702, 28.156932], [85.330457, 28.156929], [85.330461, 28.156712], [85.330216, 28.156709], [85.33022, 28.156493], [85.329731, 28.156487], [85.329734, 28.15627], [85.329246, 28.156264], [85.329249, 28.156048], [85.329005, 28.156045], [85.329011, 28.155611], [85.328767, 28.155608], [85.32877, 28.155392], [85.328526, 28.155389], [85.328529, 28.155172], [85.328285, 28.155169], [85.328288, 28.154953], [85.328044, 28.15495], [85.328047, 28.154733], [85.327803, 28.15473], [85.327806, 28.154514], [85.327562, 28.154511], [85.327565, 28.154294], [85.327321, 28.154291], [85.327324, 28.154075], [85.326836, 28.154069], [85.326839, 28.153852], [85.326595, 28.153849], [85.326598, 28.153633], [85.326354, 28.15363], [85.326357, 28.153413], [85.326113, 28.15341], [85.32612, 28.152977], [85.325631, 28.152971], [85.325634, 28.152754], [85.32539, 28.152751], [85.325393, 28.152535], [85.325149, 28.152532], [85.325152, 28.152315], [85.324908, 28.152312], [85.324911, 28.152096], [85.324667, 28.152093], [85.32467, 28.151876], [85.324426, 28.151873], [85.324436, 28.151224], [85.323948, 28.151218], [85.323944, 28.151434], [85.323211, 28.151425], [85.323215, 28.151209], [85.322726, 28.151203], [85.322729, 28.150986], [85.321508, 28.150971], [85.321511, 28.150755], [85.321267, 28.150752], [85.32127, 28.150535], [85.321026, 28.150532], [85.321029, 28.150315], [85.320785, 28.150312], [85.320788, 28.150096], [85.320544, 28.150093], [85.320547, 28.149876], [85.320303, 28.149873], [85.32031, 28.14944], [85.318844, 28.149422], [85.318847, 28.149206], [85.318603, 28.149203], [85.318606, 28.148986], [85.31885, 28.148989], [85.318854, 28.148773], [85.318609, 28.14877], [85.318613, 28.148553], [85.318124, 28.148547], [85.318128, 28.14833], [85.317883, 28.148327], [85.317887, 28.148111], [85.317154, 28.148102], [85.317157, 28.147885], [85.316913, 28.147882], [85.316916, 28.147666], [85.316672, 28.147663], [85.316675, 28.147446], [85.316431, 28.147443], [85.316434, 28.147227], [85.315946, 28.147221], [85.315949, 28.147004], [85.31546, 28.146998], [85.315464, 28.146782], [85.314975, 28.146776], [85.314979, 28.146559], [85.31449, 28.146553], [85.314493, 28.146336], [85.314249, 28.146333], [85.314252, 28.146117], [85.313519, 28.146108], [85.313523, 28.145891], [85.313034, 28.145885], [85.313038, 28.145669], [85.312793, 28.145666], [85.312797, 28.145449], [85.312552, 28.145446], [85.312559, 28.145013], [85.312315, 28.14501], [85.312318, 28.144793], [85.31183, 28.144787], [85.311833, 28.144571], [85.311589, 28.144568], [85.311595, 28.144135], [85.31184, 28.144138], [85.31185, 28.143488], [85.311606, 28.143485], [85.311612, 28.143052], [85.311368, 28.143049], [85.311371, 28.142832], [85.310883, 28.142826], [85.310879, 28.143043], [85.310391, 28.143037], [85.310394, 28.14282], [85.31015, 28.142817], [85.310147, 28.143034], [85.309658, 28.143028], [85.309661, 28.142811], [85.309417, 28.142808], [85.30942, 28.142592], [85.308932, 28.142586], [85.308935, 28.142369], [85.308691, 28.142366], [85.308694, 28.14215], [85.30845, 28.142147], [85.308453, 28.14193], [85.30772, 28.141921], [85.307724, 28.141704], [85.307235, 28.141698], [85.307239, 28.141482], [85.30675, 28.141476], [85.306753, 28.141259], [85.306509, 28.141256], [85.306516, 28.140823], [85.306272, 28.14082], [85.306275, 28.140603], [85.306031, 28.1406], [85.306034, 28.140384], [85.30579, 28.140381], [85.305797, 28.139948], [85.305552, 28.139945], [85.305559, 28.139512], [85.305315, 28.139509], [85.305325, 28.138859], [85.305081, 28.138856], [85.305088, 28.138423], [85.304843, 28.13842], [85.304847, 28.138203], [85.305091, 28.138206], [85.305094, 28.13799], [85.305583, 28.137996], [85.30558, 28.138212], [85.305824, 28.138215], [85.305821, 28.138432], [85.306065, 28.138435], [85.306061, 28.138651], [85.306306, 28.138654], [85.306295, 28.139304], [85.30654, 28.139307], [85.306536, 28.139524], [85.306781, 28.139527], [85.306777, 28.139743], [85.307266, 28.139749], [85.307262, 28.139966], [85.307751, 28.139972], [85.307748, 28.140188], [85.308481, 28.140198], [85.308477, 28.140414], [85.308721, 28.140417], [85.308718, 28.140634], [85.308962, 28.140637], [85.308959, 28.140853], [85.309203, 28.140856], [85.3092, 28.141073], [85.310666, 28.141091], [85.310669, 28.140874], [85.311158, 28.14088], [85.311154, 28.141097], [85.311643, 28.141103], [85.31164, 28.14132], [85.311884, 28.141323], [85.31188, 28.141539], [85.312125, 28.141542], [85.312118, 28.141975], [85.312362, 28.141978], [85.312359, 28.142195], [85.312603, 28.142198], [85.312596, 28.142631], [85.312841, 28.142634], [85.312837, 28.14285], [85.313082, 28.142853], [85.313078, 28.14307], [85.313323, 28.143073], [85.313316, 28.143506], [85.31356, 28.143509], [85.313557, 28.143726], [85.313801, 28.143729], [85.313798, 28.143945], [85.314042, 28.143948], [85.314039, 28.144165], [85.314283, 28.144168], [85.314279, 28.144384], [85.314524, 28.144387], [85.31452, 28.144604], [85.315009, 28.14461], [85.315012, 28.144393], [85.315745, 28.144402], [85.315742, 28.144619], [85.315986, 28.144622], [85.315983, 28.144839], [85.316227, 28.144842], [85.316224, 28.145058], [85.316712, 28.145064], [85.316709, 28.145281], [85.317198, 28.145287], [85.317194, 28.145503], [85.317439, 28.145506], [85.317435, 28.145723], [85.317924, 28.145729], [85.317921, 28.145945], [85.318653, 28.145954], [85.31865, 28.146171], [85.318894, 28.146174], [85.318891, 28.14639], [85.319135, 28.146393], [85.319132, 28.14661], [85.319376, 28.146613], [85.319373, 28.14683], [85.319617, 28.146833], [85.319614, 28.147049], [85.319858, 28.147052], [85.319855, 28.147269], [85.320343, 28.147275], [85.32034, 28.147491], [85.320584, 28.147494], [85.320581, 28.147711], [85.32107, 28.147717], [85.321066, 28.147933], [85.321311, 28.147936], [85.321307, 28.148153], [85.321552, 28.148156], [85.321541, 28.148806], [85.321786, 28.148809], [85.321779, 28.149242], [85.322023, 28.149245], [85.32202, 28.149461], [85.322264, 28.149464], [85.322261, 28.149681], [85.322505, 28.149684], [85.322502, 28.1499], [85.324945, 28.14993], [85.324942, 28.150147], [85.32543, 28.150153], [85.325427, 28.150369], [85.325671, 28.150372], [85.325668, 28.150589], [85.325912, 28.150592], [85.325909, 28.150808], [85.326153, 28.150811], [85.32615, 28.151028], [85.326394, 28.151031], [85.326391, 28.151247], [85.326635, 28.15125], [85.326632, 28.151467], [85.326876, 28.15147], [85.326873, 28.151687], [85.327117, 28.15169], [85.327114, 28.151906], [85.327358, 28.151909], [85.327351, 28.152342], [85.327596, 28.152345], [85.327592, 28.152562], [85.327837, 28.152565], [85.327833, 28.152781], [85.328322, 28.152787], [85.328319, 28.153004], [85.328563, 28.153007], [85.32856, 28.153223], [85.328804, 28.153226], [85.328801, 28.153443], [85.329045, 28.153446], [85.329042, 28.153662], [85.329286, 28.153665], [85.329283, 28.153882], [85.329527, 28.153885], [85.329523, 28.154101], [85.329768, 28.154104], [85.329761, 28.154538], [85.330005, 28.154541], [85.329999, 28.154974], [85.330243, 28.154977], [85.33024, 28.155193], [85.330484, 28.155196], [85.330481, 28.155413], [85.330725, 28.155416], [85.330722, 28.155632], [85.33121, 28.155638], [85.331207, 28.155855], [85.331696, 28.155861], [85.331692, 28.156077], [85.331937, 28.15608], [85.331933, 28.156297], [85.332422, 28.156303], [85.332419, 28.156519], [85.332663, 28.156522], [85.33266, 28.156739], [85.332904, 28.156742], [85.332901, 28.156958], [85.333145, 28.156961], [85.333142, 28.157178], [85.333386, 28.157181], [85.333383, 28.157397], [85.333627, 28.1574], [85.333624, 28.157617], [85.334112, 28.157623], [85.334109, 28.157839], [85.334598, 28.157845], [85.334594, 28.158062], [85.335327, 28.158071], [85.335324, 28.158287], [85.335568, 28.15829], [85.335565, 28.158507], [85.335809, 28.15851], [85.335806, 28.158727], [85.33605, 28.158729], [85.336047, 28.158946], [85.336291, 28.158949], [85.336288, 28.159166], [85.336532, 28.159169], [85.336529, 28.159385], [85.337018, 28.159391], [85.337014, 28.159608], [85.337259, 28.159611], [85.337255, 28.159827], [85.337744, 28.159833], [85.337741, 28.16005], [85.337985, 28.160053], [85.337978, 28.160486], [85.338223, 28.160489], [85.338216, 28.160922], [85.33846, 28.160925], [85.338454, 28.161358], [85.338698, 28.161361], [85.338691, 28.161794], [85.338936, 28.161797], [85.338932, 28.162013], [85.339421, 28.162019], [85.339418, 28.162236], [85.339662, 28.162239], [85.339659, 28.162455], [85.339903, 28.162458], [85.3399, 28.162675], [85.340144, 28.162678], [85.340141, 28.162895], [85.340385, 28.162897], [85.340382, 28.163114], [85.340626, 28.163117], [85.340623, 28.163334], [85.341112, 28.163339], [85.341115, 28.163123], [85.341848, 28.163132], [85.341851, 28.162915], [85.342829, 28.162927], [85.342825, 28.163144], [85.343559, 28.163153], [85.343562, 28.162936], [85.343806, 28.162939], [85.34381, 28.162722], [85.344298, 28.162728], [85.344302, 28.162512], [85.34479, 28.162518], [85.344794, 28.162301], [85.345282, 28.162307], [85.345286, 28.16209], [85.34553, 28.162093], [85.345533, 28.161877], [85.345778, 28.16188], [85.345781, 28.161663], [85.346025, 28.161666], [85.346032, 28.161233], [85.346276, 28.161236], [85.34628, 28.161019], [85.346524, 28.161022], [85.346527, 28.160806], [85.346772, 28.160809], [85.346775, 28.160592], [85.347508, 28.160601], [85.347512, 28.160384], [85.347756, 28.160387], [85.347759, 28.160171], [85.348004, 28.160174], [85.348007, 28.159957], [85.348251, 28.15996], [85.348248, 28.160177], [85.348492, 28.16018], [85.348486, 28.160613], [85.348241, 28.16061], [85.348235, 28.161043], [85.34799, 28.16104], [85.347987, 28.161257], [85.347498, 28.161251], [85.347495, 28.161467], [85.347251, 28.161464], [85.347247, 28.161681], [85.347003, 28.161678], [85.347, 28.161894], [85.346755, 28.161892], [85.346749, 28.162325], [85.346504, 28.162322], [85.346497, 28.162755], [85.346253, 28.162752], [85.34625, 28.162968], [85.345761, 28.162963], [85.345758, 28.163179], [85.345513, 28.163176], [85.34551, 28.163393], [85.345021, 28.163387], [85.345018, 28.163603], [85.344774, 28.1636], [85.34477, 28.163817], [85.344526, 28.163814], [85.344523, 28.164031], [85.344278, 28.164028], [85.344275, 28.164244], [85.344031, 28.164241], [85.344027, 28.164458], [85.343538, 28.164452], [85.343532, 28.164885], [85.343287, 28.164882], [85.343274, 28.165748], [85.343518, 28.165751], [85.343515, 28.165968], [85.34376, 28.165971], [85.343739, 28.16727], [85.343495, 28.167267], [85.343488, 28.1677], [85.343244, 28.167697], [85.343237, 28.16813], [85.342993, 28.168127], [85.342983, 28.168777], [85.343227, 28.16878], [85.343214, 28.169646], [85.343458, 28.169649], [85.343432, 28.171382], [85.343187, 28.171379], [85.343174, 28.172245], [85.343418, 28.172248], [85.343398, 28.173547], [85.343643, 28.17355], [85.343639, 28.173767], [85.343395, 28.173764], [85.343365, 28.175713], [85.343609, 28.175716], [85.343606, 28.175932], [85.343362, 28.175929], [85.343342, 28.177229], [85.343586, 28.177232], [85.343579, 28.177665], [85.343335, 28.177662], [85.343322, 28.178528], [85.343566, 28.178531], [85.343556, 28.179181], [85.3438, 28.179184], [85.34379, 28.179833], [85.343546, 28.17983], [85.343539, 28.180264], [85.343295, 28.180261], [85.343275, 28.18156], [85.343519, 28.181563], [85.343516, 28.18178], [85.34376, 28.181782], [85.343757, 28.181999], [85.344001, 28.182002], [85.343995, 28.182435], [85.344239, 28.182438], [85.344236, 28.182655], [85.34448, 28.182658], [85.344474, 28.183091], [85.344718, 28.183094], [85.344708, 28.183743], [85.344952, 28.183746], [85.344946, 28.184179], [85.34519, 28.184182], [85.345183, 28.184615], [85.345428, 28.184618], [85.345421, 28.185052], [85.345666, 28.185054], [85.345662, 28.185271], [85.345907, 28.185274], [85.345903, 28.185491], [85.346148, 28.185494], [85.346144, 28.18571], [85.346389, 28.185713], [85.346385, 28.18593], [85.34663, 28.185933], [85.34662, 28.186582], [85.346864, 28.186585], [85.346858, 28.187018], [85.347102, 28.187021], [85.347089, 28.187887], [85.347333, 28.18789], [85.34733, 28.188107], [85.347574, 28.18811], [85.347571, 28.188326], [85.347815, 28.188329], [85.347809, 28.188763], [85.348053, 28.188766], [85.348046, 28.189199], [85.348291, 28.189202], [85.348281, 28.189851], [85.348525, 28.189854], [85.348522, 28.190071], [85.348766, 28.190074], [85.348763, 28.19029], [85.349007, 28.190293], [85.349001, 28.190726], [85.349245, 28.190729], [85.349235, 28.191379], [85.34948, 28.191382], [85.34947, 28.192032], [85.349714, 28.192035], [85.349707, 28.192468], [85.349952, 28.192471], [85.349942, 28.19312], [85.350186, 28.193123], [85.350183, 28.19334], [85.350427, 28.193343], [85.350421, 28.193776], [85.350665, 28.193779], [85.350662, 28.193995], [85.350906, 28.193998], [85.3509, 28.194431], [85.351144, 28.194434], [85.351141, 28.194651], [85.350896, 28.194648], [85.35088, 28.195731], [85.351124, 28.195734], [85.351114, 28.196383], [85.351359, 28.196386], [85.351355, 28.196603], [85.3516, 28.196606], [85.351596, 28.196822], [85.351841, 28.196825], [85.351838, 28.197042], [85.352082, 28.197045], [85.352079, 28.197261], [85.352323, 28.197264], [85.352316, 28.197697], [85.352561, 28.1977], [85.352554, 28.198134], [85.352799, 28.198136], [85.352792, 28.19857], [85.353036, 28.198573], [85.35303, 28.199006], [85.353274, 28.199009], [85.353268, 28.199442], [85.353512, 28.199445], [85.353502, 28.200094], [85.353747, 28.200097], [85.353737, 28.200747], [85.353492, 28.200744], [85.353482, 28.201394], [85.353727, 28.201397], [85.353717, 28.202046], [85.353961, 28.202049], [85.353945, 28.203132], [85.354189, 28.203135], [85.354182, 28.203568], [85.354427, 28.203571], [85.354423, 28.203788], [85.354668, 28.203791], [85.354665, 28.204007], [85.354909, 28.20401], [85.354902, 28.204443], [85.355147, 28.204446], [85.35514, 28.204879], [85.355385, 28.204882], [85.355381, 28.205099], [85.355626, 28.205102], [85.355623, 28.205318], [85.355867, 28.205321], [85.355864, 28.205538], [85.356108, 28.205541], [85.356065, 28.208356], [85.355821, 28.208353], [85.355814, 28.208786], [85.355569, 28.208783], [85.35556, 28.209433], [85.355804, 28.209436], [85.355794, 28.210085], [85.35555, 28.210083], [85.355543, 28.210516], [85.355787, 28.210519], [85.355784, 28.210735], [85.35554, 28.210732], [85.355536, 28.210949], [85.355047, 28.210943], [85.355041, 28.211376], [85.35553, 28.211382], [85.355526, 28.211598], [85.355771, 28.211601], [85.355764, 28.212034], [85.35552, 28.212032], [85.355516, 28.212248], [85.355272, 28.212245], [85.355269, 28.212462], [85.355513, 28.212465], [85.35546, 28.21593], [85.355704, 28.215933], [85.355698, 28.216366], [85.355942, 28.216369], [85.355939, 28.216585], [85.356183, 28.216588], [85.356174, 28.217238], [85.356418, 28.217241], [85.356411, 28.217674], [85.356656, 28.217677], [85.356646, 28.218326], [85.35689, 28.218329], [85.356887, 28.218546], [85.356643, 28.218543], [85.356639, 28.21876], [85.356395, 28.218757]]]}, "properties": {"prob_class": "P>=0.5", "depth_m": 2.0, "members": 40}}, {"type": "Feature", "geometry": {"type": "Polygon", "coordinates": [[[85.356157, 28.218321], [85.35616, 28.218104], [85.355916, 28.218101], [85.355919, 28.217885], [85.355675, 28.217882], [85.355678, 28.217665], [85.355433, 28.217662], [85.355437, 28.217446], [85.355192, 28.217443], [85.355196, 28.217226], [85.354951, 28.217223], [85.354958, 28.21679], [85.354713, 28.216787], [85.354717, 28.21657], [85.354472, 28.216568], [85.354492, 28.215268], [85.354248, 28.215265], [85.354291, 28.21245], [85.354046, 28.212447], [85.354056, 28.211797], [85.353812, 28.211794], [85.353815, 28.211578], [85.353326, 28.211572], [85.353329, 28.211355], [85.353085, 28.211352], [85.353102, 28.21027], [85.352857, 28.210267], [85.352864, 28.209834], [85.353108, 28.209837], [85.353118, 28.209187], [85.352874, 28.209184], [85.352877, 28.208967], [85.353121, 28.20897], [85.353138, 28.207888], [85.353383, 28.20789], [85.353386, 28.207674], [85.35363, 28.207677], [85.353627, 28.207893], [85.353871, 28.207896], [85.353875, 28.20768], [85.354119, 28.207683], [85.354123, 28.207466], [85.353878, 28.207463], [85.353881, 28.207247], [85.354126, 28.20725], [85.354136, 28.2066], [85.353891, 28.206597], [85.353888, 28.206814], [85.353644, 28.206811], [85.353647, 28.206594], [85.353403, 28.206591], [85.353412, 28.205941], [85.353657, 28.205944], [85.35366, 28.205728], [85.353905, 28.205731], [85.353911, 28.205298], [85.353667, 28.205295], [85.353674, 28.204862], [85.353429, 28.204859], [85.353432, 28.204642], [85.353188, 28.204639], [85.353195, 28.204206], [85.35295, 28.204203], [85.352953, 28.203987], [85.352709, 28.203984], [85.352719, 28.203334], [85.352475, 28.203331], [85.352484, 28.202681], [85.35224, 28.202678], [85.352247, 28.202245], [85.352002, 28.202242], [85.352042, 28.199644], [85.351798, 28.199641], [85.351804, 28.199207], [85.35156, 28.199205], [85.351567, 28.198771], [85.351322, 28.198768], [85.351329, 28.198335], [85.351084, 28.198332], [85.351091, 28.197899], [85.350846, 28.197896], [85.350853, 28.197463], [85.350609, 28.19746], [85.350612, 28.197244], [85.350123, 28.197238], [85.350126, 28.197021], [85.349882, 28.197018], [85.349885, 28.196802], [85.349641, 28.196799], [85.349654, 28.195933], [85.34941, 28.19593], [85.34942, 28.19528], [85.349175, 28.195277], [85.349189, 28.194411], [85.348944, 28.194408], [85.348951, 28.193975], [85.348706, 28.193972], [85.348713, 28.193539], [85.348469, 28.193536], [85.348479, 28.192886], [85.348234, 28.192883], [85.348244, 28.192233], [85.348, 28.19223], [85.348006, 28.191797], [85.347762, 28.191794], [85.347769, 28.191361], [85.347524, 28.191358], [85.347531, 28.190925], [85.347286, 28.190922], [85.347293, 28.190489], [85.347049, 28.190486], [85.347055, 28.190053], [85.346811, 28.19005], [85.346814, 28.189834], [85.34657, 28.189831], [85.346573, 28.189614], [85.346329, 28.189611], [85.346332, 28.189395], [85.346088, 28.189392], [85.346098, 28.188742], [85.345853, 28.188739], [85.34586, 28.188306], [85.345616, 28.188303], [85.345622, 28.18787], [85.345378, 28.187867], [85.345388, 28.187217], [85.345143, 28.187214], [85.345153, 28.186564], [85.344909, 28.186562], [85.344916, 28.186128], [85.344671, 28.186125], [85.344675, 28.185909], [85.34443, 28.185906], [85.344433, 28.185689], [85.344189, 28.185686], [85.344196, 28.185253], [85.343951, 28.18525], [85.343958, 28.184817], [85.343714, 28.184814], [85.343717, 28.184598], [85.343473, 28.184595], [85.343483, 28.183945], [85.343238, 28.183942], [85.343245, 28.183509], [85.343, 28.183506], [85.343004, 28.18329], [85.342759, 28.183287], [85.342763, 28.18307], [85.342518, 28.183067], [85.342522, 28.18285], [85.342277, 28.182848], [85.342284, 28.182414], [85.341306, 28.182403], [85.341303, 28.182619], [85.34057, 28.18261], [85.340566, 28.182827], [85.340078, 28.182821], [85.340081, 28.182604], [85.339103, 28.182592], [85.339107, 28.182376], [85.338862, 28.182373], [85.338866, 28.182156], [85.338621, 28.182153], [85.338625, 28.181937], [85.338869, 28.18194], [85.338872, 28.181723], [85.340583, 28.181744], [85.340586, 28.181527], [85.340831, 28.18153], [85.340834, 28.181314], [85.341079, 28.181317], [85.341085, 28.180884], [85.34133, 28.180887], [85.341333, 28.18067], [85.341577, 28.180673], [85.341584, 28.18024], [85.341828, 28.180243], [85.341835, 28.17981], [85.34208, 28.179813], [85.34223, 28.170068], [85.341985, 28.170065], [85.341999, 28.169198], [85.341754, 28.169195], [85.341781, 28.167463], [85.342026, 28.167466], [85.342039, 28.1666], [85.342283, 28.166603], [85.342287, 28.166386], [85.342042, 28.166383], [85.342049, 28.16595], [85.341805, 28.165947], [85.341808, 28.165731], [85.341319, 28.165725], [85.341323, 28.165508], [85.340834, 28.165502], [85.340837, 28.165286], [85.340348, 28.16528], [85.340352, 28.165063], [85.339619, 28.165054], [85.339622, 28.164838], [85.338645, 28.164826], [85.338648, 28.164609], [85.338159, 28.164603], [85.338162, 28.164387], [85.337674, 28.164381], [85.337677, 28.164164], [85.337433, 28.164161], [85.337436, 28.163945], [85.337192, 28.163942], [85.337195, 28.163725], [85.336951, 28.163722], [85.336964, 28.162856], [85.33672, 28.162853], [85.336726, 28.16242], [85.336482, 28.162417], [85.336492, 28.161767], [85.336248, 28.161764], [85.336254, 28.161331], [85.33601, 28.161328], [85.33602, 28.160679], [85.335776, 28.160676], [85.335783, 28.160242], [85.335538, 28.160239], [85.335545, 28.159806], [85.335301, 28.159803], [85.335304, 28.159587], [85.33506, 28.159584], [85.335063, 28.159367], [85.334574, 28.159361], [85.334578, 28.159145], [85.333356, 28.15913], [85.333359, 28.158913], [85.333115, 28.15891], [85.333118, 28.158694], [85.332874, 28.158691], [85.332877, 28.158474], [85.332388, 28.158468], [85.332392, 28.158252], [85.332147, 28.158249], [85.332151, 28.158032], [85.331906, 28.158029], [85.331913, 28.157596], [85.33118, 28.157587], [85.331183, 28.157371], [85.330939, 28.157368], [85.330942, 28.157151], [85.330698, 28.157148], [85.330702, 28.156932], [85.330457, 28.156929], [85.330461, 28.156712], [85.330216, 28.156709], [85.33022, 28.156493], [85.329975, 28.15649], [85.329979, 28.156273], [85.32949, 28.156267], [85.329493, 28.15605], [85.329249, 28.156048], [85.329252, 28.155831], [85.329008, 28.155828], [85.329011, 28.155611], [85.328767, 28.155608], [85.32877, 28.155392], [85.328526, 28.155389], [85.328529, 28.155172], [85.328285, 28.155169], [85.328288, 28.154953], [85.328044, 28.15495], [85.328047, 28.154733], [85.327803, 28.15473], [85.32781, 28.154297], [85.327565, 28.154294], [85.327569, 28.154078], [85.32708, 28.154072], [85.327083, 28.153855], [85.326839, 28.153852], [85.326843, 28.153636], [85.326598, 28.153633], [85.326602, 28.153416], [85.326357, 28.153413], [85.326364, 28.15298], [85.32612, 28.152977], [85.326123, 28.15276], [85.325634, 28.152754], [85.325638, 28.152538], [85.325393, 28.152535], [85.325397, 28.152318], [85.324908, 28.152312], [85.324911, 28.152096], [85.324667, 28.152093], [85.324674, 28.15166], [85.324429, 28.151657], [85.324436, 28.151224], [85.32297, 28.151206], [85.322974, 28.150989], [85.321752, 28.150974], [85.321755, 28.150758], [85.321511, 28.150755], [85.321514, 28.150538], [85.32127, 28.150535], [85.321273, 28.150318], [85.321029, 28.150315], [85.321032, 28.150099], [85.320788, 28.150096], [85.320792, 28.149879], [85.320547, 28.149876], [85.320554, 28.149443], [85.32031, 28.14944], [85.320313, 28.149224], [85.320069, 28.149221], [85.320065, 28.149437], [85.319821, 28.149434], [85.319824, 28.149218], [85.31958, 28.149215], [85.319583, 28.148998], [85.319339, 28.148995], [85.319342, 28.148779], [85.319098, 28.148776], [85.319095, 28.148992], [85.31885, 28.148989], [85.318854, 28.148773], [85.318609, 28.14877], [85.318613, 28.148553], [85.318124, 28.148547], [85.318128, 28.14833], [85.317883, 28.148327], [85.317887, 28.148111], [85.317398, 28.148105], [85.317401, 28.147888], [85.317157, 28.147885], [85.31716, 28.147669], [85.316916, 28.147666], [85.31692, 28.147449], [85.316675, 28.147446], [85.316679, 28.14723], [85.315946, 28.147221], [85.315949, 28.147004], [85.31546, 28.146998], [85.315464, 28.146782], [85.315219, 28.146779], [85.315223, 28.146562], [85.314734, 28.146556], [85.314738, 28.146339], [85.314249, 28.146333], [85.314252, 28.146117], [85.313764, 28.146111], [85.313767, 28.145894], [85.313278, 28.145888], [85.313282, 28.145672], [85.312793, 28.145666], [85.312797, 28.145449], [85.312552, 28.145446], [85.312559, 28.145013], [85.312315, 28.14501], [85.312318, 28.144793], [85.312074, 28.14479], [85.312077, 28.144574], [85.311833, 28.144571], [85.311836, 28.144354], [85.311592, 28.144351], [85.311595, 28.144135], [85.31184, 28.144138], [85.311843, 28.143921], [85.312087, 28.143924], [85.312091, 28.143708], [85.311847, 28.143705], [85.31185, 28.143488], [85.311606, 28.143485], [85.311616, 28.142835], [85.311371, 28.142832], [85.311375, 28.142616], [85.311131, 28.142613], [85.311127, 28.142829], [85.309417, 28.142808], [85.30942, 28.142592], [85.309176, 28.142589], [85.309179, 28.142372], [85.308935, 28.142369], [85.308939, 28.142153], [85.30845, 28.142147], [85.308453, 28.14193], [85.307965, 28.141924], [85.307968, 28.141707], [85.307235, 28.141698], [85.307239, 28.141482], [85.30675, 28.141476], [85.306753, 28.141259], [85.306509, 28.141256], [85.306516, 28.140823], [85.306272, 28.14082], [85.306275, 28.140603], [85.306031, 28.1406], [85.306038, 28.140167], [85.305793, 28.140164], [85.305797, 28.139948], [85.305552, 28.139945], [85.305559, 28.139512], [85.305315, 28.139509], [85.305325, 28.138859], [85.305081, 28.138856], [85.305088, 28.138423], [85.304843, 28.13842], [85.304847, 28.138203], [85.305091, 28.138206], [85.305094, 28.13799], [85.305339, 28.137993], [85.305335, 28.138209], [85.305824, 28.138215], [85.305821, 28.138432], [85.306065, 28.138435], [85.306061, 28.138651], [85.306306, 28.138654], [85.306292, 28.139521], [85.306781, 28.139527], [85.306777, 28.139743], [85.307022, 28.139746], [85.307018, 28.139963], [85.307507, 28.139969], [85.307503, 28.140185], [85.307992, 28.140192], [85.307989, 28.140408], [85.308477, 28.140414], [85.308474, 28.140631], [85.308718, 28.140634], [85.308715, 28.14085], [85.308959, 28.140853], [85.308956, 28.14107], [85.309444, 28.141076], [85.309441, 28.141292], [85.310662, 28.141307], [85.310666, 28.141091], [85.311154, 28.141097], [85.311151, 28.141313], [85.31164, 28.14132], [85.311636, 28.141536], [85.31188, 28.141539], [85.311877, 28.141756], [85.312121, 28.141759], [85.312118, 28.141975], [85.312362, 28.141978], [85.312356, 28.142411], [85.3126, 28.142414], [85.312596, 28.142631], [85.312841, 28.142634], [85.312834, 28.143067], [85.313078, 28.14307], [85.313075, 28.143287], [85.313319, 28.14329], [85.313316, 28.143506], [85.31356, 28.143509], [85.313557, 28.143726], [85.313801, 28.143729], [85.313794, 28.144162], [85.314039, 28.144165], [85.314035, 28.144381], [85.314279, 28.144384], [85.314276, 28.144601], [85.31452, 28.144604], [85.314517, 28.144821], [85.31525, 28.14483], [85.315253, 28.144613], [85.315742, 28.144619], [85.315739, 28.144836], [85.316227, 28.144842], [85.316224, 28.145058], [85.316712, 28.145064], [85.316709, 28.145281], [85.316953, 28.145284], [85.31695, 28.1455], [85.317194, 28.145503], [85.317191, 28.14572], [85.31768, 28.145726], [85.317676, 28.145942], [85.317921, 28.145945], [85.317917, 28.146162], [85.318406, 28.146168], [85.318402, 28.146384], [85.318647, 28.146387], [85.318643, 28.146604], [85.318888, 28.146607], [85.318884, 28.146824], [85.319373, 28.14683], [85.31937, 28.147046], [85.319614, 28.147049], [85.31961, 28.147266], [85.320099, 28.147272], [85.320096, 28.147488], [85.32034, 28.147491], [85.320337, 28.147708], [85.320581, 28.147711], [85.320578, 28.147927], [85.320822, 28.14793], [85.320819, 28.148147], [85.321063, 28.14815], [85.32106, 28.148366], [85.321304, 28.148369], [85.3213, 28.148586], [85.321545, 28.148589], [85.321538, 28.149022], [85.321782, 28.149025], [85.321776, 28.149458], [85.32202, 28.149461], [85.322017, 28.149678], [85.322261, 28.149681], [85.322258, 28.149897], [85.323479, 28.149912], [85.323476, 28.150129], [85.324209, 28.150138], [85.324205, 28.150354], [85.324938, 28.150363], [85.324935, 28.15058], [85.325668, 28.150589], [85.325665, 28.150805], [85.325909, 28.150808], [85.325906, 28.151025], [85.32615, 28.151028], [85.326147, 28.151244], [85.326391, 28.151247], [85.326388, 28.151464], [85.326632, 28.151467], [85.326628, 28.151684], [85.326873, 28.151687], [85.326869, 28.151903], [85.327114, 28.151906], [85.327107, 28.152339], [85.327596, 28.152345], [85.327592, 28.152562], [85.327837, 28.152565], [85.32783, 28.152998], [85.328074, 28.153001], [85.328071, 28.153217], [85.32856, 28.153223], [85.328556, 28.15344], [85.329045, 28.153446], [85.329042, 28.153662], [85.329286, 28.153665], [85.329279, 28.154098], [85.329523, 28.154101], [85.329517, 28.154535], [85.329761, 28.154538], [85.329754, 28.154971], [85.329999, 28.154974], [85.329995, 28.15519], [85.33024, 28.155193], [85.330236, 28.15541], [85.330481, 28.155413], [85.330477, 28.155629], [85.330966, 28.155635], [85.330963, 28.155852], [85.331451, 28.155858], [85.331448, 28.156074], [85.331937, 28.15608], [85.331933, 28.156297], [85.332178, 28.1563], [85.332174, 28.156516], [85.332419, 28.156519], [85.332415, 28.156736], [85.332904, 28.156742], [85.332901, 28.156958], [85.333145, 28.156961], [85.333142, 28.157178], [85.333386, 28.157181], [85.333379, 28.157614], [85.333624, 28.157617], [85.33362, 28.157834], [85.334109, 28.157839], [85.334106, 28.158056], [85.334594, 28.158062], [85.334591, 28.158279], [85.33508, 28.158285], [85.335076, 28.158501], [85.335565, 28.158507], [85.335562, 28.158724], [85.33605, 28.158729], [85.336047, 28.158946], [85.336291, 28.158949], [85.336288, 28.159166], [85.336532, 28.159169], [85.336529, 28.159385], [85.336773, 28.159388], [85.33677, 28.159605], [85.337259, 28.159611], [85.337255, 28.159827], [85.3375, 28.15983], [85.337496, 28.160047], [85.337741, 28.16005], [85.337737, 28.160266], [85.337982, 28.160269], [85.337975, 28.160702], [85.338219, 28.160705], [85.338213, 28.161138], [85.338457, 28.161141], [85.338447, 28.161791], [85.338691, 28.161794], [85.338688, 28.162011], [85.338932, 28.162013], [85.338929, 28.16223], [85.339418, 28.162236], [85.339414, 28.162453], [85.339659, 28.162455], [85.339655, 28.162672], [85.3399, 28.162675], [85.339896, 28.162892], [85.340141, 28.162895], [85.340137, 28.163111], [85.340382, 28.163114], [85.340378, 28.163331], [85.341845, 28.163348], [85.341848, 28.163132], [85.342581, 28.163141], [85.342578, 28.163357], [85.343311, 28.163366], [85.343314, 28.16315], [85.343803, 28.163155], [85.343806, 28.162939], [85.344051, 28.162942], [85.344054, 28.162725], [85.344543, 28.162731], [85.344546, 28.162515], [85.345523, 28.162526], [85.34553, 28.162093], [85.345774, 28.162096], [85.345778, 28.16188], [85.346022, 28.161883], [85.346025, 28.161666], [85.34627, 28.161669], [85.346273, 28.161453], [85.346517, 28.161455], [85.346521, 28.161239], [85.346765, 28.161242], [85.346762, 28.161458], [85.347006, 28.161461], [85.347003, 28.161678], [85.346759, 28.161675], [85.346752, 28.162108], [85.346507, 28.162105], [85.346504, 28.162322], [85.34626, 28.162319], [85.346253, 28.162752], [85.346009, 28.162749], [85.346005, 28.162965], [85.345517, 28.16296], [85.345513, 28.163176], [85.345269, 28.163173], [85.345266, 28.16339], [85.344777, 28.163384], [85.344774, 28.1636], [85.344529, 28.163597], [85.344526, 28.163814], [85.344282, 28.163811], [85.344278, 28.164028], [85.344034, 28.164025], [85.344031, 28.164241], [85.343786, 28.164238], [85.343783, 28.164455], [85.343538, 28.164452], [85.343535, 28.164668], [85.343291, 28.164665], [85.343284, 28.165099], [85.34304, 28.165096], [85.343036, 28.165312], [85.343281, 28.165315], [85.343271, 28.165965], [85.343515, 28.165968], [85.343512, 28.166184], [85.343756, 28.166187], [85.343746, 28.166837], [85.343502, 28.166834], [85.343492, 28.167484], [85.343247, 28.167481], [85.343241, 28.167914], [85.342996, 28.167911], [85.34298, 28.168994], [85.343224, 28.168997], [85.343207, 28.170079], [85.343452, 28.170082], [85.343445, 28.170516], [85.343201, 28.170513], [85.343171, 28.172462], [85.343415, 28.172465], [85.343378, 28.174847], [85.343134, 28.174844], [85.343121, 28.17571], [85.343365, 28.175713], [85.343312, 28.179178], [85.343556, 28.179181], [85.343543, 28.180047], [85.343298, 28.180044], [85.343272, 28.181777], [85.343516, 28.18178], [85.343513, 28.181996], [85.343757, 28.181999], [85.343754, 28.182216], [85.343998, 28.182219], [85.343995, 28.182435], [85.344239, 28.182438], [85.344236, 28.182655], [85.34448, 28.182658], [85.34447, 28.183307], [85.344715, 28.18331], [85.344705, 28.18396], [85.344949, 28.183963], [85.344942, 28.184396], [85.345187, 28.184399], [85.34518, 28.184832], [85.345424, 28.184835], [85.345418, 28.185268], [85.345662, 28.185271], [85.345659, 28.185488], [85.345903, 28.185491], [85.3459, 28.185707], [85.346144, 28.18571], [85.346141, 28.185927], [85.346385, 28.18593], [85.346379, 28.186363], [85.346623, 28.186366], [85.346617, 28.186799], [85.346861, 28.186802], [85.346848, 28.187668], [85.347092, 28.187671], [85.347085, 28.188104], [85.34733, 28.188107], [85.347326, 28.188324], [85.347571, 28.188326], [85.347568, 28.188543], [85.347812, 28.188546], [85.347805, 28.188979], [85.34805, 28.188982], [85.348043, 28.189415], [85.348288, 28.189418], [85.348281, 28.189851], [85.348525, 28.189854], [85.348522, 28.190071], [85.348766, 28.190074], [85.34876, 28.190507], [85.349004, 28.19051], [85.348997, 28.190943], [85.349242, 28.190946], [85.349229, 28.191812], [85.349473, 28.191815], [85.349466, 28.192248], [85.349711, 28.192251], [85.349704, 28.192684], [85.349949, 28.192687], [85.349939, 28.193337], [85.350183, 28.19334], [85.35018, 28.193556], [85.350424, 28.193559], [85.350417, 28.193992], [85.350662, 28.193995], [85.350659, 28.194212], [85.350903, 28.194215], [85.350873, 28.196164], [85.351118, 28.196167], [85.351114, 28.196383], [85.351359, 28.196386], [85.351355, 28.196603], [85.3516, 28.196606], [85.351596, 28.196822], [85.351841, 28.196825], [85.351834, 28.197258], [85.352079, 28.197261], [85.352075, 28.197478], [85.35232, 28.197481], [85.352313, 28.197914], [85.352558, 28.197917], [85.352551, 28.19835], [85.352795, 28.198353], [85.352792, 28.19857], [85.353036, 28.198573], [85.35303, 28.199006], [85.353274, 28.199009], [85.353261, 28.199875], [85.353505, 28.199878], [85.353499, 28.200311], [85.353743, 28.200314], [85.35374, 28.20053], [85.353495, 28.200527], [85.353476, 28.201827], [85.35372, 28.20183], [85.353713, 28.202263], [85.353958, 28.202266], [85.353941, 28.203349], [85.354186, 28.203352], [85.354182, 28.203568], [85.354427, 28.203571], [85.35442, 28.204004], [85.354665, 28.204007], [85.354661, 28.204224], [85.354906, 28.204227], [85.354899, 28.20466], [85.355144, 28.204663], [85.355137, 28.205096], [85.355381, 28.205099], [85.355378, 28.205315], [85.355623, 28.205318], [85.355619, 28.205535], [85.355864, 28.205538], [85.35586, 28.205754], [85.356105, 28.205757], [85.356088, 28.20684], [85.355844, 28.206837], [85.355837, 28.20727], [85.356082, 28.207273], [85.356075, 28.207706], [85.355831, 28.207703], [85.355821, 28.208353], [85.355576, 28.20835], [85.355566, 28.209], [85.355322, 28.208997], [85.355315, 28.20943], [85.35556, 28.209433], [85.355556, 28.209649], [85.355801, 28.209652], [85.355797, 28.209869], [85.355553, 28.209866], [85.35555, 28.210083], [85.355305, 28.21008], [85.355298, 28.210513], [85.355543, 28.210516], [85.35554, 28.210732], [85.355295, 28.210729], [85.355292, 28.210946], [85.355047, 28.210943], [85.355041, 28.211376], [85.35553, 28.211382], [85.355526, 28.211598], [85.355771, 28.211601], [85.355764, 28.212034], [85.35552, 28.212032], [85.355516, 28.212248], [85.355272, 28.212245], [85.355219, 28.21571], [85.355463, 28.215713], [85.355457, 28.216146], [85.355701, 28.216149], [85.355698, 28.216366], [85.355942, 28.216369], [85.355936, 28.216802], [85.35618, 28.216805], [85.356174, 28.217238], [85.356418, 28.217241], [85.356408, 28.21789], [85.356653, 28.217893], [85.356649, 28.21811], [85.356405, 28.218107], [85.356401, 28.218323], [85.356157, 28.218321]]]}, "properties": {"prob_class": "P>=0.9", "depth_m": 2.0, "members": 40}}]}