{"type": "FeatureCollection", "features": [{"type": "Feature", "geometry": {"type": "Point", "coordinates": [85.51499, 28.27088]}, "properties": {"chainage_km": 0}}, {"type": "Feature", "geometry": {"type": "Point", "coordinates": [85.501033, 28.306196]}, "properties": {"chainage_km": 5}}, {"type": "Feature", "geometry": {"type": "Point", "coordinates": [85.474347, 28.333514]}, "properties": {"chainage_km": 10}}, {"type": "Feature", "geometry": {"type": "Point", "coordinates": [85.42909, 28.33057]}, "properties": {"chainage_km": 15}}, {"type": "Feature", "geometry": {"type": "Point", "coordinates": [85.403417, 28.30211]}, "properties": {"chainage_km": 20}}, {"type": "Feature", "geometry": {"type": "Point", "coordinates": [85.37617, 28.269516]}, "properties": {"chainage_km": 25}}, {"type": "Feature", "geometry": {"type": "Point", "coordinates": [85.358963, 28.234629]}, "properties": {"chainage_km": 30}}, {"type": "Feature", "geometry": {"type": "Point", "coordinates": [85.350261, 28.1955]}, "properties": {"chainage_km": 35}}, {"type": "Feature", "geometry": {"type": "Point", "coordinates": [85.334563, 28.158873]}, "properties": {"chainage_km": 40}}, {"type": "Feature", "geometry": {"type": "Point", "coordinates": [85.30068, 28.131353]}, "properties": {"chainage_km": 45}}, {"type": "Feature", "geometry": {"type": "Point", "coordinates": [85.266765, 28.101829]}, "properties": {"chainage_km": 50}}, {"type": "Feature", "geometry": {"type": "Point", "coordinates": [85.225674, 28.084107]}, "properties": {"chainage_km": 55}}, {"type": "Feature", "geometry": {"type": "Point", "coordinates": [85.205793, 28.051923]}, "properties": {"chainage_km": 60}}, {"type": "Feature", "geometry": {"type": "Point", "coordinates": [85.187426, 28.019029]}, "properties": {"chainage_km": 65}}, {"type": "Feature", "geometry": {"type": "Point", "coordinates": [85.18074, 27.981093]}, "properties": {"chainage_km": 70}}, {"type": "Feature", "geometry": {"type": "Point", "coordinates": [85.16236, 27.950037]}, "properties": {"chainage_km": 75}}, {"type": "Feature", "geometry": {"type": "Point", "coordinates": [85.144086, 27.920457]}, "properties": {"chainage_km": 80}}, {"type": "Feature", "geometry": {"type": "Point", "coordinates": [85.135209, 27.88785]}, "properties": {"chainage_km": 85}}, {"type": "Feature", "geometry": {"type": "Point", "coordinates": [85.105036, 27.858684]}, "properties": {"chainage_km": 90}}, {"type": "Feature", "geometry": {"type": "Point", "coordinates": [85.062913, 27.857924]}, "properties": {"chainage_km": 95}}, {"type": "Feature", "geometry": {"type": "Point", "coordinates": [85.027844, 27.84772]}, "properties": {"chainage_km": 100}}, {"type": "Feature", "geometry": {"type": "Point", "coordinates": [85.012949, 27.813403]}, "properties": {"chainage_km": 105}}, {"type": "Feature", "geometry": {"type": "Point", "coordinates": [84.97981, 27.80216]}, "properties": {"chainage_km": 110}}, {"type": "Feature", "geometry": {"type": "Point", "coordinates": [84.9479, 27.81631]}, "properties": {"chainage_km": 115}}, {"type": "Feature", "geometry": {"type": "Point", "coordinates": [84.91425, 27.803881]}, "properties": {"chainage_km": 120}}]}