{"type": "FeatureCollection", "features": [{"type": "Feature", "geometry": {"type": "LineString", "coordinates": [[85.51499, 28.27088], [85.51468, 28.27115], [85.51437, 28.27141], [85.51406, 28.27168], [85.51375, 28.27195], [85.51344, 28.27221], [85.51313, 28.27248], [85.51282, 28.27275], [85.51251, 28.27302], [85.5122, 28.27328], [85.5119, 28.27355], [85.51159, 28.27382], [85.51158, 28.27409], [85.51158, 28.27436], [85.51127, 28.27463], [85.51126, 28.2749], [85.51157, 28.27517], [85.51126, 28.27544], [85.51125, 28.27571], [85.51125, 28.27598], [85.51125, 28.27625], [85.51094, 28.27652], [85.51093, 28.27679], [85.51123, 28.27706], [85.51154, 28.27734], [85.51184, 28.27761], [85.51214, 28.27789], [85.51244, 28.27816], [85.51274, 28.27843], [85.51305, 28.27871], [85.51335, 28.27898], [85.51365, 28.27926], [85.51365, 28.27953], [85.51364, 28.2798], [85.51364, 28.28007], [85.51364, 28.28034], [85.51333, 28.28061], [85.51332, 28.28088], [85.51332, 28.28115], [85.51332, 28.28142], [85.51362, 28.28169], [85.51361, 28.28196], [85.51392, 28.28224], [85.51391, 28.28251], [85.51421, 28.28278], [85.51452, 28.28306], [85.51482, 28.28333], [85.51512, 28.2836], [85.51481, 28.28387], [85.51481, 28.28414], [85.5148, 28.28441], [85.5148, 28.28468], [85.5148, 28.28496], [85.51449, 28.28522], [85.51418, 28.28549], [85.51387, 28.28576], [85.51356, 28.28602], [85.51325, 28.28629], [85.51294, 28.28656], [85.51263, 28.28683], [85.51232, 28.28709], [85.51201, 28.28736], [85.5117, 28.28763], [85.51139, 28.2879], [85.51139, 28.28817], [85.51169, 28.28844], [85.51168, 28.28871], [85.51168, 28.28898], [85.51137, 28.28925], [85.51106, 28.28952], [85.51136, 28.28979], [85.51136, 28.29006], [85.51136, 28.29033], [85.51135, 28.2906], [85.51165, 28.29088], [85.51165, 28.29115], [85.51165, 28.29142], [85.51134, 28.29169], [85.51164, 28.29196], [85.51164, 28.29223], [85.51163, 28.2925], [85.51163, 28.29277], [85.51193, 28.29305], [85.51193, 28.29332], [85.51162, 28.29358], [85.51161, 28.29386], [85.51161, 28.29413], [85.5113, 28.29439], [85.51099, 28.29466], [85.51068, 28.29493], [85.51037, 28.2952], [85.51006, 28.29546], [85.51006, 28.29573], [85.50975, 28.296], [85.50944, 28.29627], [85.50943, 28.29654], [85.50912, 28.29681], [85.50881, 28.29707], [85.50851, 28.29734], [85.5082, 28.29761], [85.50789, 28.29788], [85.50758, 28.29814], [85.50727, 28.29841], [85.50726, 28.29868], [85.50695, 28.29895], [85.50695, 28.29922], [85.50695, 28.29949], [85.50694, 28.29976], [85.50663, 28.30003], [85.50632, 28.3003], [85.50601, 28.30056], [85.5057, 28.30083], [85.50539, 28.3011], [85.50508, 28.30137], [85.50477, 28.30163], [85.50477, 28.3019], [85.50446, 28.30217], [85.50415, 28.30244], [85.50384, 28.30271], [85.50353, 28.30297], [85.50322, 28.30324], [85.50322, 28.30351], [85.50321, 28.30378], [85.50291, 28.30405], [85.5026, 28.30432], [85.50259, 28.30459], [85.50228, 28.30485], [85.50228, 28.30513], [85.50197, 28.30539], [85.50166, 28.30566], [85.50135, 28.30593], [85.50104, 28.30619], [85.50073, 28.30646], [85.50073, 28.30673], [85.50042, 28.307], [85.50011, 28.30727], [85.5001, 28.30754], [85.49979, 28.30781], [85.49948, 28.30807], [85.49917, 28.30834], [85.49917, 28.30861], [85.49886, 28.30888], [85.49886, 28.30915], [85.49855, 28.30942], [85.49854, 28.30969], [85.49823, 28.30995], [85.49823, 28.31022], [85.49792, 28.31049], [85.49761, 28.31076], [85.49761, 28.31103], [85.4973, 28.3113], [85.49699, 28.31157], [85.49668, 28.31183], [85.49637, 28.3121], [85.49606, 28.31237], [85.49575, 28.31263], [85.49544, 28.3129], [85.49513, 28.31317], [85.49482, 28.31317], [85.49451, 28.31343], [85.49421, 28.31343], [85.4939, 28.3137], [85.49359, 28.31369], [85.49329, 28.31369], [85.49298, 28.31369], [85.49267, 28.31395], [85.49236, 28.31422], [85.49205, 28.31422], [85.49174, 28.31449], [85.49143, 28.31475], [85.49113, 28.31502], [85.49082, 28.31529], [85.49051, 28.31555], [85.4902, 28.31582], [85.48989, 28.31609], [85.48958, 28.31636], [85.48927, 28.31662], [85.48896, 28.31689], [85.48865, 28.31689], [85.48834, 28.31716], [85.48803, 28.31742], [85.48803, 28.31769], [85.48802, 28.31796], [85.48802, 28.31823], [85.48802, 28.31851], [85.48832, 28.31878], [85.48831, 28.31905], [85.48862, 28.31932], [85.48892, 28.3196], [85.48891, 28.31987], [85.48891, 28.32014], [85.4886, 28.32041], [85.4886, 28.32068], [85.48829, 28.32095], [85.48828, 28.32122], [85.48797, 28.32148], [85.48797, 28.32175], [85.48766, 28.32202], [85.48766, 28.32229], [85.48735, 28.32256], [85.48704, 28.32283], [85.48673, 28.32309], [85.48642, 28.32336], [85.48611, 28.32363], [85.4858, 28.3239], [85.48579, 28.32417], [85.48548, 28.32443], [85.48548, 28.3247], [85.48517, 28.32497], [85.48486, 28.32524], [85.48455, 28.32551], [85.48455, 28.32578], [85.48454, 28.32605], [85.48454, 28.32632], [85.48454, 28.32659], [85.48453, 28.32686], [85.48453, 28.32713], [85.48452, 28.3274], [85.48483, 28.32768], [85.48513, 28.32795], [85.48543, 28.32822], [85.48543, 28.32849], [85.48542, 28.32877], [85.48542, 28.32904], [85.48542, 28.32931], [85.48541, 28.32958], [85.48571, 28.32985], [85.48571, 28.33012], [85.48571, 28.33039], [85.4857, 28.33066], [85.4857, 28.33093], [85.48569, 28.33121], [85.48569, 28.33148], [85.48569, 28.33175], [85.48538, 28.33201], [85.48507, 28.33228], [85.48476, 28.33255], [85.48445, 28.33282], [85.48414, 28.33281], [85.48383, 28.33308], [85.48353, 28.33308], [85.48322, 28.33307], [85.48291, 28.33307], [85.48261, 28.3328], [85.48231, 28.33279], [85.482, 28.33279], [85.48169, 28.33279], [85.48139, 28.33278], [85.48108, 28.33278], [85.48078, 28.33278], [85.48047, 28.33304], [85.48016, 28.33304], [85.47985, 28.33304], [85.47955, 28.33303], [85.47924, 28.33303], [85.47894, 28.33275], [85.47863, 28.33275], [85.47833, 28.33275], [85.47802, 28.33302], [85.47771, 28.33301], [85.47741, 28.33301], [85.4771, 28.333], [85.47679, 28.333], [85.47649, 28.333], [85.47618, 28.33299], [85.47588, 28.33299], [85.47557, 28.33326], [85.47526, 28.33326], [85.47496, 28.33325], [85.47465, 28.33325], [85.47434, 28.33352], [85.47403, 28.33351], [85.47373, 28.33351], [85.47342, 28.33351], [85.47312, 28.3335], [85.47281, 28.33377], [85.4725, 28.33377], [85.47219, 28.33376], [85.47189, 28.33376], [85.47158, 28.33376], [85.47128, 28.33375], [85.47097, 28.33375], [85.47066, 28.33375], [85.47035, 28.33401], [85.47005, 28.33401], [85.46974, 28.33428], [85.46943, 28.33427], [85.46912, 28.33454], [85.46881, 28.33481], [85.4685, 28.33507], [85.46819, 28.33534], [85.46789, 28.33534], [85.46759, 28.33506], [85.46728, 28.33506], [85.46697, 28.33506], [85.46666, 28.33532], [85.46636, 28.33532], [85.46605, 28.33559], [85.46574, 28.33559], [85.46544, 28.33558], [85.46513, 28.33585], [85.46482, 28.33585], [85.46451, 28.33584], [85.46421, 28.33584], [85.4639, 28.33584], [85.4636, 28.33583], [85.46329, 28.33583], [85.46298, 28.33582], [85.46267, 28.33609], [85.46237, 28.33609], [85.46206, 28.33636], [85.46175, 28.33635], [85.46145, 28.33635], [85.46114, 28.33662], [85.46083, 28.33661], [85.46052, 28.33661], [85.46022, 28.33661], [85.45991, 28.3366], [85.45961, 28.3366], [85.4593, 28.3366], [85.45899, 28.33659], [85.45869, 28.33659], [85.45838, 28.33659], [85.45808, 28.33658], [85.45777, 28.33685], [85.45746, 28.33685], [85.45716, 28.33657], [85.45685, 28.33657], [85.45655, 28.33629], [85.45625, 28.33629], [85.45594, 28.33629], [85.45563, 28.33628], [85.45533, 28.33628], [85.45502, 28.33628], [85.45472, 28.336], [85.45441, 28.336], [85.45411, 28.336], [85.45381, 28.33572], [85.4535, 28.33545], [85.4532, 28.33544], [85.45289, 28.33544], [85.45259, 28.33544], [85.45228, 28.33543], [85.45197, 28.33543], [85.45167, 28.33543], [85.45136, 28.33542], [85.45106, 28.33515], [85.45075, 28.33514], [85.45045, 28.33514], [85.45014, 28.33514], [85.44984, 28.33513], [85.44953, 28.33513], [85.44922, 28.33513], [85.44892, 28.33512], [85.44861, 28.33512], [85.44831, 28.33512], [85.448, 28.33511], [85.44769, 28.33511], [85.44739, 28.33511], [85.44708, 28.33537], [85.44677, 28.33537], [85.44646, 28.33564], [85.44616, 28.33563], [85.44585, 28.33563], [85.44554, 28.33563], [85.44524, 28.33562], [85.44494, 28.33535], [85.44463, 28.33535], [85.44432, 28.33534], [85.44402, 28.33534], [85.44371, 28.33534], [85.44341, 28.33533], [85.4431, 28.33533], [85.44279, 28.33533], [85.44249, 28.33532], [85.44218, 28.33532], [85.44188, 28.33504], [85.44157, 28.33531], [85.44126, 28.33531], [85.44096, 28.3353], [85.44065, 28.3353], [85.44035, 28.3353], [85.44004, 28.33529], [85.43974, 28.33529], [85.43943, 28.33529], [85.43913, 28.33501], [85.43882, 28.33501], [85.43852, 28.33501], [85.43821, 28.335], [85.4379, 28.335], [85.4376, 28.33499], [85.4373, 28.33472], [85.43699, 28.33472], [85.43669, 28.33444], [85.43638, 28.33444], [85.43608, 28.33417], [85.43577, 28.33416], [85.43547, 28.33389], [85.43517, 28.33388], [85.43486, 28.33361], [85.43456, 28.33334], [85.43426, 28.33333], [85.43395, 28.33306], [85.43365, 28.33278], [85.43335, 28.33251], [85.43305, 28.33224], [85.43275, 28.33196], [85.43244, 28.33169], [85.43214, 28.33141], [85.43184, 28.33141], [85.43153, 28.33113], [85.43123, 28.33086], [85.43093, 28.33059], [85.43062, 28.33058], [85.43032, 28.33058], [85.43001, 28.33058], [85.42971, 28.33057], [85.4294, 28.3303], [85.42909, 28.33057], [85.42879, 28.33056], [85.42848, 28.33056], [85.42818, 28.33055], [85.42787, 28.33055], [85.42756, 28.33055], [85.42726, 28.33027], [85.42696, 28.33027], [85.42665, 28.33054], [85.42634, 28.33026], [85.42604, 28.33026], [85.42573, 28.33026], [85.42543, 28.33025], [85.42512, 28.33025], [85.42482, 28.33025], [85.42451, 28.32997], [85.42421, 28.32997], [85.4239, 28.32996], [85.4236, 28.32996], [85.42329, 28.32996], [85.42298, 28.32995], [85.42268, 28.32968], [85.42238, 28.32968], [85.42207, 28.32967], [85.42176, 28.32967], [85.42146, 28.32966], [85.42116, 28.32939], [85.42085, 28.32912], [85.42055, 28.32884], [85.42025, 28.32857], [85.41995, 28.32829], [85.41964, 28.32829], [85.41934, 28.32802], [85.41903, 28.32801], [85.41873, 28.32774], [85.41843, 28.32773], [85.41812, 28.32746], [85.41782, 28.32719], [85.41752, 28.32718], [85.41721, 28.32718], [85.4169, 28.32745], [85.41659, 28.32744], [85.41629, 28.32744], [85.41599, 28.32716], [85.41569, 28.32689], [85.41538, 28.32662], [85.41508, 28.32634], [85.41478, 28.32607], [85.41448, 28.32579], [85.41418, 28.32552], [85.41387, 28.32524], [85.41357, 28.32497], [85.41327, 28.3247], [85.41327, 28.32443], [85.41297, 28.32415], [85.41298, 28.32388], [85.41267, 28.32361], [85.41268, 28.32334], [85.41268, 28.32306], [85.41269, 28.32279], [85.41238, 28.32252], [85.41239, 28.32225], [85.41239, 28.32198], [85.4124, 28.32171], [85.4124, 28.32144], [85.4124, 28.32117], [85.41241, 28.3209], [85.41241, 28.32063], [85.41272, 28.32036], [85.41273, 28.32009], [85.41273, 28.31982], [85.41273, 28.31955], [85.41274, 28.31928], [85.41274, 28.319], [85.41275, 28.31873], [85.41275, 28.31846], [85.41275, 28.31819], [85.41306, 28.31793], [85.41276, 28.31765], [85.41307, 28.31738], [85.41308, 28.31711], [85.41308, 28.31684], [85.41308, 28.31657], [85.41278, 28.3163], [85.41279, 28.31603], [85.41279, 28.31576], [85.41249, 28.31548], [85.41249, 28.31521], [85.41219, 28.31494], [85.4122, 28.31467], [85.4122, 28.3144], [85.4122, 28.31412], [85.41251, 28.31386], [85.41252, 28.31359], [85.41252, 28.31332], [85.41283, 28.31305], [85.41283, 28.31278], [85.41253, 28.3125], [85.41254, 28.31223], [85.41254, 28.31196], [85.41255, 28.31169], [85.41224, 28.31142], [85.41194, 28.31114], [85.41164, 28.31087], [85.41164, 28.3106], [85.41165, 28.31033], [85.41196, 28.31006], [85.41196, 28.30979], [85.41197, 28.30952], [85.41197, 28.30925], [85.41167, 28.30897], [85.41167, 28.3087], [85.41137, 28.30843], [85.41107, 28.30816], [85.41077, 28.30788], [85.41046, 28.30788], [85.41016, 28.3076], [85.40986, 28.30733], [85.40955, 28.30705], [85.40925, 28.30678], [85.40926, 28.30651], [85.40896, 28.30624], [85.40865, 28.30596], [85.40835, 28.30569], [85.40805, 28.30541], [85.40775, 28.30514], [85.40744, 28.30513], [85.40714, 28.30486], [85.40684, 28.30459], [85.40654, 28.30431], [85.40623, 28.30404], [85.40593, 28.30376], [85.40563, 28.30349], [85.40533, 28.30321], [85.40503, 28.30294], [85.40473, 28.30267], [85.40442, 28.30266], [85.40412, 28.30239], [85.40381, 28.30238], [85.40351, 28.30211], [85.4032, 28.30211], [85.4029, 28.30183], [85.4026, 28.30156], [85.4023, 28.30128], [85.402, 28.30101], [85.4017, 28.30074], [85.40139, 28.30046], [85.40109, 28.30019], [85.40079, 28.29991], [85.40049, 28.29964], [85.40019, 28.29936], [85.39988, 28.29909], [85.39958, 28.29882], [85.39928, 28.29854], [85.39898, 28.29827], [85.39868, 28.29799], [85.39838, 28.29772], [85.39807, 28.29744], [85.39777, 28.29717], [85.39747, 28.2969], [85.39747, 28.29662], [85.39748, 28.29635], [85.39748, 28.29608], [85.39718, 28.29581], [85.39688, 28.29553], [85.39688, 28.29526], [85.39658, 28.29499], [85.39659, 28.29472], [85.39659, 28.29445], [85.39659, 28.29418], [85.39629, 28.2939], [85.39599, 28.29363], [85.39599, 28.29336], [85.396, 28.29309], [85.3957, 28.29281], [85.39539, 28.29254], [85.39509, 28.29226], [85.39479, 28.29199], [85.39449, 28.29172], [85.39419, 28.29144], [85.39389, 28.29117], [85.39358, 28.29089], [85.39328, 28.29062], [85.39298, 28.29034], [85.39268, 28.29007], [85.39268, 28.2898], [85.39238, 28.28953], [85.39208, 28.28925], [85.39178, 28.28898], [85.39147, 28.28897], [85.39117, 28.28897], [85.39086, 28.2887], [85.39056, 28.28842], [85.39026, 28.28815], [85.38996, 28.28787], [85.38966, 28.2876], [85.38936, 28.28732], [85.38905, 28.28705], [85.38875, 28.28678], [85.38845, 28.2865], [85.38815, 28.28623], [85.38785, 28.28595], [85.38754, 28.28622], [85.38723, 28.28622], [85.38692, 28.28621], [85.38662, 28.28621], [85.38632, 28.28593], [85.38602, 28.28566], [85.38571, 28.28539], [85.38541, 28.28511], [85.38511, 28.28511], [85.3848, 28.28483], [85.3845, 28.28456], [85.3842, 28.28428], [85.3839, 28.28401], [85.3836, 28.28374], [85.3836, 28.28347], [85.3833, 28.28319], [85.383, 28.28292], [85.3827, 28.28264], [85.3824, 28.28237], [85.38209, 28.28209], [85.38179, 28.28182], [85.38149, 28.28154], [85.38119, 28.28127], [85.38119, 28.281], [85.38089, 28.28073], [85.38058, 28.28072], [85.38028, 28.28045], [85.37998, 28.28017], [85.37968, 28.28017], [85.37937, 28.2799], [85.37907, 28.27989], [85.37877, 28.27962], [85.37846, 28.27934], [85.37816, 28.27934], [85.37786, 28.27907], [85.37756, 28.27879], [85.37725, 28.27852], [85.37695, 28.27824], [85.37665, 28.27797], [85.37665, 28.2777], [85.37666, 28.27743], [85.37666, 28.27716], [85.37667, 28.27689], [85.37667, 28.27661], [85.37668, 28.27634], [85.37668, 28.27607], [85.37668, 28.2758], [85.37669, 28.27553], [85.37669, 28.27526], [85.377, 28.27499], [85.37701, 28.27472], [85.37701, 28.27445], [85.37701, 28.27418], [85.37671, 28.27391], [85.37672, 28.27364], [85.37641, 28.27336], [85.37642, 28.27309], [85.37673, 28.27282], [85.37673, 28.27255], [85.37643, 28.27228], [85.37644, 28.27201], [85.37644, 28.27174], [85.37644, 28.27147], [85.37614, 28.27119], [85.37615, 28.27092], [85.37615, 28.27065], [85.37615, 28.27038], [85.37616, 28.27011], [85.37616, 28.26984], [85.37617, 28.26957], [85.37617, 28.2693], [85.37617, 28.26903], [85.37648, 28.26876], [85.37618, 28.26849], [85.37588, 28.26821], [85.37589, 28.26794], [85.37558, 28.26767], [85.37559, 28.2674], [85.37559, 28.26713], [85.37529, 28.26685], [85.37499, 28.26658], [85.37469, 28.2663], [85.37439, 28.26603], [85.37408, 28.26575], [85.37378, 28.26548], [85.37379, 28.26521], [85.37348, 28.26493], [85.37318, 28.26466], [85.37288, 28.26439], [85.37258, 28.26411], [85.37228, 28.26384], [85.37198, 28.26356], [85.37198, 28.26329], [85.37198, 28.26302], [85.37199, 28.26275], [85.37199, 28.26248], [85.37169, 28.26221], [85.37139, 28.26193], [85.37109, 28.26166], [85.37079, 28.26138], [85.37048, 28.26111], [85.37018, 28.26083], [85.36988, 28.26056], [85.36958, 28.26029], [85.36928, 28.26001], [85.36897, 28.26001], [85.36866, 28.26027], [85.36836, 28.26], [85.36806, 28.25973], [85.36776, 28.25945], [85.36746, 28.25918], [85.36715, 28.2589], [85.36685, 28.25863], [85.36655, 28.25835], [85.36625, 28.25808], [85.36656, 28.25781], [85.36656, 28.25754], [85.36626, 28.25727], [85.36627, 28.257], [85.36596, 28.25672], [85.36566, 28.25645], [85.36536, 28.25617], [85.36537, 28.2559], [85.36506, 28.25563], [85.36507, 28.25536], [85.36507, 28.25509], [85.36508, 28.25482], [85.36477, 28.25454], [85.36478, 28.25427], [85.36448, 28.254], [85.36448, 28.25373], [85.36449, 28.25346], [85.36449, 28.25318], [85.3648, 28.25292], [85.3648, 28.25265], [85.36511, 28.25238], [85.36512, 28.25211], [85.36482, 28.25183], [85.36451, 28.25156], [85.36452, 28.25129], [85.36452, 28.25102], [85.36453, 28.25075], [85.36423, 28.25047], [85.36423, 28.2502], [85.36423, 28.24993], [85.36424, 28.24966], [85.36455, 28.24939], [85.36455, 28.24912], [85.36425, 28.24885], [85.36395, 28.24858], [85.36365, 28.2483], [85.36365, 28.24803], [85.36335, 28.24776], [85.36335, 28.24749], [85.36305, 28.24721], [85.36275, 28.24694], [85.36245, 28.24666], [85.36215, 28.24639], [85.36185, 28.24611], [85.36154, 28.24584], [85.36124, 28.24556], [85.36094, 28.24529], [85.36064, 28.24502], [85.36034, 28.24474], [85.36004, 28.24447], [85.35973, 28.24473], [85.35943, 28.24446], [85.35912, 28.24419], [85.35882, 28.24391], [85.35852, 28.24364], [85.35822, 28.24336], [85.35822, 28.24309], [85.35823, 28.24282], [85.35793, 28.24255], [85.35793, 28.24228], [85.35763, 28.242], [85.35733, 28.24173], [85.35733, 28.24146], [85.35734, 28.24119], [85.35734, 28.24092], [85.35734, 28.24064], [85.35765, 28.24038], [85.35796, 28.24011], [85.35797, 28.23984], [85.35797, 28.23957], [85.35767, 28.23929], [85.35767, 28.23902], [85.35768, 28.23875], [85.35799, 28.23849], [85.35799, 28.23822], [85.35769, 28.23794], [85.35769, 28.23767], [85.3577, 28.2374], [85.3577, 28.23713], [85.35771, 28.23686], [85.35771, 28.23659], [85.35802, 28.23632], [85.35833, 28.23605], [85.35834, 28.23578], [85.35834, 28.23551], [85.35834, 28.23524], [85.35865, 28.23497], [85.35896, 28.23471], [85.35897, 28.23444], [85.35928, 28.23417], [85.35928, 28.2339], [85.35959, 28.23363], [85.3596, 28.23336], [85.3596, 28.23309], [85.35991, 28.23282], [85.35991, 28.23255], [85.36022, 28.23229], [85.36023, 28.23202], [85.36023, 28.23174], [85.35993, 28.23147], [85.36024, 28.2312], [85.36024, 28.23093], [85.36025, 28.23066], [85.36056, 28.23039], [85.36056, 28.23012], [85.36057, 28.22985], [85.36088, 28.22959], [85.36088, 28.22932], [85.36088, 28.22905], [85.36058, 28.22877], [85.36059, 28.2285], [85.36059, 28.22823], [85.36059, 28.22796], [85.3609, 28.22769], [85.36091, 28.22742], [85.36091, 28.22715], [85.36092, 28.22688], [85.36092, 28.22661], [85.36093, 28.22634], [85.36093, 28.22607], [85.36093, 28.2258], [85.36094, 28.22553], [85.36125, 28.22526], [85.36125, 28.22499], [85.36126, 28.22472], [85.36126, 28.22445], [85.36126, 28.22418], [85.36096, 28.2239], [85.36097, 28.22363], [85.36067, 28.22336], [85.36067, 28.22309], [85.36067, 28.22282], [85.36037, 28.22254], [85.36007, 28.22227], [85.35977, 28.22199], [85.35947, 28.22172], [85.35917, 28.22144], [85.35886, 28.22117], [85.35856, 28.22089], [85.35826, 28.22062], [85.35796, 28.22035], [85.35796, 28.22008], [85.35766, 28.2198], [85.35736, 28.21953], [85.35706, 28.21925], [85.35706, 28.21898], [85.35676, 28.21871], [85.35646, 28.21843], [85.35647, 28.21816], [85.35616, 28.21789], [85.35586, 28.21761], [85.35587, 28.21734], [85.35557, 28.21707], [85.35526, 28.21679], [85.35527, 28.21652], [85.35497, 28.21625], [85.35497, 28.21598], [85.35467, 28.2157], [85.35467, 28.21543], [85.35468, 28.21516], [85.35468, 28.21489], [85.35469, 28.21462], [85.35469, 28.21435], [85.355, 28.21408], [85.355, 28.21381], [85.3547, 28.21354], [85.35471, 28.21327], [85.35471, 28.213], [85.35471, 28.21273], [85.35472, 28.21246], [85.35472, 28.21218], [85.35473, 28.21191], [85.35443, 28.21164], [85.35443, 28.21137], [85.35443, 28.2111], [85.35444, 28.21083], [85.35414, 28.21055], [85.35414, 28.21028], [85.35414, 28.21001], [85.35415, 28.20974], [85.35415, 28.20947], [85.35416, 28.2092], [85.35447, 28.20893], [85.35447, 28.20866], [85.35448, 28.20839], [85.35448, 28.20812], [85.35448, 28.20785], [85.35479, 28.20758], [85.3548, 28.20731], [85.3548, 28.20704], [85.35481, 28.20677], [85.35481, 28.2065], [85.35481, 28.20623], [85.35482, 28.20596], [85.35452, 28.20568], [85.35452, 28.20541], [85.35422, 28.20514], [85.35392, 28.20486], [85.35392, 28.20459], [85.35393, 28.20432], [85.35363, 28.20405], [85.35332, 28.20377], [85.35333, 28.2035], [85.35333, 28.20323], [85.35303, 28.20296], [85.35303, 28.20269], [85.35304, 28.20242], [85.35304, 28.20215], [85.35274, 28.20187], [85.35275, 28.2016], [85.35275, 28.20133], [85.35275, 28.20106], [85.35276, 28.20079], [85.35246, 28.20052], [85.35246, 28.20024], [85.35247, 28.19997], [85.35247, 28.1997], [85.35247, 28.19943], [85.35217, 28.19916], [85.35218, 28.19889], [85.35218, 28.19862], [85.35188, 28.19834], [85.35188, 28.19807], [85.35158, 28.1978], [85.35128, 28.19752], [85.35128, 28.19725], [85.35098, 28.19698], [85.35068, 28.1967], [85.35038, 28.19643], [85.35038, 28.19616], [85.35039, 28.19589], [85.35039, 28.19562], [85.35009, 28.19534], [85.3501, 28.19507], [85.34979, 28.1948], [85.3498, 28.19453], [85.3498, 28.19426], [85.3495, 28.19398], [85.3492, 28.19371], [85.3492, 28.19344], [85.34921, 28.19317], [85.34891, 28.19289], [85.34891, 28.19262], [85.34891, 28.19235], [85.34892, 28.19208], [85.34862, 28.1918], [85.34862, 28.19153], [85.34832, 28.19126], [85.34832, 28.19099], [85.34802, 28.19071], [85.34803, 28.19044], [85.34773, 28.19017], [85.34773, 28.1899], [85.34743, 28.18962], [85.34713, 28.18935], [85.34683, 28.18908], [85.34652, 28.1888], [85.34622, 28.18853], [85.34623, 28.18826], [85.34623, 28.18799], [85.34593, 28.18771], [85.34593, 28.18744], [85.34594, 28.18717], [85.34594, 28.1869], [85.34595, 28.18663], [85.34565, 28.18635], [85.34565, 28.18608], [85.34535, 28.18581], [85.34505, 28.18553], [85.34475, 28.18526], [85.34444, 28.18499], [85.34414, 28.18471], [85.34415, 28.18444], [85.34385, 28.18417], [85.34385, 28.1839], [85.34385, 28.18362], [85.34355, 28.18335], [85.34325, 28.18308], [85.34326, 28.18281], [85.34295, 28.18253], [85.34296, 28.18226], [85.34266, 28.18199], [85.34236, 28.18171], [85.34236, 28.18144], [85.34236, 28.18117], [85.34237, 28.1809], [85.34237, 28.18063], [85.34238, 28.18036], [85.34238, 28.18009], [85.34239, 28.17982], [85.34239, 28.17955], [85.3427, 28.17928], [85.3427, 28.17901], [85.34271, 28.17874], [85.34271, 28.17847], [85.34272, 28.1782], [85.34272, 28.17793], [85.34272, 28.17765], [85.34273, 28.17738], [85.34273, 28.17711], [85.34274, 28.17684], [85.34274, 28.17657], [85.34275, 28.1763], [85.34275, 28.17603], [85.34245, 28.17576], [85.34215, 28.17548], [85.34215, 28.17521], [85.34215, 28.17494], [85.34216, 28.17467], [85.34216, 28.1744], [85.34217, 28.17413], [85.34217, 28.17386], [85.34248, 28.17359], [85.34249, 28.17332], [85.34218, 28.17305], [85.34219, 28.17277], [85.34189, 28.1725], [85.34189, 28.17223], [85.3419, 28.17196], [85.3419, 28.17169], [85.3419, 28.17142], [85.34191, 28.17115], [85.34191, 28.17088], [85.34192, 28.17061], [85.34192, 28.17033], [85.34192, 28.17006], [85.34193, 28.16979], [85.34224, 28.16953], [85.34255, 28.16926], [85.34255, 28.16899], [85.34256, 28.16872], [85.34256, 28.16845], [85.34256, 28.16818], [85.34226, 28.1679], [85.34227, 28.16763], [85.34258, 28.16736], [85.34289, 28.1671], [85.34289, 28.16683], [85.3429, 28.16656], [85.3429, 28.16629], [85.3426, 28.16601], [85.3423, 28.16574], [85.3423, 28.16547], [85.34231, 28.1652], [85.342, 28.16492], [85.3417, 28.16465], [85.3414, 28.16464], [85.3411, 28.16437], [85.34079, 28.16436], [85.34048, 28.16436], [85.34018, 28.16436], [85.33988, 28.16408], [85.33958, 28.16381], [85.33928, 28.16353], [85.33897, 28.16326], [85.33867, 28.16326], [85.33837, 28.16298], [85.33807, 28.16271], [85.33777, 28.16243], [85.33746, 28.16216], [85.33747, 28.16189], [85.33747, 28.16162], [85.33748, 28.16135], [85.33748, 28.16108], [85.33748, 28.1608], [85.33718, 28.16053], [85.33719, 28.16026], [85.33689, 28.15999], [85.33658, 28.15998], [85.33628, 28.15971], [85.33598, 28.15943], [85.33567, 28.15943], [85.33537, 28.15915], [85.33507, 28.15888], [85.33477, 28.15888], [85.33446, 28.15887], [85.33416, 28.1586], [85.33385, 28.15859], [85.33355, 28.15859], [85.33325, 28.15832], [85.33295, 28.15804], [85.33295, 28.15777], [85.33265, 28.1575], [85.33235, 28.15722], [85.33204, 28.15722], [85.33174, 28.15694], [85.33143, 28.15694], [85.33113, 28.15667], [85.33083, 28.15639], [85.33053, 28.15639], [85.33023, 28.15611], [85.32992, 28.15584], [85.32962, 28.15556], [85.32932, 28.15529], [85.32902, 28.15502], [85.32872, 28.15474], [85.32872, 28.15447], [85.32842, 28.1542], [85.32812, 28.15392], [85.32782, 28.15392], [85.32751, 28.15364], [85.32721, 28.15337], [85.32691, 28.1531], [85.32692, 28.15282], [85.32662, 28.15255], [85.32631, 28.15228], [85.32601, 28.152], [85.32571, 28.15173], [85.32541, 28.15172], [85.3251, 28.15145], [85.3248, 28.15144], [85.3245, 28.15117], [85.32419, 28.15117], [85.32389, 28.15089], [85.32359, 28.15089], [85.32328, 28.15088], [85.32298, 28.15061], [85.32267, 28.15061], [85.32237, 28.1506], [85.32207, 28.15033], [85.32177, 28.15005], [85.32147, 28.14978], [85.32116, 28.14951], [85.32086, 28.1495], [85.32056, 28.14923], [85.32026, 28.14895], [85.31996, 28.14868], [85.31965, 28.1484], [85.31935, 28.1484], [85.31904, 28.1484], [85.31874, 28.14839], [85.31844, 28.14812], [85.31813, 28.14811], [85.31783, 28.14784], [85.31753, 28.14757], [85.31723, 28.14729], [85.31693, 28.14702], [85.31663, 28.14674], [85.31632, 28.14674], [85.31602, 28.14646], [85.31571, 28.14646], [85.31541, 28.14619], [85.31511, 28.14618], [85.31481, 28.14591], [85.3145, 28.14563], [85.3142, 28.14536], [85.3139, 28.14508], [85.3136, 28.14481], [85.3133, 28.14453], [85.313, 28.14426], [85.3127, 28.14399], [85.3127, 28.14372], [85.3124, 28.14344], [85.3124, 28.14317], [85.31241, 28.1429], [85.31241, 28.14263], [85.31211, 28.14235], [85.31181, 28.14208], [85.31151, 28.14208], [85.3112, 28.14234], [85.31089, 28.14234], [85.31058, 28.14261], [85.31028, 28.1426], [85.30997, 28.1426], [85.30966, 28.14259], [85.30936, 28.14232], [85.30906, 28.14205], [85.30876, 28.14177], [85.30846, 28.1415], [85.30816, 28.14122], [85.30786, 28.14095], [85.30756, 28.14067], [85.30726, 28.1404], [85.30695, 28.14012], [85.30665, 28.13985], [85.30635, 28.13958], [85.30605, 28.1393], [85.30575, 28.13903], [85.30545, 28.13875], [85.30515, 28.13848], [85.30485, 28.1382], [85.30485, 28.13793], [85.30486, 28.13766], [85.30455, 28.13739], [85.30456, 28.13712], [85.30456, 28.13685], [85.30426, 28.13657], [85.30427, 28.1363], [85.30396, 28.13603], [85.30366, 28.13575], [85.30336, 28.13548], [85.30337, 28.13521], [85.30337, 28.13494], [85.30307, 28.13466], [85.30277, 28.13439], [85.30277, 28.13412], [85.30278, 28.13385], [85.30248, 28.13357], [85.30218, 28.1333], [85.30187, 28.13302], [85.30157, 28.13302], [85.30127, 28.13274], [85.30097, 28.13247], [85.30097, 28.1322], [85.30067, 28.13192], [85.30067, 28.13165], [85.30068, 28.13138], [85.30068, 28.13111], [85.30038, 28.13084], [85.30039, 28.13057], [85.30039, 28.1303], [85.30039, 28.13003], [85.30009, 28.12975], [85.3001, 28.12948], [85.2998, 28.12921], [85.2995, 28.12893], [85.29919, 28.12866], [85.29889, 28.12838], [85.29859, 28.12811], [85.29829, 28.12783], [85.2983, 28.12756], [85.29799, 28.12729], [85.298, 28.12702], [85.2977, 28.12674], [85.2974, 28.12647], [85.29709, 28.12647], [85.29679, 28.12619], [85.29649, 28.12592], [85.29618, 28.12591], [85.29588, 28.12591], [85.29558, 28.12563], [85.29527, 28.12563], [85.29497, 28.12536], [85.29467, 28.12508], [85.29437, 28.12481], [85.29407, 28.12453], [85.29377, 28.12426], [85.29347, 28.12398], [85.29316, 28.12371], [85.29286, 28.12343], [85.29256, 28.12343], [85.29226, 28.12316], [85.29196, 28.12288], [85.29166, 28.12261], [85.29135, 28.12233], [85.29105, 28.12206], [85.29075, 28.12178], [85.29045, 28.12151], [85.29015, 28.12123], [85.28985, 28.12096], [85.28955, 28.12069], [85.28925, 28.12041], [85.28895, 28.12014], [85.28864, 28.11986], [85.28865, 28.11959], [85.28835, 28.11932], [85.28805, 28.11904], [85.28775, 28.11877], [85.28744, 28.11876], [85.28714, 28.11849], [85.28683, 28.11849], [85.28653, 28.11821], [85.28623, 28.11794], [85.28593, 28.11793], [85.28563, 28.11766], [85.28532, 28.11765], [85.28502, 28.11738], [85.28472, 28.11711], [85.28441, 28.1171], [85.28411, 28.11683], [85.28381, 28.11655], [85.28351, 28.11655], [85.28321, 28.11627], [85.2829, 28.116], [85.2826, 28.11573], [85.2823, 28.11545], [85.28231, 28.11518], [85.28231, 28.11491], [85.28232, 28.11464], [85.28201, 28.11436], [85.28171, 28.11409], [85.28172, 28.11382], [85.28142, 28.11354], [85.28142, 28.11327], [85.28112, 28.113], [85.28082, 28.11272], [85.28051, 28.11272], [85.28021, 28.11245], [85.27991, 28.11244], [85.27961, 28.11217], [85.27961, 28.1119], [85.27931, 28.11162], [85.279, 28.11162], [85.2787, 28.11134], [85.2784, 28.11107], [85.27809, 28.11134], [85.27779, 28.11106], [85.27749, 28.11079], [85.27719, 28.11051], [85.27689, 28.11024], [85.27659, 28.10996], [85.27629, 28.10969], [85.27599, 28.10942], [85.27569, 28.10914], [85.27538, 28.10887], [85.27508, 28.10859], [85.27478, 28.10832], [85.27448, 28.10804], [85.27418, 28.10777], [85.27388, 28.10749], [85.27358, 28.10722], [85.27328, 28.10694], [85.27297, 28.10694], [85.27267, 28.10667], [85.27237, 28.10666], [85.27207, 28.10639], [85.27207, 28.10612], [85.27177, 28.10584], [85.27147, 28.10557], [85.27117, 28.10529], [85.27087, 28.10502], [85.27056, 28.10474], [85.27026, 28.10447], [85.26996, 28.1042], [85.26966, 28.10392], [85.26936, 28.10392], [85.26906, 28.10364], [85.26875, 28.10337], [85.26845, 28.10336], [85.26815, 28.10309], [85.26785, 28.10281], [85.26755, 28.10254], [85.26725, 28.10227], [85.26695, 28.10199], [85.26664, 28.10172], [85.26634, 28.10144], [85.26604, 28.10117], [85.26574, 28.10089], [85.26544, 28.10062], [85.26514, 28.10034], [85.26484, 28.10007], [85.26454, 28.09979], [85.26424, 28.09952], [85.26394, 28.09925], [85.26394, 28.09897], [85.26364, 28.0987], [85.26364, 28.09843], [85.26334, 28.09815], [85.26304, 28.09788], [85.26274, 28.09761], [85.26244, 28.0976], [85.26213, 28.09733], [85.26183, 28.09705], [85.26153, 28.09678], [85.26123, 28.0965], [85.26093, 28.09623], [85.26063, 28.09595], [85.26033, 28.09568], [85.26003, 28.09541], [85.25972, 28.0954], [85.25942, 28.0954], [85.25911, 28.09539], [85.25881, 28.09512], [85.25851, 28.09512], [85.2582, 28.09511], [85.2579, 28.09511], [85.25759, 28.0951], [85.25729, 28.0951], [85.25698, 28.0951], [85.25668, 28.09509], [85.25637, 28.09482], [85.25607, 28.09481], [85.25576, 28.09481], [85.25546, 28.09481], [85.25516, 28.09453], [85.25485, 28.09453], [85.25455, 28.09425], [85.25425, 28.09398], [85.25395, 28.09397], [85.25364, 28.0937], [85.25334, 28.09343], [85.25304, 28.09342], [85.25274, 28.09315], [85.25243, 28.09314], [85.25213, 28.09287], [85.25183, 28.09286], [85.25152, 28.09286], [85.25122, 28.09286], [85.25091, 28.09285], [85.25061, 28.09285], [85.2503, 28.09257], [85.25, 28.09257], [85.24969, 28.09257], [85.24939, 28.09256], [85.24908, 28.09256], [85.24878, 28.09228], [85.24848, 28.09201], [85.24818, 28.09201], [85.24787, 28.092], [85.24757, 28.092], [85.24726, 28.09199], [85.24696, 28.09199], [85.24665, 28.09226], [85.24634, 28.09225], [85.24604, 28.09225], [85.24573, 28.09252], [85.24542, 28.09251], [85.24512, 28.09251], [85.24481, 28.0925], [85.24451, 28.0925], [85.2442, 28.0925], [85.24389, 28.09249], [85.24359, 28.09249], [85.24328, 28.09248], [85.24298, 28.09248], [85.24267, 28.09248], [85.24237, 28.0922], [85.24207, 28.0922], [85.24177, 28.09192], [85.24146, 28.09192], [85.24116, 28.09192], [85.24085, 28.09191], [85.24055, 28.09191], [85.24024, 28.0919], [85.23994, 28.0919], [85.23963, 28.0919], [85.23933, 28.09189], [85.23902, 28.09189], [85.23872, 28.09161], [85.23841, 28.09161], [85.23811, 28.09134], [85.23781, 28.09133], [85.2375, 28.09133], [85.2372, 28.09132], [85.23689, 28.09132], [85.23659, 28.09132], [85.23629, 28.09104], [85.23598, 28.09104], [85.23567, 28.0913], [85.23537, 28.0913], [85.23506, 28.0913], [85.23476, 28.09102], [85.23446, 28.09075], [85.23416, 28.09047], [85.23386, 28.0902], [85.23355, 28.09019], [85.23325, 28.08992], [85.23295, 28.08992], [85.23264, 28.08991], [85.23234, 28.08964], [85.23204, 28.08963], [85.23173, 28.08936], [85.23143, 28.08908], [85.23113, 28.08881], [85.23083, 28.08853], [85.23053, 28.08826], [85.23023, 28.08798], [85.22993, 28.08771], [85.22963, 28.08744], [85.22932, 28.08743], [85.22902, 28.08716], [85.22872, 28.08688], [85.22842, 28.08661], [85.22812, 28.08633], [85.22782, 28.08606], [85.22782, 28.08579], [85.22783, 28.08552], [85.22753, 28.08524], [85.22722, 28.08524], [85.22692, 28.08496], [85.22662, 28.08469], [85.22632, 28.08441], [85.22602, 28.08414], [85.22571, 28.08414], [85.22541, 28.08386], [85.22511, 28.08386], [85.2248, 28.08385], [85.2245, 28.08358], [85.2242, 28.0833], [85.2239, 28.08303], [85.2236, 28.08303], [85.22329, 28.08302], [85.22299, 28.08275], [85.22269, 28.08247], [85.22238, 28.08247], [85.22208, 28.08219], [85.22178, 28.08219], [85.22148, 28.08192], [85.22117, 28.08191], [85.22087, 28.08164], [85.22057, 28.08163], [85.22027, 28.08136], [85.21996, 28.08108], [85.21966, 28.08108], [85.21936, 28.0808], [85.21905, 28.0808], [85.21875, 28.08053], [85.21876, 28.08026], [85.21846, 28.07998], [85.21816, 28.07971], [85.21785, 28.07943], [85.21755, 28.07943], [85.21725, 28.07915], [85.21695, 28.07888], [85.21665, 28.0786], [85.21635, 28.07833], [85.21605, 28.07805], [85.21575, 28.07778], [85.21544, 28.07751], [85.21514, 28.07723], [85.21484, 28.07696], [85.21454, 28.07695], [85.21424, 28.07668], [85.21394, 28.0764], [85.21364, 28.07613], [85.21333, 28.07612], [85.21303, 28.07612], [85.21272, 28.07585], [85.21242, 28.07584], [85.21212, 28.07557], [85.21181, 28.07556], [85.21151, 28.07529], [85.21121, 28.07528], [85.21091, 28.07501], [85.2106, 28.07501], [85.2103, 28.075], [85.21, 28.07473], [85.2097, 28.07445], [85.20939, 28.07418], [85.2094, 28.07391], [85.2091, 28.07363], [85.2091, 28.07336], [85.2088, 28.07309], [85.20881, 28.07282], [85.20851, 28.07254], [85.20821, 28.07227], [85.2079, 28.07199], [85.20791, 28.07172], [85.20791, 28.07145], [85.20792, 28.07118], [85.20792, 28.07091], [85.20762, 28.07063], [85.20732, 28.07036], [85.20702, 28.07009], [85.20703, 28.06981], [85.20672, 28.06954], [85.20642, 28.06927], [85.20612, 28.06899], [85.20582, 28.06872], [85.20552, 28.06844], [85.20522, 28.06817], [85.20523, 28.0679], [85.20523, 28.06763], [85.20523, 28.06735], [85.20524, 28.06708], [85.20524, 28.06681], [85.20494, 28.06654], [85.20495, 28.06627], [85.20495, 28.066], [85.20526, 28.06573], [85.20557, 28.06546], [85.20588, 28.0652], [85.20589, 28.06493], [85.20589, 28.06466], [85.20589, 28.06439], [85.2062, 28.06412], [85.20621, 28.06385], [85.20652, 28.06358], [85.20683, 28.06331], [85.20683, 28.06304], [85.20684, 28.06277], [85.20715, 28.06251], [85.20715, 28.06224], [85.20716, 28.06196], [85.20716, 28.06169], [85.20716, 28.06142], [85.20717, 28.06115], [85.20717, 28.06088], [85.20718, 28.06061], [85.20749, 28.06034], [85.20749, 28.06007], [85.2078, 28.05981], [85.20781, 28.05954], [85.20751, 28.05926], [85.20751, 28.05899], [85.20751, 28.05872], [85.20782, 28.05845], [85.20783, 28.05818], [85.20783, 28.05791], [85.20814, 28.05765], [85.20815, 28.05738], [85.20815, 28.0571], [85.20846, 28.05684], [85.20847, 28.05657], [85.20817, 28.05629], [85.20786, 28.05602], [85.20787, 28.05575], [85.20787, 28.05548], [85.20788, 28.05521], [85.20758, 28.05493], [85.20758, 28.05466], [85.20759, 28.05439], [85.20759, 28.05412], [85.20729, 28.05384], [85.20699, 28.05357], [85.20699, 28.0533], [85.20669, 28.05302], [85.20639, 28.05275], [85.2064, 28.05248], [85.2061, 28.0522], [85.2058, 28.05193], [85.2055, 28.05165], [85.20519, 28.05165], [85.20489, 28.05138], [85.20459, 28.0511], [85.20429, 28.05083], [85.20399, 28.05055], [85.20369, 28.05028], [85.20339, 28.05], [85.20309, 28.04973], [85.20309, 28.04946], [85.2031, 28.04919], [85.20279, 28.04891], [85.20249, 28.04864], [85.2025, 28.04837], [85.2022, 28.04809], [85.2022, 28.04782], [85.20221, 28.04755], [85.20191, 28.04728], [85.20191, 28.04701], [85.20161, 28.04673], [85.20131, 28.04646], [85.20131, 28.04619], [85.20101, 28.04591], [85.20071, 28.04564], [85.20041, 28.04536], [85.20011, 28.04536], [85.19981, 28.04508], [85.19951, 28.04481], [85.19921, 28.04453], [85.19891, 28.04426], [85.1986, 28.04398], [85.1983, 28.04371], [85.198, 28.04371], [85.1977, 28.04343], [85.19739, 28.04343], [85.19709, 28.04315], [85.19679, 28.04288], [85.1968, 28.04261], [85.1965, 28.04233], [85.19619, 28.04233], [85.19589, 28.04205], [85.19559, 28.04178], [85.19529, 28.0415], [85.19499, 28.04123], [85.19469, 28.04095], [85.19469, 28.04068], [85.19439, 28.04041], [85.19409, 28.04013], [85.19379, 28.03986], [85.1938, 28.03959], [85.1938, 28.03932], [85.19411, 28.03905], [85.19411, 28.03878], [85.19412, 28.03851], [85.19382, 28.03824], [85.19352, 28.03796], [85.19352, 28.03769], [85.19383, 28.03742], [85.19384, 28.03715], [85.19354, 28.03688], [85.19354, 28.03661], [85.19354, 28.03634], [85.19355, 28.03607], [85.19355, 28.0358], [85.19356, 28.03552], [85.19356, 28.03525], [85.19357, 28.03498], [85.19388, 28.03472], [85.19358, 28.03444], [85.19328, 28.03417], [85.19328, 28.0339], [85.19328, 28.03363], [85.19329, 28.03336], [85.19329, 28.03308], [85.1936, 28.03282], [85.19361, 28.03255], [85.19361, 28.03228], [85.19362, 28.03201], [85.19362, 28.03174], [85.19363, 28.03146], [85.19363, 28.03119], [85.19364, 28.03092], [85.19364, 28.03065], [85.19334, 28.03038], [85.19334, 28.03011], [85.19304, 28.02983], [85.19305, 28.02956], [85.19275, 28.02929], [85.19245, 28.02901], [85.19215, 28.02874], [85.19215, 28.02847], [85.19185, 28.02819], [85.19155, 28.02792], [85.19125, 28.02764], [85.19156, 28.02738], [85.19156, 28.02711], [85.19157, 28.02683], [85.19127, 28.02656], [85.19097, 28.02629], [85.19067, 28.02601], [85.19036, 28.02601], [85.19006, 28.026], [85.18976, 28.02573], [85.18945, 28.02572], [85.18915, 28.02572], [85.18884, 28.02572], [85.18854, 28.02571], [85.18823, 28.02544], [85.18793, 28.02543], [85.18763, 28.02516], [85.18732, 28.02515], [85.18701, 28.02542], [85.18671, 28.02515], [85.18641, 28.02487], [85.18611, 28.0246], [85.18581, 28.02432], [85.18551, 28.02405], [85.18521, 28.02377], [85.18522, 28.0235], [85.18522, 28.02323], [85.18523, 28.02296], [85.18492, 28.02269], [85.18493, 28.02242], [85.18493, 28.02214], [85.18494, 28.02187], [85.18525, 28.02161], [85.18556, 28.02134], [85.18587, 28.02107], [85.18618, 28.02081], [85.18649, 28.02054], [85.1868, 28.02027], [85.18711, 28.02001], [85.18711, 28.01974], [85.18742, 28.01947], [85.18742, 28.0192], [85.18743, 28.01893], [85.18713, 28.01865], [85.18713, 28.01838], [85.18714, 28.01811], [85.18745, 28.01785], [85.18745, 28.01758], [85.18746, 28.0173], [85.18746, 28.01703], [85.18746, 28.01676], [85.18716, 28.01649], [85.18686, 28.01621], [85.18656, 28.01594], [85.18626, 28.01566], [85.18596, 28.01539], [85.18566, 28.01511], [85.18536, 28.01484], [85.18537, 28.01457], [85.18507, 28.01429], [85.18477, 28.01402], [85.18446, 28.01375], [85.18447, 28.01347], [85.18447, 28.0132], [85.18448, 28.01293], [85.18418, 28.01266], [85.18418, 28.01239], [85.18419, 28.01212], [85.18389, 28.01184], [85.18389, 28.01157], [85.1839, 28.0113], [85.1836, 28.01103], [85.1836, 28.01076], [85.1836, 28.01049], [85.18361, 28.01021], [85.18361, 28.00994], [85.18362, 28.00967], [85.18362, 28.0094], [85.18363, 28.00913], [85.18363, 28.00886], [85.18364, 28.00859], [85.18364, 28.00832], [85.18364, 28.00805], [85.18365, 28.00778], [85.18365, 28.00751], [85.18366, 28.00724], [85.18397, 28.00697], [85.18397, 28.0067], [85.18367, 28.00642], [85.18368, 28.00615], [85.18399, 28.00589], [85.18399, 28.00562], [85.1843, 28.00535], [85.1843, 28.00508], [85.18431, 28.00481], [85.18431, 28.00454], [85.18432, 28.00427], [85.18432, 28.004], [85.18433, 28.00373], [85.18403, 28.00345], [85.18403, 28.00318], [85.18404, 28.00291], [85.18404, 28.00264], [85.18405, 28.00237], [85.18374, 28.00209], [85.18375, 28.00182], [85.18406, 28.00156], [85.18437, 28.00129], [85.18437, 28.00102], [85.18438, 28.00075], [85.18438, 28.00048], [85.18439, 28.00021], [85.1847, 27.99994], [85.18501, 27.99967], [85.18501, 27.9994], [85.18501, 27.99913], [85.18532, 27.99887], [85.18533, 27.9986], [85.18564, 27.99833], [85.18564, 27.99806], [85.18595, 27.99779], [85.18596, 27.99752], [85.18596, 27.99725], [85.18597, 27.99698], [85.18597, 27.99671], [85.18567, 27.99643], [85.18537, 27.99616], [85.18507, 27.99588], [85.18507, 27.99561], [85.18477, 27.99534], [85.18447, 27.99506], [85.18417, 27.99479], [85.18387, 27.99451], [85.18357, 27.99424], [85.18327, 27.99397], [85.18297, 27.99369], [85.18267, 27.99342], [85.18237, 27.99314], [85.18237, 27.99287], [85.18238, 27.9926], [85.18208, 27.99233], [85.18239, 27.99206], [85.18239, 27.99179], [85.1827, 27.99152], [85.18271, 27.99125], [85.18302, 27.99098], [85.18302, 27.99071], [85.18303, 27.99044], [85.18303, 27.99017], [85.18273, 27.9899], [85.18243, 27.98962], [85.18213, 27.98935], [85.18182, 27.98934], [85.18152, 27.98907], [85.18122, 27.98879], [85.18092, 27.98879], [85.18062, 27.98852], [85.18062, 27.98824], [85.18032, 27.98797], [85.18033, 27.9877], [85.18033, 27.98743], [85.18034, 27.98716], [85.18034, 27.98689], [85.18034, 27.98662], [85.18065, 27.98635], [85.18066, 27.98608], [85.18036, 27.9858], [85.18067, 27.98554], [85.18067, 27.98527], [85.18037, 27.98499], [85.18068, 27.98473], [85.18069, 27.98446], [85.18039, 27.98418], [85.18039, 27.98391], [85.18039, 27.98364], [85.1804, 27.98337], [85.1804, 27.9831], [85.18041, 27.98283], [85.18011, 27.98255], [85.18011, 27.98228], [85.18012, 27.98201], [85.18043, 27.98174], [85.18043, 27.98147], [85.18074, 27.98121], [85.18074, 27.98094], [85.18075, 27.98067], [85.18075, 27.9804], [85.18106, 27.98013], [85.18137, 27.97986], [85.18138, 27.97959], [85.18138, 27.97932], [85.18139, 27.97905], [85.18139, 27.97878], [85.1814, 27.97851], [85.1817, 27.97824], [85.18171, 27.97797], [85.18171, 27.9777], [85.18172, 27.97743], [85.18203, 27.97716], [85.18203, 27.97689], [85.18204, 27.97662], [85.18204, 27.97635], [85.18205, 27.97608], [85.18236, 27.97581], [85.18236, 27.97554], [85.18236, 27.97527], [85.18267, 27.97501], [85.18268, 27.97473], [85.18268, 27.97446], [85.18299, 27.9742], [85.1833, 27.97393], [85.18331, 27.97366], [85.18362, 27.97339], [85.18362, 27.97312], [85.18393, 27.97286], [85.18424, 27.97259], [85.18424, 27.97232], [85.18425, 27.97205], [85.18425, 27.97178], [85.18426, 27.97151], [85.18426, 27.97124], [85.18396, 27.97096], [85.18366, 27.97069], [85.18336, 27.97041], [85.18306, 27.97041], [85.18275, 27.9704], [85.18245, 27.97013], [85.18215, 27.97013], [85.18184, 27.97012], [85.18154, 27.97012], [85.18124, 27.96984], [85.18093, 27.96984], [85.18063, 27.96983], [85.18033, 27.96956], [85.18002, 27.96956], [85.17972, 27.96955], [85.17942, 27.96928], [85.17911, 27.96927], [85.17881, 27.969], [85.17851, 27.96872], [85.17821, 27.96845], [85.17821, 27.96818], [85.17791, 27.9679], [85.17792, 27.96763], [85.17762, 27.96736], [85.17762, 27.96709], [85.17763, 27.96682], [85.17733, 27.96654], [85.17733, 27.96627], [85.17703, 27.966], [85.17704, 27.96573], [85.17674, 27.96545], [85.17644, 27.96518], [85.17613, 27.9649], [85.17583, 27.9649], [85.17553, 27.96462], [85.17522, 27.96462], [85.17492, 27.96434], [85.17462, 27.96434], [85.17431, 27.96434], [85.17401, 27.96406], [85.17371, 27.96406], [85.1734, 27.96405], [85.1731, 27.96378], [85.1728, 27.96377], [85.1725, 27.9635], [85.17219, 27.9635], [85.17189, 27.96322], [85.17158, 27.96349], [85.17128, 27.96321], [85.17098, 27.96294], [85.17068, 27.96266], [85.17038, 27.96239], [85.17008, 27.96238], [85.16978, 27.96211], [85.16948, 27.96183], [85.16918, 27.96156], [85.16888, 27.96129], [85.16888, 27.96101], [85.16858, 27.96074], [85.16859, 27.96047], [85.16859, 27.9602], [85.16829, 27.95992], [85.1683, 27.95965], [85.1683, 27.95938], [85.168, 27.95911], [85.168, 27.95884], [85.16801, 27.95857], [85.16771, 27.95829], [85.16771, 27.95802], [85.16741, 27.95775], [85.16711, 27.95747], [85.16712, 27.9572], [85.16682, 27.95693], [85.16652, 27.95665], [85.16621, 27.95665], [85.16591, 27.95637], [85.16561, 27.95637], [85.16531, 27.95609], [85.165, 27.95609], [85.1647, 27.95609], [85.1644, 27.95581], [85.16409, 27.95581], [85.16379, 27.9558], [85.16348, 27.9558], [85.16318, 27.95552], [85.16288, 27.95525], [85.16258, 27.95497], [85.16228, 27.9547], [85.16198, 27.95442], [85.16199, 27.95415], [85.16199, 27.95388], [85.1623, 27.95362], [85.1623, 27.95335], [85.16231, 27.95308], [85.16231, 27.9528], [85.16232, 27.95253], [85.16232, 27.95226], [85.16233, 27.95199], [85.16233, 27.95172], [85.16234, 27.95145], [85.16234, 27.95118], [85.16235, 27.95091], [85.16235, 27.95064], [85.16235, 27.95037], [85.16236, 27.9501], [85.16236, 27.94983], [85.16237, 27.94956], [85.16237, 27.94929], [85.16238, 27.94902], [85.16269, 27.94875], [85.163, 27.94848], [85.163, 27.94821], [85.1627, 27.94794], [85.1627, 27.94767], [85.16271, 27.9474], [85.16271, 27.94712], [85.16241, 27.94685], [85.16211, 27.94658], [85.16181, 27.9463], [85.16182, 27.94603], [85.16152, 27.94576], [85.16152, 27.94548], [85.16122, 27.94521], [85.16123, 27.94494], [85.16093, 27.94466], [85.16063, 27.94439], [85.16063, 27.94412], [85.16033, 27.94384], [85.16034, 27.94357], [85.16034, 27.9433], [85.16004, 27.94303], [85.16004, 27.94276], [85.15974, 27.94248], [85.15975, 27.94221], [85.15975, 27.94194], [85.15945, 27.94167], [85.15915, 27.94139], [85.15916, 27.94112], [85.15886, 27.94085], [85.15917, 27.94058], [85.15887, 27.9403], [85.15857, 27.94003], [85.15857, 27.93976], [85.15827, 27.93948], [85.15797, 27.93921], [85.15797, 27.93894], [85.15767, 27.93866], [85.15737, 27.93839], [85.15738, 27.93812], [85.15708, 27.93784], [85.15678, 27.93757], [85.15678, 27.9373], [85.15679, 27.93703], [85.15649, 27.93675], [85.15649, 27.93648], [85.15619, 27.93621], [85.1562, 27.93594], [85.1562, 27.93567], [85.1559, 27.93539], [85.1556, 27.93512], [85.15561, 27.93485], [85.15561, 27.93458], [85.15561, 27.9343], [85.15531, 27.93403], [85.15532, 27.93376], [85.15532, 27.93349], [85.15502, 27.93321], [85.15503, 27.93294], [85.15473, 27.93267], [85.15443, 27.93239], [85.15413, 27.93212], [85.15383, 27.93184], [85.15352, 27.93184], [85.15321, 27.93211], [85.1529, 27.93237], [85.15259, 27.93264], [85.15229, 27.93291], [85.15198, 27.93317], [85.15167, 27.93344], [85.15136, 27.93371], [85.15105, 27.9337], [85.15075, 27.9337], [85.15045, 27.93342], [85.15015, 27.93315], [85.15015, 27.93288], [85.15016, 27.93261], [85.14986, 27.93233], [85.14986, 27.93206], [85.14987, 27.93179], [85.14987, 27.93152], [85.14987, 27.93125], [85.14988, 27.93098], [85.14988, 27.93071], [85.14958, 27.93043], [85.14959, 27.93016], [85.14959, 27.92989], [85.14929, 27.92962], [85.14899, 27.92934], [85.149, 27.92907], [85.149, 27.9288], [85.14901, 27.92853], [85.14932, 27.92826], [85.14963, 27.928], [85.14993, 27.92773], [85.14994, 27.92746], [85.15025, 27.92719], [85.15056, 27.92693], [85.15056, 27.92666], [85.15057, 27.92639], [85.15057, 27.92611], [85.15088, 27.92585], [85.15089, 27.92558], [85.15089, 27.92531], [85.1509, 27.92504], [85.1512, 27.92477], [85.15121, 27.9245], [85.15121, 27.92423], [85.15122, 27.92396], [85.15122, 27.92369], [85.15123, 27.92342], [85.15123, 27.92315], [85.15093, 27.92287], [85.15094, 27.9226], [85.15064, 27.92233], [85.15034, 27.92205], [85.15003, 27.92205], [85.14973, 27.92204], [85.14943, 27.92177], [85.14912, 27.92176], [85.14882, 27.92149], [85.14852, 27.92148], [85.14822, 27.92121], [85.14791, 27.92121], [85.14761, 27.92093], [85.14731, 27.92093], [85.147, 27.92092], [85.1467, 27.92092], [85.14639, 27.92091], [85.14609, 27.92091], [85.14579, 27.92064], [85.14548, 27.92063], [85.14518, 27.92063], [85.14487, 27.92062], [85.14457, 27.92062], [85.14426, 27.92062], [85.14396, 27.92034], [85.14366, 27.92034], [85.14336, 27.92033], [85.14305, 27.92006], [85.14275, 27.91978], [85.14245, 27.91951], [85.14215, 27.91923], [85.14185, 27.91896], [85.14186, 27.91869], [85.14156, 27.91841], [85.14126, 27.91814], [85.14096, 27.91786], [85.14066, 27.91759], [85.14035, 27.91758], [85.14005, 27.91731], [85.13975, 27.91703], [85.13945, 27.91703], [85.13914, 27.91703], [85.13884, 27.91702], [85.13853, 27.91702], [85.13823, 27.91674], [85.13793, 27.91674], [85.13763, 27.91674], [85.13732, 27.91673], [85.13702, 27.91646], [85.13672, 27.91645], [85.13641, 27.91645], [85.13611, 27.91617], [85.13581, 27.91617], [85.1355, 27.91617], [85.1352, 27.91589], [85.1349, 27.91589], [85.1346, 27.91561], [85.1343, 27.91534], [85.1343, 27.91507], [85.13431, 27.9148], [85.13431, 27.91452], [85.13462, 27.91426], [85.13462, 27.91399], [85.13493, 27.91372], [85.13524, 27.91345], [85.13555, 27.91319], [85.13586, 27.91292], [85.13617, 27.91265], [85.13618, 27.91238], [85.13649, 27.91212], [85.13679, 27.91185], [85.1371, 27.91158], [85.13741, 27.91132], [85.13772, 27.91105], [85.13773, 27.91078], [85.13804, 27.91051], [85.13804, 27.91024], [85.13835, 27.90998], [85.13866, 27.90971], [85.13866, 27.90944], [85.13867, 27.90917], [85.13898, 27.9089], [85.13898, 27.90863], [85.13899, 27.90836], [85.13899, 27.90809], [85.139, 27.90782], [85.139, 27.90755], [85.13901, 27.90728], [85.13901, 27.90701], [85.13932, 27.90674], [85.13933, 27.90647], [85.13963, 27.9062], [85.13964, 27.90593], [85.13995, 27.90567], [85.13995, 27.9054], [85.14026, 27.90513], [85.14027, 27.90486], [85.14058, 27.90459], [85.14058, 27.90432], [85.14089, 27.90405], [85.14089, 27.90378], [85.1409, 27.90351], [85.1409, 27.90324], [85.14121, 27.90298], [85.14091, 27.9027], [85.14092, 27.90243], [85.14062, 27.90216], [85.14032, 27.90188], [85.14001, 27.90188], [85.13971, 27.9016], [85.13941, 27.90133], [85.13911, 27.90132], [85.1388, 27.90132], [85.1385, 27.90104], [85.1382, 27.90104], [85.1379, 27.90077], [85.13759, 27.90076], [85.13729, 27.90049], [85.13699, 27.90021], [85.137, 27.89994], [85.1367, 27.89967], [85.1367, 27.8994], [85.13671, 27.89912], [85.13671, 27.89885], [85.13672, 27.89858], [85.13672, 27.89831], [85.13642, 27.89804], [85.13643, 27.89777], [85.13643, 27.8975], [85.13613, 27.89722], [85.13614, 27.89695], [85.13584, 27.89668], [85.13584, 27.89641], [85.13585, 27.89613], [85.13585, 27.89586], [85.13585, 27.89559], [85.13586, 27.89532], [85.13586, 27.89505], [85.13587, 27.89478], [85.13587, 27.89451], [85.13588, 27.89424], [85.13619, 27.89397], [85.13619, 27.8937], [85.1362, 27.89343], [85.1362, 27.89316], [85.13621, 27.89289], [85.13621, 27.89262], [85.13652, 27.89235], [85.13652, 27.89208], [85.13653, 27.89181], [85.13653, 27.89154], [85.13684, 27.89127], [85.13685, 27.891], [85.13685, 27.89073], [85.13716, 27.89047], [85.13717, 27.8902], [85.13717, 27.88993], [85.13718, 27.88966], [85.13688, 27.88938], [85.13688, 27.88911], [85.13658, 27.88883], [85.13628, 27.88856], [85.13598, 27.88829], [85.13568, 27.88801], [85.13538, 27.88801], [85.13508, 27.88773], [85.13477, 27.88773], [85.13447, 27.88745], [85.13417, 27.88718], [85.13387, 27.8869], [85.13357, 27.88663], [85.13327, 27.88635], [85.13297, 27.88635], [85.13267, 27.88607], [85.13237, 27.8858], [85.13206, 27.8858], [85.13176, 27.88579], [85.13146, 27.88552], [85.13116, 27.88524], [85.13086, 27.88497], [85.13056, 27.88469], [85.13026, 27.88442], [85.12995, 27.88441], [85.12965, 27.88414], [85.12935, 27.88386], [85.12905, 27.88359], [85.12875, 27.88358], [85.12845, 27.88331], [85.12815, 27.88303], [85.12785, 27.88276], [85.12755, 27.88249], [85.12725, 27.88221], [85.12695, 27.88194], [85.12695, 27.88166], [85.12665, 27.88139], [85.12635, 27.88112], [85.12636, 27.88084], [85.12636, 27.88057], [85.12637, 27.8803], [85.12607, 27.88003], [85.12607, 27.87976], [85.12608, 27.87949], [85.12608, 27.87922], [85.12609, 27.87895], [85.12579, 27.87867], [85.12579, 27.8784], [85.12579, 27.87813], [85.1258, 27.87786], [85.1258, 27.87759], [85.12581, 27.87732], [85.12612, 27.87705], [85.12612, 27.87678], [85.12582, 27.87651], [85.12583, 27.87623], [85.12583, 27.87596], [85.12584, 27.87569], [85.12584, 27.87542], [85.12554, 27.87515], [85.12555, 27.87488], [85.12525, 27.8746], [85.12494, 27.8746], [85.12464, 27.87432], [85.12434, 27.87432], [85.12404, 27.87404], [85.12373, 27.87404], [85.12343, 27.87404], [85.12312, 27.87403], [85.12282, 27.87376], [85.12252, 27.87348], [85.12222, 27.87348], [85.12191, 27.87347], [85.12161, 27.87347], [85.12131, 27.8732], [85.12101, 27.87292], [85.12071, 27.87265], [85.1204, 27.87264], [85.1201, 27.87237], [85.11981, 27.87209], [85.11951, 27.87182], [85.1192, 27.87181], [85.1189, 27.87181], [85.1186, 27.87153], [85.1183, 27.87126], [85.11799, 27.87125], [85.11769, 27.87098], [85.11739, 27.87098], [85.11708, 27.87097], [85.11678, 27.8707], [85.11648, 27.87042], [85.11618, 27.87042], [85.11588, 27.87014], [85.11558, 27.86987], [85.11528, 27.86959], [85.11498, 27.86932], [85.11468, 27.86904], [85.11438, 27.86877], [85.11408, 27.86849], [85.11378, 27.86822], [85.11348, 27.86794], [85.11318, 27.86767], [85.11318, 27.8674], [85.11288, 27.86712], [85.11258, 27.86685], [85.11228, 27.86657], [85.11229, 27.8663], [85.11199, 27.86603], [85.1123, 27.86576], [85.1123, 27.86549], [85.112, 27.86522], [85.1117, 27.86494], [85.11171, 27.86467], [85.11141, 27.8644], [85.11141, 27.86413], [85.11111, 27.86385], [85.11112, 27.86358], [85.11082, 27.86331], [85.11082, 27.86303], [85.11083, 27.86276], [85.11053, 27.86249], [85.11022, 27.86248], [85.10992, 27.86221], [85.10962, 27.86194], [85.10932, 27.86166], [85.10902, 27.86139], [85.10872, 27.86111], [85.10842, 27.86084], [85.10812, 27.86056], [85.10782, 27.86029], [85.10752, 27.86001], [85.10753, 27.85974], [85.10723, 27.85947], [85.10723, 27.85919], [85.10693, 27.85892], [85.10663, 27.85865], [85.10633, 27.85837], [85.10602, 27.85864], [85.10572, 27.85863], [85.10542, 27.85863], [85.10511, 27.85862], [85.1048, 27.85889], [85.1045, 27.85889], [85.10419, 27.85888], [85.10389, 27.85888], [85.10359, 27.8586], [85.10328, 27.8586], [85.10298, 27.85859], [85.10267, 27.85859], [85.10237, 27.85859], [85.10207, 27.85858], [85.10176, 27.85858], [85.10146, 27.85857], [85.10115, 27.85857], [85.10085, 27.85857], [85.10054, 27.85856], [85.10023, 27.85883], [85.09993, 27.85882], [85.09962, 27.85882], [85.09932, 27.85882], [85.09901, 27.85908], [85.0987, 27.85935], [85.0984, 27.85934], [85.09809, 27.85961], [85.09778, 27.85961], [85.09748, 27.8596], [85.09717, 27.85987], [85.09686, 27.85986], [85.09656, 27.85986], [85.09625, 27.86013], [85.09595, 27.86012], [85.09564, 27.86012], [85.09534, 27.86011], [85.09503, 27.86011], [85.09473, 27.86011], [85.09442, 27.86037], [85.09411, 27.86037], [85.0938, 27.86063], [85.0935, 27.86063], [85.0932, 27.86063], [85.09289, 27.86062], [85.09259, 27.86062], [85.09228, 27.86061], [85.09198, 27.86061], [85.09167, 27.8606], [85.09137, 27.8606], [85.09106, 27.8606], [85.09076, 27.86059], [85.09045, 27.86059], [85.09015, 27.86031], [85.08985, 27.86004], [85.08955, 27.85976], [85.08926, 27.85949], [85.08896, 27.85921], [85.08866, 27.85894], [85.08866, 27.85867], [85.08866, 27.8584], [85.08867, 27.85813], [85.08867, 27.85786], [85.08837, 27.85758], [85.08807, 27.85731], [85.08778, 27.85703], [85.08778, 27.85676], [85.08748, 27.85649], [85.08718, 27.85648], [85.08687, 27.85648], [85.08657, 27.85647], [85.08626, 27.85647], [85.08596, 27.85619], [85.08566, 27.85619], [85.08535, 27.85619], [85.08504, 27.85645], [85.08474, 27.85645], [85.08443, 27.85644], [85.08413, 27.85644], [85.08383, 27.85643], [85.08352, 27.85643], [85.08322, 27.85643], [85.08291, 27.85642], [85.08261, 27.85642], [85.08231, 27.85614], [85.082, 27.85614], [85.0817, 27.85613], [85.08139, 27.8564], [85.08109, 27.85613], [85.08078, 27.85612], [85.08048, 27.85639], [85.08017, 27.85638], [85.07987, 27.85638], [85.07957, 27.8561], [85.07927, 27.85583], [85.07897, 27.85556], [85.07866, 27.85582], [85.07836, 27.85555], [85.07806, 27.85527], [85.07776, 27.855], [85.07746, 27.85472], [85.07716, 27.85445], [85.07685, 27.85444], [85.07655, 27.85417], [85.07625, 27.85389], [85.07596, 27.85362], [85.07565, 27.85361], [85.07535, 27.85361], [85.07504, 27.85361], [85.07474, 27.85333], [85.07444, 27.85333], [85.07413, 27.85332], [85.07383, 27.85332], [85.07352, 27.85331], [85.07322, 27.85331], [85.07291, 27.8533], [85.07261, 27.85357], [85.0723, 27.85357], [85.072, 27.85356], [85.07169, 27.85356], [85.07138, 27.85382], [85.07107, 27.85409], [85.07076, 27.85436], [85.07046, 27.85435], [85.07015, 27.85462], [85.06985, 27.85462], [85.06954, 27.85461], [85.06923, 27.85488], [85.06893, 27.85487], [85.06862, 27.85514], [85.06831, 27.85541], [85.068, 27.85567], [85.06769, 27.85594], [85.06738, 27.85593], [85.06708, 27.8562], [85.06677, 27.85647], [85.06646, 27.85646], [85.06615, 27.85673], [85.06585, 27.85673], [85.06554, 27.85699], [85.06523, 27.85726], [85.06492, 27.85725], [85.06462, 27.85725], [85.06432, 27.85725], [85.06401, 27.85724], [85.0637, 27.85751], [85.06339, 27.85777], [85.06309, 27.85777], [85.06278, 27.85804], [85.06247, 27.8583], [85.06246, 27.85857], [85.06215, 27.85884], [85.06185, 27.85911], [85.06184, 27.85938], [85.06153, 27.85964], [85.06122, 27.85991], [85.06091, 27.86018], [85.06061, 27.8599], [85.06031, 27.8599], [85.06, 27.85989], [85.0597, 27.85989], [85.0594, 27.85961], [85.0591, 27.85934], [85.0588, 27.85933], [85.0585, 27.85906], [85.0582, 27.85878], [85.0579, 27.85851], [85.0576, 27.85823], [85.0573, 27.85796], [85.0573, 27.85769], [85.05761, 27.85742], [85.05762, 27.85715], [85.05762, 27.85688], [85.05732, 27.85661], [85.05702, 27.85633], [85.05703, 27.85606], [85.05673, 27.85579], [85.05643, 27.85551], [85.05613, 27.85524], [85.05583, 27.85496], [85.05553, 27.85469], [85.05522, 27.85468], [85.05492, 27.85441], [85.05462, 27.85413], [85.05432, 27.85386], [85.05402, 27.85385], [85.05371, 27.85385], [85.05341, 27.85384], [85.05311, 27.85384], [85.05281, 27.85356], [85.0525, 27.85356], [85.0522, 27.85328], [85.0519, 27.85328], [85.0516, 27.85301], [85.05129, 27.853], [85.05099, 27.853], [85.05068, 27.85299], [85.05038, 27.85299], [85.05007, 27.85298], [85.04977, 27.85298], [85.04947, 27.85298], [85.04916, 27.85297], [85.04886, 27.85297], [85.04855, 27.85296], [85.04824, 27.85323], [85.04793, 27.85349], [85.04762, 27.85376], [85.04731, 27.85403], [85.04701, 27.85402], [85.04671, 27.85402], [85.0464, 27.85401], [85.04609, 27.85428], [85.04578, 27.85455], [85.04547, 27.85481], [85.04516, 27.85508], [85.04485, 27.85535], [85.04454, 27.85561], [85.04424, 27.85588], [85.04393, 27.85615], [85.04362, 27.85641], [85.04331, 27.85641], [85.043, 27.85667], [85.0427, 27.85667], [85.04239, 27.85667], [85.04209, 27.85666], [85.04179, 27.85639], [85.04149, 27.85611], [85.04119, 27.85584], [85.04089, 27.85556], [85.04059, 27.85529], [85.04029, 27.85501], [85.03999, 27.85474], [85.04, 27.85447], [85.0397, 27.85419], [85.0394, 27.85392], [85.0391, 27.85364], [85.0388, 27.85337], [85.03849, 27.85363], [85.03818, 27.8539], [85.03787, 27.85416], [85.03756, 27.85443], [85.03726, 27.85416], [85.03696, 27.85415], [85.03665, 27.85415], [85.03635, 27.85414], [85.03604, 27.85414], [85.03574, 27.85413], [85.03543, 27.85413], [85.03513, 27.85413], [85.03482, 27.85412], [85.03452, 27.85412], [85.03421, 27.85411], [85.03391, 27.85411], [85.03361, 27.8541], [85.0333, 27.8541], [85.033, 27.85382], [85.0327, 27.85382], [85.03239, 27.85409], [85.03209, 27.85381], [85.03179, 27.85354], [85.03149, 27.85326], [85.03118, 27.85353], [85.03088, 27.85325], [85.03058, 27.85298], [85.03028, 27.8527], [85.03029, 27.85243], [85.02999, 27.85216], [85.02999, 27.85189], [85.03, 27.85162], [85.0297, 27.85134], [85.0297, 27.85107], [85.02971, 27.8508], [85.02941, 27.85052], [85.02941, 27.85025], [85.02942, 27.84998], [85.02942, 27.84971], [85.02912, 27.84944], [85.02913, 27.84917], [85.02913, 27.8489], [85.02883, 27.84862], [85.02884, 27.84835], [85.02854, 27.84808], [85.02823, 27.84807], [85.02793, 27.8478], [85.02763, 27.84752], [85.02733, 27.84725], [85.02703, 27.84724], [85.02673, 27.84697], [85.02642, 27.84696], [85.02613, 27.84669], [85.02583, 27.84641], [85.02552, 27.84641], [85.02522, 27.84613], [85.02492, 27.84613], [85.02462, 27.84585], [85.02431, 27.84585], [85.02401, 27.84557], [85.02371, 27.84557], [85.02341, 27.84529], [85.0231, 27.84529], [85.0228, 27.84529], [85.0225, 27.84501], [85.0222, 27.84474], [85.0219, 27.84446], [85.0216, 27.84419], [85.0213, 27.84391], [85.021, 27.84364], [85.0207, 27.84336], [85.0204, 27.84309], [85.0201, 27.84281], [85.0198, 27.84254], [85.01981, 27.84226], [85.01981, 27.84199], [85.01951, 27.84172], [85.01952, 27.84145], [85.01952, 27.84118], [85.01983, 27.84091], [85.02014, 27.84065], [85.02045, 27.84038], [85.02046, 27.84011], [85.02077, 27.83984], [85.02108, 27.83958], [85.02108, 27.8393], [85.02139, 27.83904], [85.0214, 27.83877], [85.0214, 27.8385], [85.02171, 27.83823], [85.02202, 27.83796], [85.02202, 27.83769], [85.02233, 27.83743], [85.02264, 27.83716], [85.02234, 27.83689], [85.02265, 27.83662], [85.02266, 27.83635], [85.02297, 27.83608], [85.02328, 27.83582], [85.02328, 27.83555], [85.02329, 27.83528], [85.02329, 27.835], [85.02299, 27.83473], [85.023, 27.83446], [85.023, 27.83419], [85.02301, 27.83392], [85.02301, 27.83365], [85.02302, 27.83338], [85.02302, 27.83311], [85.02272, 27.83283], [85.02273, 27.83256], [85.02243, 27.83229], [85.02213, 27.83201], [85.02183, 27.83174], [85.02153, 27.83146], [85.02123, 27.83119], [85.02093, 27.83091], [85.02093, 27.83064], [85.02063, 27.83036], [85.02033, 27.83009], [85.02004, 27.82981], [85.01974, 27.82954], [85.01944, 27.82926], [85.01914, 27.82899], [85.01884, 27.82871], [85.01854, 27.82844], [85.01824, 27.82816], [85.01824, 27.82789], [85.01794, 27.82762], [85.01795, 27.82735], [85.01795, 27.82708], [85.01765, 27.8268], [85.01735, 27.82653], [85.01705, 27.82625], [85.01676, 27.82598], [85.01676, 27.82571], [85.01707, 27.82544], [85.01738, 27.82517], [85.01738, 27.8249], [85.01739, 27.82463], [85.01739, 27.82436], [85.0174, 27.82409], [85.0174, 27.82382], [85.01741, 27.82355], [85.01741, 27.82328], [85.01742, 27.82301], [85.01742, 27.82274], [85.01743, 27.82247], [85.01713, 27.82219], [85.01713, 27.82192], [85.01683, 27.82165], [85.01714, 27.82138], [85.01715, 27.82111], [85.01685, 27.82083], [85.01685, 27.82056], [85.01655, 27.82029], [85.01625, 27.82001], [85.01595, 27.81974], [85.01626, 27.81947], [85.01657, 27.81921], [85.01658, 27.81894], [85.01658, 27.81866], [85.01628, 27.81839], [85.01598, 27.81811], [85.01568, 27.81784], [85.01569, 27.81757], [85.01539, 27.81729], [85.01509, 27.81702], [85.0151, 27.81675], [85.0151, 27.81648], [85.0148, 27.8162], [85.0145, 27.81593], [85.01451, 27.81566], [85.01421, 27.81538], [85.01421, 27.81511], [85.01391, 27.81484], [85.01361, 27.81456], [85.01331, 27.81429], [85.01332, 27.81402], [85.01332, 27.81374], [85.01302, 27.81347], [85.01272, 27.81319], [85.01243, 27.81292], [85.01243, 27.81265], [85.01243, 27.81238], [85.01214, 27.8121], [85.01214, 27.81183], [85.01215, 27.81156], [85.01215, 27.81129], [85.01216, 27.81102], [85.01216, 27.81075], [85.01247, 27.81048], [85.01278, 27.81022], [85.01278, 27.80995], [85.01309, 27.80968], [85.0134, 27.80968], [85.01371, 27.80942], [85.01402, 27.80915], [85.01402, 27.80888], [85.01433, 27.80862], [85.01434, 27.80834], [85.01434, 27.80807], [85.01435, 27.8078], [85.01435, 27.80753], [85.01405, 27.80726], [85.01375, 27.80725], [85.01345, 27.80698], [85.01314, 27.80697], [85.01284, 27.80697], [85.01253, 27.80724], [85.01222, 27.8075], [85.01192, 27.80723], [85.01162, 27.80722], [85.01132, 27.80695], [85.01101, 27.80694], [85.01071, 27.80667], [85.01041, 27.80639], [85.01011, 27.80612], [85.00981, 27.80584], [85.00951, 27.80584], [85.0092, 27.8061], [85.0089, 27.80583], [85.0086, 27.80583], [85.00829, 27.80582], [85.00799, 27.80555], [85.00769, 27.80554], [85.00738, 27.80554], [85.00708, 27.80526], [85.00678, 27.80499], [85.00649, 27.80471], [85.00619, 27.80444], [85.00589, 27.80416], [85.00558, 27.80443], [85.00528, 27.80415], [85.00497, 27.80415], [85.00466, 27.80441], [85.00436, 27.80414], [85.00406, 27.80386], [85.00377, 27.80359], [85.00347, 27.80331], [85.00317, 27.80304], [85.00287, 27.80276], [85.00257, 27.80249], [85.00226, 27.80248], [85.00196, 27.80248], [85.00166, 27.80221], [85.00136, 27.8022], [85.00105, 27.8022], [85.00075, 27.80219], [85.00044, 27.80219], [85.00014, 27.80218], [84.99983, 27.80245], [84.99952, 27.80245], [84.99922, 27.80244], [84.99891, 27.80271], [84.99861, 27.8027], [84.9983, 27.80297], [84.99799, 27.80296], [84.99768, 27.80323], [84.99738, 27.80323], [84.99707, 27.80322], [84.99676, 27.80349], [84.99646, 27.80348], [84.99616, 27.80348], [84.99585, 27.80347], [84.99554, 27.80374], [84.99523, 27.80401], [84.99493, 27.804], [84.99462, 27.804], [84.99432, 27.80372], [84.99403, 27.80345], [84.99372, 27.80371], [84.99341, 27.80371], [84.99311, 27.80371], [84.99281, 27.80343], [84.9925, 27.80343], [84.9922, 27.80342], [84.9919, 27.80315], [84.9916, 27.80314], [84.99129, 27.80314], [84.99098, 27.8034], [84.99067, 27.80367], [84.99036, 27.80394], [84.99005, 27.8042], [84.98974, 27.80447], [84.98943, 27.80474], [84.98913, 27.805], [84.98882, 27.80527], [84.98851, 27.80553], [84.9882, 27.8058], [84.98789, 27.8058], [84.98759, 27.80579], [84.98728, 27.80579], [84.98698, 27.80551], [84.98668, 27.80551], [84.98638, 27.8055], [84.98608, 27.80523], [84.98577, 27.80522], [84.98547, 27.80495], [84.98517, 27.80467], [84.98487, 27.80467], [84.98456, 27.80466], [84.98427, 27.80439], [84.98397, 27.80411], [84.98367, 27.80384], [84.98337, 27.80356], [84.98306, 27.80356], [84.98276, 27.80328], [84.98246, 27.80301], [84.98216, 27.80273], [84.98186, 27.80273], [84.98156, 27.80245], [84.98126, 27.80245], [84.98095, 27.80245], [84.98065, 27.80244], [84.98034, 27.80244], [84.98004, 27.80216], [84.97974, 27.80216], [84.97944, 27.80215], [84.97914, 27.80188], [84.97883, 27.80187], [84.97853, 27.8016], [84.97823, 27.80159], [84.97792, 27.80159], [84.97762, 27.80158], [84.97731, 27.80158], [84.97701, 27.80158], [84.97671, 27.80157], [84.9764, 27.80157], [84.9761, 27.80156], [84.97579, 27.80156], [84.97549, 27.80155], [84.97518, 27.80155], [84.97488, 27.80154], [84.97457, 27.80181], [84.97427, 27.80181], [84.97396, 27.8018], [84.97366, 27.8018], [84.97335, 27.80206], [84.97304, 27.80206], [84.97273, 27.80233], [84.97242, 27.80259], [84.97212, 27.80286], [84.97211, 27.80313], [84.97211, 27.8034], [84.9721, 27.80367], [84.9721, 27.80394], [84.97209, 27.80421], [84.97239, 27.80449], [84.97238, 27.80476], [84.97207, 27.80502], [84.97177, 27.80529], [84.97146, 27.80556], [84.97115, 27.80555], [84.97085, 27.80555], [84.97054, 27.80581], [84.97023, 27.80608], [84.96992, 27.80634], [84.96961, 27.80661], [84.9693, 27.80688], [84.9693, 27.80715], [84.96929, 27.80742], [84.96898, 27.80768], [84.96928, 27.80796], [84.96897, 27.80823], [84.96897, 27.8085], [84.96926, 27.80877], [84.96926, 27.80904], [84.96925, 27.80931], [84.96895, 27.80958], [84.96894, 27.80985], [84.96924, 27.81013], [84.96954, 27.8104], [84.96923, 27.81067], [84.96922, 27.81094], [84.96892, 27.8112], [84.96891, 27.81147], [84.9686, 27.81174], [84.96829, 27.81201], [84.96799, 27.81173], [84.96769, 27.81146], [84.96739, 27.81145], [84.96709, 27.81118], [84.96678, 27.81117], [84.96649, 27.8109], [84.96619, 27.81062], [84.96588, 27.81062], [84.96557, 27.81088], [84.96526, 27.81115], [84.96526, 27.81142], [84.96525, 27.81169], [84.96494, 27.81196], [84.96463, 27.81222], [84.96463, 27.81249], [84.96462, 27.81276], [84.96462, 27.81303], [84.96431, 27.8133], [84.9643, 27.81357], [84.9643, 27.81384], [84.96399, 27.81411], [84.96398, 27.81438], [84.96367, 27.81465], [84.96367, 27.81492], [84.96336, 27.81518], [84.96336, 27.81545], [84.96305, 27.81572], [84.96304, 27.81599], [84.96273, 27.81626], [84.96242, 27.81652], [84.96211, 27.81679], [84.9618, 27.81705], [84.9615, 27.81705], [84.96119, 27.81705], [84.96088, 27.81731], [84.96058, 27.81758], [84.96027, 27.81757], [84.95996, 27.81784], [84.95966, 27.81783], [84.95935, 27.8181], [84.95904, 27.8181], [84.95874, 27.81809], [84.95843, 27.81809], [84.95813, 27.81781], [84.95783, 27.81781], [84.95753, 27.81753], [84.95722, 27.8178], [84.95692, 27.81752], [84.95662, 27.81725], [84.95632, 27.81697], [84.95602, 27.8167], [84.95572, 27.81669], [84.95541, 27.81696], [84.95511, 27.81668], [84.95481, 27.81668], [84.95451, 27.81641], [84.95421, 27.81613], [84.9539, 27.81613], [84.9536, 27.81585], [84.95329, 27.81612], [84.95299, 27.81611], [84.95269, 27.81611], [84.95238, 27.8161], [84.95208, 27.8161], [84.95177, 27.81609], [84.95147, 27.81609], [84.95116, 27.81636], [84.95085, 27.81662], [84.95054, 27.81689], [84.95024, 27.81688], [84.94993, 27.81688], [84.94963, 27.81687], [84.94933, 27.8166], [84.94903, 27.81632], [84.94872, 27.81632], [84.94842, 27.81631], [84.94811, 27.81631], [84.94781, 27.81631], [84.94751, 27.81603], [84.94721, 27.81576], [84.94691, 27.81548], [84.94661, 27.8152], [84.94631, 27.81493], [84.94601, 27.81465], [84.94572, 27.81438], [84.94572, 27.81411], [84.94542, 27.81383], [84.94512, 27.81356], [84.94513, 27.81329], [84.94483, 27.81301], [84.94483, 27.81274], [84.94453, 27.81247], [84.94423, 27.81219], [84.94393, 27.81192], [84.94364, 27.81164], [84.94334, 27.81137], [84.94334, 27.8111], [84.94304, 27.81082], [84.94274, 27.81054], [84.94275, 27.81027], [84.94275, 27.81], [84.94245, 27.80973], [84.94276, 27.80946], [84.94246, 27.80919], [84.94247, 27.80892], [84.94247, 27.80865], [84.94248, 27.80838], [84.94248, 27.8081], [84.94218, 27.80783], [84.94189, 27.80755], [84.94189, 27.80728], [84.94159, 27.80701], [84.94129, 27.80673], [84.9413, 27.80646], [84.941, 27.80619], [84.941, 27.80592], [84.9407, 27.80564], [84.9404, 27.80537], [84.94011, 27.80509], [84.93981, 27.80482], [84.93951, 27.80454], [84.9392, 27.80454], [84.9389, 27.80453], [84.93859, 27.80453], [84.93829, 27.80452], [84.93798, 27.80479], [84.93767, 27.80505], [84.93737, 27.80505], [84.93706, 27.80505], [84.93676, 27.80504], [84.93645, 27.80504], [84.93615, 27.80503], [84.93585, 27.80476], [84.93555, 27.80448], [84.93525, 27.80448], [84.93495, 27.8042], [84.93465, 27.80393], [84.93434, 27.80392], [84.93404, 27.80365], [84.93374, 27.80337], [84.93344, 27.8031], [84.93315, 27.80282], [84.93285, 27.80255], [84.93255, 27.80227], [84.93225, 27.802], [84.93195, 27.80172], [84.93165, 27.80145], [84.93135, 27.80117], [84.93105, 27.80117], [84.93074, 27.80116], [84.93044, 27.80089], [84.93014, 27.80061], [84.92984, 27.80061], [84.92954, 27.80033], [84.92924, 27.80006], [84.92894, 27.79978], [84.92863, 27.80005], [84.92833, 27.79977], [84.92803, 27.7995], [84.92773, 27.79949], [84.92743, 27.79922], [84.92713, 27.79894], [84.92683, 27.79867], [84.92653, 27.79866], [84.92623, 27.79839], [84.92592, 27.79838], [84.92562, 27.79811], [84.92532, 27.79783], [84.92502, 27.79783], [84.92472, 27.79755], [84.92442, 27.79755], [84.92411, 27.79754], [84.92381, 27.79727], [84.92351, 27.79726], [84.9232, 27.79726], [84.92289, 27.79752], [84.92259, 27.79752], [84.92229, 27.79751], [84.92198, 27.79778], [84.92167, 27.79805], [84.92136, 27.79831], [84.92105, 27.79831], [84.92074, 27.79857], [84.92043, 27.79884], [84.92012, 27.79911], [84.91982, 27.7991], [84.91951, 27.79937], [84.9192, 27.79963], [84.91889, 27.7999], [84.91859, 27.7999], [84.91828, 27.80016], [84.91797, 27.80043], [84.91766, 27.80069], [84.91735, 27.80069], [84.91705, 27.80068], [84.91675, 27.80068], [84.91644, 27.80095], [84.91613, 27.80094], [84.91582, 27.80121], [84.91552, 27.8012], [84.91521, 27.80147], [84.9149, 27.80173], [84.91489, 27.80201], [84.91458, 27.80227], [84.91427, 27.80254], [84.91427, 27.80281], [84.91457, 27.80308], [84.91426, 27.80335], [84.91425, 27.80362], [84.91425, 27.80389], [84.91424, 27.80416], [84.91424, 27.80443], [84.91393, 27.8047], [84.91362, 27.80496], [84.91331, 27.80523], [84.91301, 27.80523], [84.9127, 27.80522], [84.9124, 27.80522], [84.9121, 27.80494], [84.91179, 27.80494], [84.91149, 27.80493], [84.91118, 27.80493], [84.91088, 27.80492], [84.91058, 27.80492], [84.91028, 27.80464], [84.90997, 27.80464], [84.90967, 27.80463], [84.90936, 27.80463], [84.90906, 27.80462], [84.90875, 27.80462], [84.90845, 27.80462], [84.90815, 27.80461], [84.90785, 27.80434], [84.90755, 27.80406], [84.90724, 27.80406], [84.90693, 27.80432], [84.90693, 27.80459], [84.90692, 27.80486], [84.90722, 27.80514], [84.90722, 27.80541], [84.90721, 27.80568], [84.90721, 27.80595], [84.9072, 27.80622], [84.9072, 27.80649], [84.90719, 27.80676], [84.90719, 27.80703], [84.90688, 27.8073], [84.90657, 27.80756], [84.90626, 27.80783], [84.90595, 27.80783], [84.90565, 27.80782], [84.90534, 27.80782], [84.90504, 27.80781], [84.90474, 27.80781], [84.90444, 27.80753], [84.90414, 27.80726], [84.90383, 27.80725], [84.90353, 27.80698], [84.90322, 27.80724], [84.90293, 27.80697], [84.90262, 27.80696], [84.90232, 27.80696], [84.90202, 27.80668], [84.90172, 27.80641], [84.90142, 27.80613], [84.90111, 27.80613], [84.90081, 27.80612], [84.90051, 27.80612], [84.9002, 27.80611], [84.8999, 27.80611], [84.89959, 27.80611], [84.89929, 27.8061], [84.89898, 27.80637], [84.89867, 27.80636], [84.89836, 27.80663], [84.89806, 27.80689], [84.89775, 27.80689], [84.89744, 27.80716], [84.89713, 27.80742]]}, "properties": {"layer": "flow path source->past Galchhi", "length_km": 122.4}}]}