{"type": "FeatureCollection", "features": [{"type": "Feature", "geometry": {"type": "Polygon", "coordinates": [[[85.619478, 28.462196], [85.619481, 28.462015], [85.619276, 28.462013], [85.619281, 28.461652], [85.619485, 28.461654], [85.619488, 28.461474], [85.6201, 28.46148], [85.620098, 28.46166], [85.620302, 28.461663], [85.620298, 28.462023], [85.620093, 28.462021], [85.620091, 28.462202], [85.619478, 28.462196]]]}, "properties": {"area_m2": 6400, "layer": "S1 VV new-dark 16->28 Aug", "note": "candidate surface change; cluster near 85.564E 28.266N interpreted as detachment zone"}}, {"type": "Feature", "geometry": {"type": "Polygon", "coordinates": [[[85.628994, 28.452906], [85.628996, 28.452725], [85.628792, 28.452723], [85.628795, 28.452543], [85.628999, 28.452545], [85.629001, 28.452364], [85.629205, 28.452366], [85.629208, 28.452186], [85.629412, 28.452188], [85.629409, 28.452368], [85.629614, 28.45237], [85.629611, 28.452551], [85.629816, 28.452553], [85.629813, 28.452733], [85.629609, 28.452731], [85.629607, 28.452912], [85.628994, 28.452906]]]}, "properties": {"area_m2": 4800, "layer": "S1 VV new-dark 16->28 Aug", "note": "candidate surface change; cluster near 85.564E 28.266N interpreted as detachment zone"}}, {"type": "Feature", "geometry": {"type": "Polygon", "coordinates": [[[85.443724, 28.329076], [85.443727, 28.328895], [85.443523, 28.328893], [85.443525, 28.328712], [85.443729, 28.328715], [85.443732, 28.328534], [85.443936, 28.328537], [85.443938, 28.328356], [85.444142, 28.328358], [85.444145, 28.328178], [85.444349, 28.32818], [85.444346, 28.328361], [85.44455, 28.328363], [85.444548, 28.328544], [85.444344, 28.328541], [85.444341, 28.328722], [85.444137, 28.328719], [85.444135, 28.3289], [85.443931, 28.328898], [85.443928, 28.329078], [85.443724, 28.329076]]]}, "properties": {"area_m2": 4400, "layer": "S1 VV new-dark 16->28 Aug", "note": "candidate surface change; cluster near 85.564E 28.266N interpreted as detachment zone"}}, {"type": "Feature", "geometry": {"type": "Polygon", "coordinates": [[[85.56059, 28.27025], [85.560593, 28.27007], [85.560389, 28.270068], [85.560391, 28.269887], [85.560187, 28.269885], [85.56019, 28.269704], [85.559986, 28.269702], [85.559991, 28.269341], [85.560195, 28.269343], [85.560197, 28.269163], [85.560401, 28.269165], [85.560406, 28.268804], [85.56061, 28.268806], [85.560612, 28.268626], [85.560816, 28.268628], [85.560821, 28.268267], [85.561025, 28.268269], [85.561032, 28.267728], [85.561236, 28.26773], [85.561238, 28.267549], [85.56185, 28.267556], [85.561847, 28.267736], [85.562051, 28.267738], [85.562046, 28.268099], [85.562658, 28.268106], [85.56266, 28.267925], [85.562864, 28.267927], [85.562866, 28.267747], [85.56307, 28.267749], [85.563068, 28.26793], [85.563679, 28.267936], [85.563677, 28.268117], [85.563881, 28.268119], [85.563874, 28.26866], [85.56367, 28.268658], [85.563667, 28.268838], [85.563464, 28.268836], [85.563461, 28.269017], [85.563257, 28.269015], [85.563255, 28.269195], [85.562236, 28.269184], [85.562238, 28.269004], [85.562034, 28.269002], [85.562032, 28.269182], [85.561624, 28.269178], [85.561619, 28.269539], [85.561415, 28.269537], [85.561413, 28.269717], [85.561209, 28.269715], [85.561211, 28.269535], [85.5606, 28.269528], [85.560597, 28.269709], [85.560801, 28.269711], [85.560799, 28.269891], [85.561003, 28.269893], [85.561, 28.270074], [85.560796, 28.270072], [85.560794, 28.270252], [85.56059, 28.27025]], [[85.561634, 28.268456], [85.561838, 28.268458], [85.56184, 28.268278], [85.561636, 28.268276], [85.561634, 28.268456]]]}, "properties": {"area_m2": 52400, "layer": "S1 VV new-dark 16->28 Aug", "note": "candidate surface change; cluster near 85.564E 28.266N interpreted as detachment zone"}}, {"type": "Feature", "geometry": {"type": "Polygon", "coordinates": [[[85.564291, 28.267942], [85.564293, 28.267762], [85.563886, 28.267758], [85.563888, 28.267577], [85.563684, 28.267575], [85.563687, 28.267395], [85.563891, 28.267397], [85.563893, 28.267216], [85.563485, 28.267212], [85.563483, 28.267392], [85.563279, 28.26739], [85.563281, 28.26721], [85.563078, 28.267208], [85.56308, 28.267027], [85.563284, 28.267029], [85.563286, 28.266849], [85.56349, 28.266851], [85.563493, 28.266671], [85.564716, 28.266683], [85.564721, 28.266322], [85.564924, 28.266325], [85.564927, 28.266144], [85.565335, 28.266148], [85.565332, 28.266329], [85.565944, 28.266335], [85.565941, 28.266516], [85.566145, 28.266518], [85.566138, 28.267059], [85.565934, 28.267057], [85.565932, 28.267238], [85.56532, 28.267231], [85.565318, 28.267412], [85.565114, 28.26741], [85.565111, 28.26759], [85.564907, 28.267588], [85.564905, 28.267768], [85.564497, 28.267764], [85.564495, 28.267945], [85.564291, 28.267942]]]}, "properties": {"area_m2": 30800, "layer": "S1 VV new-dark 16->28 Aug", "note": "candidate surface change; cluster near 85.564E 28.266N interpreted as detachment zone"}}, {"type": "Feature", "geometry": {"type": "Polygon", "coordinates": [[[85.562255, 28.267741], [85.562257, 28.26756], [85.562054, 28.267558], [85.562056, 28.267377], [85.56226, 28.26738], [85.562262, 28.267199], [85.562466, 28.267201], [85.562468, 28.267021], [85.562876, 28.267025], [85.562874, 28.267206], [85.563078, 28.267208], [85.563073, 28.267569], [85.562869, 28.267567], [85.562866, 28.267747], [85.562255, 28.267741]]]}, "properties": {"area_m2": 5600, "layer": "S1 VV new-dark 16->28 Aug", "note": "candidate surface change; cluster near 85.564E 28.266N interpreted as detachment zone"}}, {"type": "Feature", "geometry": {"type": "Polygon", "coordinates": [[[85.56679, 28.263998], [85.566793, 28.263817], [85.566589, 28.263815], [85.566591, 28.263634], [85.566388, 28.263632], [85.566392, 28.263271], [85.566596, 28.263273], [85.566599, 28.263093], [85.566803, 28.263095], [85.566805, 28.262915], [85.567213, 28.262919], [85.567215, 28.262738], [85.567827, 28.262745], [85.567824, 28.262925], [85.568028, 28.262927], [85.568026, 28.263108], [85.567822, 28.263106], [85.567819, 28.263286], [85.567615, 28.263284], [85.567613, 28.263465], [85.567409, 28.263463], [85.567412, 28.263282], [85.567208, 28.26328], [85.567201, 28.263821], [85.566997, 28.263819], [85.566994, 28.264], [85.56679, 28.263998]]]}, "properties": {"area_m2": 11200, "layer": "S1 VV new-dark 16->28 Aug", "note": "candidate surface change; cluster near 85.564E 28.266N interpreted as detachment zone"}}]}