{"type": "FeatureCollection", "features": [{"type": "Feature", "geometry": {"type": "Point", "coordinates": [85.39201, 28.289187]}, "properties": {"site": "Lende-Bhote Koshi confluence", "chainage_km": "21.9", "modelled_arrival_NPT": "08:53", "minutes_after_collapse": "16", "modelled_peak_NPT": "08:55", "modelled_peak_depth_m": "87.7"}}, {"type": "Feature", "geometry": {"type": "Point", "coordinates": [85.377287, 28.278552]}, "properties": {"site": "Rasuwagadhi (border)", "chainage_km": "23.9", "modelled_arrival_NPT": "08:54", "minutes_after_collapse": "17", "modelled_peak_NPT": "08:57", "modelled_peak_depth_m": "95.7"}}, {"type": "Feature", "geometry": {"type": "Point", "coordinates": [85.371802, 28.26231]}, "properties": {"site": "Timure", "chainage_km": "26.0", "modelled_arrival_NPT": "08:56", "minutes_after_collapse": "19", "modelled_peak_NPT": "08:59", "modelled_peak_depth_m": "72.7"}}, {"type": "Feature", "geometry": {"type": "Point", "coordinates": [85.341867, 28.164801]}, "properties": {"site": "Syabrubesi", "chainage_km": "38.9", "modelled_arrival_NPT": "09:09", "minutes_after_collapse": "32", "modelled_peak_NPT": "09:14", "modelled_peak_depth_m": "39.9"}}, {"type": "Feature", "geometry": {"type": "Point", "coordinates": [85.179427, 27.969286]}, "properties": {"site": "Betrawati", "chainage_km": "71.8", "modelled_arrival_NPT": "09:40", "minutes_after_collapse": "63", "modelled_peak_NPT": "09:45", "modelled_peak_depth_m": "19.9"}}, {"type": "Feature", "geometry": {"type": "Point", "coordinates": [84.9963, 27.80348]}, "properties": {"site": "Galchhi", "chainage_km": "108.0", "modelled_arrival_NPT": "11:02", "minutes_after_collapse": "145", "modelled_peak_NPT": "11:31", "modelled_peak_depth_m": "9.0"}}]}