{"type": "FeatureCollection", "features": [{"type": "Feature", "geometry": {"type": "Point", "coordinates": [85.457828, 28.3368]}, "properties": {"chainage_m": 11800.0, "Rc_m": 1018.0, "W_m": 208.0, "outer_bank": "R", "dh_m": 27.8, "v_ms": 36.6, "v_lo": 19.8, "v_hi": 60.1, "Froude": 1.57, "flags": "-"}}, {"type": "Feature", "geometry": {"type": "Point", "coordinates": [85.452383, 28.335433]}, "properties": {"chainage_m": 12400.0, "Rc_m": 1250.0, "W_m": 240.0, "outer_bank": "L", "dh_m": 20.7, "v_ms": 32.5, "v_lo": 3.7, "v_hi": 63.6, "Froude": 1.2, "flags": "void-DEM"}}, {"type": "Feature", "geometry": {"type": "Point", "coordinates": [85.45047, 28.33514]}, "properties": {"chainage_m": 12600.0, "Rc_m": 2841.0, "W_m": 296.0, "outer_bank": "L", "dh_m": 69.3, "v_ms": 80.8, "v_lo": 49.0, "v_hi": 126.3, "Froude": 2.55, "flags": "void-DEM,Fr-outside-validated-range"}}, {"type": "Feature", "geometry": {"type": "Point", "coordinates": [85.44843, 28.33512]}, "properties": {"chainage_m": 12800.0, "Rc_m": 900.0, "W_m": 224.0, "outer_bank": "L", "dh_m": -20.5, "v_ms": "", "v_lo": "", "v_hi": "", "Froude": "", "flags": "dh<=0 (no superelev signal)"}}, {"type": "Feature", "geometry": {"type": "Point", "coordinates": [85.383628, 28.283765]}, "properties": {"chainage_m": 23000.0, "Rc_m": 2011.0, "W_m": 64.0, "outer_bank": "R", "dh_m": 36.6, "v_ms": 106.2, "v_lo": 62.9, "v_hi": 168.0, "Froude": 7.34, "flags": "Fr-outside-validated-range"}}, {"type": "Feature", "geometry": {"type": "Point", "coordinates": [85.382421, 28.282389]}, "properties": {"chainage_m": 23200.0, "Rc_m": 3952.0, "W_m": 104.0, "outer_bank": "L", "dh_m": -83.3, "v_ms": "", "v_lo": "", "v_hi": "", "Froude": "", "flags": "dh<=0 (no superelev signal)"}}, {"type": "Feature", "geometry": {"type": "Point", "coordinates": [85.38119, 28.281027]}, "properties": {"chainage_m": 23400.0, "Rc_m": 1001.0, "W_m": 152.0, "outer_bank": "L", "dh_m": -72.8, "v_ms": "", "v_lo": "", "v_hi": "", "Froude": "", "flags": "dh<=0 (no superelev signal)"}}, {"type": "Feature", "geometry": {"type": "Point", "coordinates": [85.379608, 28.280107]}, "properties": {"chainage_m": 23600.0, "Rc_m": 3890.0, "W_m": 152.0, "outer_bank": "L", "dh_m": -0.3, "v_ms": "", "v_lo": "", "v_hi": "", "Froude": "", "flags": "dh<=0 (no superelev signal)"}}, {"type": "Feature", "geometry": {"type": "Point", "coordinates": [85.378003, 28.279199]}, "properties": {"chainage_m": 23800.0, "Rc_m": 554.0, "W_m": 400.0, "outer_bank": "R", "dh_m": -78.9, "v_ms": "", "v_lo": "", "v_hi": "", "Froude": "", "flags": "dh<=0 (no superelev signal)"}}, {"type": "Feature", "geometry": {"type": "Point", "coordinates": [85.37665, 28.27788]}, "properties": {"chainage_m": 24000.0, "Rc_m": 352.0, "W_m": 152.0, "outer_bank": "R", "dh_m": 118.7, "v_ms": 51.9, "v_lo": 36.0, "v_hi": 74.4, "Froude": 1.92, "flags": "-"}}, {"type": "Feature", "geometry": {"type": "Point", "coordinates": [85.37668, 28.27607]}, "properties": {"chainage_m": 24200.0, "Rc_m": 1290.0, "W_m": 144.0, "outer_bank": "R", "dh_m": 92.1, "v_ms": 90.0, "v_lo": 61.3, "v_hi": 130.8, "Froude": 3.87, "flags": "Fr-outside-validated-range"}}, {"type": "Feature", "geometry": {"type": "Point", "coordinates": [85.376658, 28.272883]}, "properties": {"chainage_m": 24600.0, "Rc_m": 1956.0, "W_m": 280.0, "outer_bank": "L", "dh_m": 29.0, "v_ms": 44.6, "v_lo": 24.5, "v_hi": 72.9, "Froude": 2.08, "flags": "-"}}, {"type": "Feature", "geometry": {"type": "Point", "coordinates": [85.37624, 28.271283]}, "properties": {"chainage_m": 24800.0, "Rc_m": 1124.0, "W_m": 64.0, "outer_bank": "R", "dh_m": 48.7, "v_ms": 91.6, "v_lo": 57.8, "v_hi": 140.2, "Froude": 4.15, "flags": "Fr-outside-validated-range"}}, {"type": "Feature", "geometry": {"type": "Point", "coordinates": [85.37617, 28.269516]}, "properties": {"chainage_m": 25000.0, "Rc_m": 2076.0, "W_m": 64.0, "outer_bank": "L", "dh_m": -35.1, "v_ms": "", "v_lo": "", "v_hi": "", "Froude": "", "flags": "dh<=0 (no superelev signal)"}}, {"type": "Feature", "geometry": {"type": "Point", "coordinates": [85.375886, 28.268048]}, "properties": {"chainage_m": 25200.0, "Rc_m": 563.0, "W_m": 232.0, "outer_bank": "L", "dh_m": -26.4, "v_ms": "", "v_lo": "", "v_hi": "", "Froude": "", "flags": "dh<=0 (no superelev signal)"}}, {"type": "Feature", "geometry": {"type": "Point", "coordinates": [85.374983, 28.266573]}, "properties": {"chainage_m": 25400.0, "Rc_m": 1842.0, "W_m": 48.0, "outer_bank": "L", "dh_m": -42.8, "v_ms": "", "v_lo": "", "v_hi": "", "Froude": "", "flags": "dh<=0 (no superelev signal)"}}, {"type": "Feature", "geometry": {"type": "Point", "coordinates": [85.372357, 28.263909]}, "properties": {"chainage_m": 25800.0, "Rc_m": 1208.0, "W_m": 240.0, "outer_bank": "R", "dh_m": 50.8, "v_ms": 50.1, "v_lo": 27.7, "v_hi": 81.7, "Froude": 1.95, "flags": "void-DEM"}}, {"type": "Feature", "geometry": {"type": "Point", "coordinates": [85.371802, 28.26231]}, "properties": {"chainage_m": 26000.0, "Rc_m": 937.0, "W_m": 96.0, "outer_bank": "L", "dh_m": -83.8, "v_ms": "", "v_lo": "", "v_hi": "", "Froude": "", "flags": "dh<=0 (no superelev signal)"}}, {"type": "Feature", "geometry": {"type": "Point", "coordinates": [85.36508, 28.254829]}, "properties": {"chainage_m": 27200.0, "Rc_m": 694.0, "W_m": 248.0, "outer_bank": "R", "dh_m": 33.0, "v_ms": 30.1, "v_lo": 17.3, "v_hi": 48.3, "Froude": 1.19, "flags": "-"}}, {"type": "Feature", "geometry": {"type": "Point", "coordinates": [85.36449, 28.253236]}, "properties": {"chainage_m": 27400.0, "Rc_m": 1087.0, "W_m": 168.0, "outer_bank": "R", "dh_m": 44.5, "v_ms": 53.1, "v_lo": 32.9, "v_hi": 82.1, "Froude": 2.36, "flags": "-"}}, {"type": "Feature", "geometry": {"type": "Point", "coordinates": [85.364776, 28.251791]}, "properties": {"chainage_m": 27600.0, "Rc_m": 1685.0, "W_m": 176.0, "outer_bank": "L", "dh_m": -64.8, "v_ms": "", "v_lo": "", "v_hi": "", "Froude": "", "flags": "dh<=0 (no superelev signal)"}}, {"type": "Feature", "geometry": {"type": "Point", "coordinates": [85.364062, 28.24868]}, "properties": {"chainage_m": 28000.0, "Rc_m": 615.0, "W_m": 120.0, "outer_bank": "L", "dh_m": 4.9, "v_ms": 15.8, "v_lo": 3.7, "v_hi": 40.6, "Froude": 0.8, "flags": "-"}}, {"type": "Feature", "geometry": {"type": "Point", "coordinates": [85.361651, 28.245936]}, "properties": {"chainage_m": 28400.0, "Rc_m": 1175.0, "W_m": 136.0, "outer_bank": "L", "dh_m": -46.8, "v_ms": "", "v_lo": "", "v_hi": "", "Froude": "", "flags": "dh<=0 (no superelev signal)"}}, {"type": "Feature", "geometry": {"type": "Point", "coordinates": [85.360233, 28.244644]}, "properties": {"chainage_m": 28600.0, "Rc_m": 2363.0, "W_m": 128.0, "outer_bank": "L", "dh_m": -42.8, "v_ms": "", "v_lo": "", "v_hi": "", "Froude": "", "flags": "dh<=0 (no superelev signal)"}}, {"type": "Feature", "geometry": {"type": "Point", "coordinates": [85.358799, 28.243891]}, "properties": {"chainage_m": 28800.0, "Rc_m": 692.0, "W_m": 200.0, "outer_bank": "R", "dh_m": 46.6, "v_ms": 39.7, "v_lo": 24.9, "v_hi": 61.1, "Froude": 1.54, "flags": "-"}}, {"type": "Feature", "geometry": {"type": "Point", "coordinates": [85.35734, 28.240817]}, "properties": {"chainage_m": 29200.0, "Rc_m": 503.0, "W_m": 40.0, "outer_bank": "R", "dh_m": 17.7, "v_ms": 46.7, "v_lo": 18.2, "v_hi": 83.5, "Froude": 1.95, "flags": "-"}}, {"type": "Feature", "geometry": {"type": "Point", "coordinates": [85.357713, 28.23933]}, "properties": {"chainage_m": 29400.0, "Rc_m": 1871.0, "W_m": 168.0, "outer_bank": "L", "dh_m": -122.2, "v_ms": "", "v_lo": "", "v_hi": "", "Froude": "", "flags": "dh<=0 (no superelev signal)"}}, {"type": "Feature", "geometry": {"type": "Point", "coordinates": [85.358212, 28.236153]}, "properties": {"chainage_m": 29800.0, "Rc_m": 910.0, "W_m": 88.0, "outer_bank": "R", "dh_m": 70.0, "v_ms": 84.3, "v_lo": 55.9, "v_hi": 124.9, "Froude": 3.22, "flags": "Fr-outside-validated-range"}}, {"type": "Feature", "geometry": {"type": "Point", "coordinates": [85.35963, 28.233064]}, "properties": {"chainage_m": 30200.0, "Rc_m": 1140.0, "W_m": 120.0, "outer_bank": "L", "dh_m": -13.0, "v_ms": "", "v_lo": "", "v_hi": "", "Froude": "", "flags": "dh<=0 (no superelev signal)"}}, {"type": "Feature", "geometry": {"type": "Point", "coordinates": [85.360023, 28.231554]}, "properties": {"chainage_m": 30400.0, "Rc_m": 4852.0, "W_m": 40.0, "outer_bank": "R", "dh_m": 16.6, "v_ms": 140.4, "v_lo": 17.9, "v_hi": 291.7, "Froude": 5.59, "flags": "void-DEM,Fr-outside-validated-range"}}, {"type": "Feature", "geometry": {"type": "Point", "coordinates": [85.36092, 28.226745]}, "properties": {"chainage_m": 31000.0, "Rc_m": 2832.0, "W_m": 576.0, "outer_bank": "R", "dh_m": 304.5, "v_ms": 121.2, "v_lo": 84.7, "v_hi": 172.6, "Froude": 2.38, "flags": "void-DEM"}}, {"type": "Feature", "geometry": {"type": "Point", "coordinates": [85.36125, 28.225062]}, "properties": {"chainage_m": 31200.0, "Rc_m": 727.0, "W_m": 568.0, "outer_bank": "L", "dh_m": 72.3, "v_ms": 30.1, "v_lo": 17.3, "v_hi": 48.4, "Froude": 0.73, "flags": "void-DEM"}}, {"type": "Feature", "geometry": {"type": "Point", "coordinates": [85.360756, 28.223437]}, "properties": {"chainage_m": 31400.0, "Rc_m": 503.0, "W_m": 400.0, "outer_bank": "L", "dh_m": -418.3, "v_ms": "", "v_lo": "", "v_hi": "", "Froude": "", "flags": "dh<=0 (no superelev signal)"}}, {"type": "Feature", "geometry": {"type": "Point", "coordinates": [85.35977, 28.22199]}, "properties": {"chainage_m": 31600.0, "Rc_m": 1842.0, "W_m": 472.0, "outer_bank": "L", "dh_m": -158.5, "v_ms": "", "v_lo": "", "v_hi": "", "Froude": "", "flags": "dh<=0 (no superelev signal)"}}, {"type": "Feature", "geometry": {"type": "Point", "coordinates": [85.358344, 28.220695]}, "properties": {"chainage_m": 31800.0, "Rc_m": 1967.0, "W_m": 224.0, "outer_bank": "R", "dh_m": -149.1, "v_ms": "", "v_lo": "", "v_hi": "", "Froude": "", "flags": "dh<=0 (no superelev signal)"}}, {"type": "Feature", "geometry": {"type": "Point", "coordinates": [85.357144, 28.219328]}, "properties": {"chainage_m": 32000.0, "Rc_m": 1843.0, "W_m": 616.0, "outer_bank": "R", "dh_m": -40.4, "v_ms": "", "v_lo": "", "v_hi": "", "Froude": "", "flags": "dh<=0 (no superelev signal)"}}, {"type": "Feature", "geometry": {"type": "Point", "coordinates": [85.356153, 28.217883]}, "properties": {"chainage_m": 32200.0, "Rc_m": 3577.0, "W_m": 728.0, "outer_bank": "R", "dh_m": 57.8, "v_ms": 52.8, "v_lo": 30.5, "v_hi": 84.5, "Froude": 1.03, "flags": "void-DEM"}}, {"type": "Feature", "geometry": {"type": "Point", "coordinates": [85.355172, 28.216432]}, "properties": {"chainage_m": 32400.0, "Rc_m": 576.0, "W_m": 528.0, "outer_bank": "R", "dh_m": -188.7, "v_ms": "", "v_lo": "", "v_hi": "", "Froude": "", "flags": "dh<=0 (no superelev signal)"}}, {"type": "Feature", "geometry": {"type": "Point", "coordinates": [85.354683, 28.214809]}, "properties": {"chainage_m": 32600.0, "Rc_m": 755.0, "W_m": 600.0, "outer_bank": "R", "dh_m": 44.6, "v_ms": 23.5, "v_lo": 12.3, "v_hi": 39.1, "Froude": 0.47, "flags": "void-DEM,Fr-outside-validated-range"}}, {"type": "Feature", "geometry": {"type": "Point", "coordinates": [85.35471, 28.213234]}, "properties": {"chainage_m": 32800.0, "Rc_m": 1782.0, "W_m": 544.0, "outer_bank": "L", "dh_m": 59.4, "v_ms": 43.7, "v_lo": 28.4, "v_hi": 65.6, "Froude": 0.97, "flags": "-"}}, {"type": "Feature", "geometry": {"type": "Point", "coordinates": [85.354146, 28.209839]}, "properties": {"chainage_m": 33200.0, "Rc_m": 660.0, "W_m": 224.0, "outer_bank": "R", "dh_m": 48.8, "v_ms": 37.6, "v_lo": 20.4, "v_hi": 61.6, "Froude": 1.42, "flags": "void-DEM"}}, {"type": "Feature", "geometry": {"type": "Point", "coordinates": [85.35481, 28.206464]}, "properties": {"chainage_m": 33600.0, "Rc_m": 526.0, "W_m": 192.0, "outer_bank": "L", "dh_m": -0.0, "v_ms": "", "v_lo": "", "v_hi": "", "Froude": "", "flags": "dh<=0 (no superelev signal)"}}, {"type": "Feature", "geometry": {"type": "Point", "coordinates": [85.354011, 28.204945]}, "properties": {"chainage_m": 33800.0, "Rc_m": 3926.0, "W_m": 168.0, "outer_bank": "L", "dh_m": 10.0, "v_ms": 47.8, "v_lo": 7.9, "v_hi": 98.3, "Froude": 2.1, "flags": "-"}}, {"type": "Feature", "geometry": {"type": "Point", "coordinates": [85.352742, 28.201807]}, "properties": {"chainage_m": 34200.0, "Rc_m": 1380.0, "W_m": 160.0, "outer_bank": "R", "dh_m": 17.9, "v_ms": 38.9, "v_lo": 15.3, "v_hi": 69.3, "Froude": 1.77, "flags": "-"}}, {"type": "Feature", "geometry": {"type": "Point", "coordinates": [85.352465, 28.200105]}, "properties": {"chainage_m": 34400.0, "Rc_m": 2046.0, "W_m": 160.0, "outer_bank": "L", "dh_m": -19.4, "v_ms": "", "v_lo": "", "v_hi": "", "Froude": "", "flags": "dh<=0 (no superelev signal)"}}, {"type": "Feature", "geometry": {"type": "Point", "coordinates": [85.34891, 28.192386]}, "properties": {"chainage_m": 35400.0, "Rc_m": 2358.0, "W_m": 192.0, "outer_bank": "L", "dh_m": 14.6, "v_ms": 41.9, "v_lo": 5.7, "v_hi": 90.4, "Froude": 1.7, "flags": "void-DEM"}}, {"type": "Feature", "geometry": {"type": "Point", "coordinates": [85.34817, 28.19085]}, "properties": {"chainage_m": 35600.0, "Rc_m": 1136.0, "W_m": 136.0, "outer_bank": "L", "dh_m": 45.7, "v_ms": 61.2, "v_lo": 38.2, "v_hi": 94.3, "Froude": 3.09, "flags": "Fr-outside-validated-range"}}, {"type": "Feature", "geometry": {"type": "Point", "coordinates": [85.347193, 28.189407]}, "properties": {"chainage_m": 35800.0, "Rc_m": 4127.0, "W_m": 192.0, "outer_bank": "R", "dh_m": -66.6, "v_ms": "", "v_lo": "", "v_hi": "", "Froude": "", "flags": "dh<=0 (no superelev signal)"}}, {"type": "Feature", "geometry": {"type": "Point", "coordinates": [85.345657, 28.186357]}, "properties": {"chainage_m": 36200.0, "Rc_m": 864.0, "W_m": 192.0, "outer_bank": "L", "dh_m": 57.8, "v_ms": 50.5, "v_lo": 32.7, "v_hi": 76.0, "Froude": 1.85, "flags": "-"}}, {"type": "Feature", "geometry": {"type": "Point", "coordinates": [85.3423, 28.165551]}, "properties": {"chainage_m": 38800.0, "Rc_m": 264.0, "W_m": 88.0, "outer_bank": "L", "dh_m": 4.4, "v_ms": 11.4, "v_lo": 2.8, "v_hi": 30.6, "Froude": 0.71, "flags": "-"}}, {"type": "Feature", "geometry": {"type": "Point", "coordinates": [85.337863, 28.162517]}, "properties": {"chainage_m": 39400.0, "Rc_m": 526.0, "W_m": 176.0, "outer_bank": "R", "dh_m": -5.4, "v_ms": "", "v_lo": "", "v_hi": "", "Froude": "", "flags": "dh<=0 (no superelev signal)"}}, {"type": "Feature", "geometry": {"type": "Point", "coordinates": [85.33623, 28.159663]}, "properties": {"chainage_m": 39800.0, "Rc_m": 425.0, "W_m": 248.0, "outer_bank": "L", "dh_m": -0.7, "v_ms": "", "v_lo": "", "v_hi": "", "Froude": "", "flags": "dh<=0 (no superelev signal)"}}, {"type": "Feature", "geometry": {"type": "Point", "coordinates": [85.32872, 28.154596]}, "properties": {"chainage_m": 40800.0, "Rc_m": 4040.0, "W_m": 120.0, "outer_bank": "R", "dh_m": -16.4, "v_ms": "", "v_lo": "", "v_hi": "", "Froude": "", "flags": "dh<=0 (no superelev signal)"}}, {"type": "Feature", "geometry": {"type": "Point", "coordinates": [85.326108, 28.152091]}, "properties": {"chainage_m": 41200.0, "Rc_m": 927.0, "W_m": 184.0, "outer_bank": "L", "dh_m": 43.8, "v_ms": 46.6, "v_lo": 24.2, "v_hi": 77.7, "Froude": 1.88, "flags": "void-DEM"}}, {"type": "Feature", "geometry": {"type": "Point", "coordinates": [85.324507, 28.151176]}, "properties": {"chainage_m": 41400.0, "Rc_m": 1158.0, "W_m": 232.0, "outer_bank": "L", "dh_m": -20.8, "v_ms": "", "v_lo": "", "v_hi": "", "Froude": "", "flags": "dh<=0 (no superelev signal)"}}, {"type": "Feature", "geometry": {"type": "Point", "coordinates": [85.321197, 28.149542]}, "properties": {"chainage_m": 41800.0, "Rc_m": 3781.0, "W_m": 176.0, "outer_bank": "L", "dh_m": -0.7, "v_ms": "", "v_lo": "", "v_hi": "", "Froude": "", "flags": "dh<=0 (no superelev signal)"}}, {"type": "Feature", "geometry": {"type": "Point", "coordinates": [85.319687, 28.148433]}, "properties": {"chainage_m": 42000.0, "Rc_m": 1203.0, "W_m": 216.0, "outer_bank": "L", "dh_m": -3.3, "v_ms": "", "v_lo": "", "v_hi": "", "Froude": "", "flags": "dh<=0 (no superelev signal)"}}, {"type": "Feature", "geometry": {"type": "Point", "coordinates": [85.312401, 28.143134]}, "properties": {"chainage_m": 43000.0, "Rc_m": 374.0, "W_m": 104.0, "outer_bank": "L", "dh_m": -73.9, "v_ms": "", "v_lo": "", "v_hi": "", "Froude": "", "flags": "dh<=0 (no superelev signal)"}}, {"type": "Feature", "geometry": {"type": "Point", "coordinates": [85.308076, 28.141145]}, "properties": {"chainage_m": 43600.0, "Rc_m": 1527.0, "W_m": 216.0, "outer_bank": "R", "dh_m": -56.3, "v_ms": "", "v_lo": "", "v_hi": "", "Froude": "", "flags": "dh<=0 (no superelev signal)"}}, {"type": "Feature", "geometry": {"type": "Point", "coordinates": [85.30665, 28.13985]}, "properties": {"chainage_m": 43800.0, "Rc_m": 2659.0, "W_m": 144.0, "outer_bank": "R", "dh_m": -68.3, "v_ms": "", "v_lo": "", "v_hi": "", "Froude": "", "flags": "dh<=0 (no superelev signal)"}}, {"type": "Feature", "geometry": {"type": "Point", "coordinates": [85.305241, 28.138562]}, "properties": {"chainage_m": 44000.0, "Rc_m": 740.0, "W_m": 216.0, "outer_bank": "R", "dh_m": -67.0, "v_ms": "", "v_lo": "", "v_hi": "", "Froude": "", "flags": "dh<=0 (no superelev signal)"}}, {"type": "Feature", "geometry": {"type": "Point", "coordinates": [85.300097, 28.129757]}, "properties": {"chainage_m": 45200.0, "Rc_m": 777.0, "W_m": 96.0, "outer_bank": "L", "dh_m": -27.8, "v_ms": "", "v_lo": "", "v_hi": "", "Froude": "", "flags": "dh<=0 (no superelev signal)"}}, {"type": "Feature", "geometry": {"type": "Point", "coordinates": [85.28774, 28.11877]}, "properties": {"chainage_m": 47000.0, "Rc_m": 760.0, "W_m": 136.0, "outer_bank": "L", "dh_m": 31.7, "v_ms": 41.7, "v_lo": 17.0, "v_hi": 73.9, "Froude": 1.46, "flags": "void-DEM"}}, {"type": "Feature", "geometry": {"type": "Point", "coordinates": [85.281176, 28.11305]}, "properties": {"chainage_m": 48000.0, "Rc_m": 533.0, "W_m": 184.0, "outer_bank": "L", "dh_m": 17.9, "v_ms": 22.6, "v_lo": 2.8, "v_hi": 49.4, "Froude": 0.85, "flags": "void-DEM"}}, {"type": "Feature", "geometry": {"type": "Point", "coordinates": [85.27961, 28.112125]}, "properties": {"chainage_m": 48200.0, "Rc_m": 2113.0, "W_m": 152.0, "outer_bank": "L", "dh_m": 43.0, "v_ms": 76.6, "v_lo": 39.3, "v_hi": 128.2, "Froude": 3.33, "flags": "void-DEM,Fr-outside-validated-range"}}, {"type": "Feature", "geometry": {"type": "Point", "coordinates": [85.268185, 28.103121]}, "properties": {"chainage_m": 49800.0, "Rc_m": 1963.0, "W_m": 80.0, "outer_bank": "R", "dh_m": 37.2, "v_ms": 94.7, "v_lo": 44.5, "v_hi": 162.6, "Froude": 3.6, "flags": "void-DEM,Fr-outside-validated-range"}}, {"type": "Feature", "geometry": {"type": "Point", "coordinates": [85.26394, 28.099241]}, "properties": {"chainage_m": 50400.0, "Rc_m": 3972.0, "W_m": 168.0, "outer_bank": "R", "dh_m": 17.5, "v_ms": 63.8, "v_lo": 7.9, "v_hi": 140.5, "Froude": 2.15, "flags": "void-DEM"}}]}