{"type": "FeatureCollection", "features": [{"type": "Feature", "geometry": {"type": "Point", "coordinates": [85.45976, 28.3366]}, "properties": {"chainage_km": 11.6, "bank": "L", "flow_height_m": 7.9, "uncertain": true}}, {"type": "Feature", "geometry": {"type": "Point", "coordinates": [85.457828, 28.3368]}, "properties": {"chainage_km": 11.8, "bank": "L", "flow_height_m": 41.4, "uncertain": false}}, {"type": "Feature", "geometry": {"type": "Point", "coordinates": [85.457828, 28.3368]}, "properties": {"chainage_km": 11.8, "bank": "R", "flow_height_m": 69.2, "uncertain": false}}, {"type": "Feature", "geometry": {"type": "Point", "coordinates": [85.456064, 28.33629]}, "properties": {"chainage_km": 12.0, "bank": "R", "flow_height_m": 107.4, "uncertain": false}}, {"type": "Feature", "geometry": {"type": "Point", "coordinates": [85.45416, 28.336]}, "properties": {"chainage_km": 12.2, "bank": "L", "flow_height_m": 45.5, "uncertain": false}}, {"type": "Feature", "geometry": {"type": "Point", "coordinates": [85.45416, 28.336]}, "properties": {"chainage_km": 12.2, "bank": "R", "flow_height_m": 81.2, "uncertain": false}}, {"type": "Feature", "geometry": {"type": "Point", "coordinates": [85.452383, 28.335433]}, "properties": {"chainage_km": 12.4, "bank": "L", "flow_height_m": 85.7, "uncertain": true}}, {"type": "Feature", "geometry": {"type": "Point", "coordinates": [85.452383, 28.335433]}, "properties": {"chainage_km": 12.4, "bank": "R", "flow_height_m": 65.0, "uncertain": false}}, {"type": "Feature", "geometry": {"type": "Point", "coordinates": [85.45047, 28.33514]}, "properties": {"chainage_km": 12.6, "bank": "L", "flow_height_m": 137.3, "uncertain": false}}, {"type": "Feature", "geometry": {"type": "Point", "coordinates": [85.45047, 28.33514]}, "properties": {"chainage_km": 12.6, "bank": "R", "flow_height_m": 68.0, "uncertain": true}}, {"type": "Feature", "geometry": {"type": "Point", "coordinates": [85.44843, 28.33512]}, "properties": {"chainage_km": 12.8, "bank": "L", "flow_height_m": 57.7, "uncertain": false}}, {"type": "Feature", "geometry": {"type": "Point", "coordinates": [85.44843, 28.33512]}, "properties": {"chainage_km": 12.8, "bank": "R", "flow_height_m": 78.2, "uncertain": false}}, {"type": "Feature", "geometry": {"type": "Point", "coordinates": [85.446585, 28.335531]}, "properties": {"chainage_km": 13.0, "bank": "R", "flow_height_m": 110.3, "uncertain": true}}, {"type": "Feature", "geometry": {"type": "Point", "coordinates": [85.444723, 28.33535]}, "properties": {"chainage_km": 13.2, "bank": "L", "flow_height_m": 128.0, "uncertain": true}}, {"type": "Feature", "geometry": {"type": "Point", "coordinates": [85.44268, 28.335326]}, "properties": {"chainage_km": 13.4, "bank": "L", "flow_height_m": 35.6, "uncertain": false}}, {"type": "Feature", "geometry": {"type": "Point", "coordinates": [85.383628, 28.283765]}, "properties": {"chainage_km": 23.0, "bank": "L", "flow_height_m": 3.1, "uncertain": false}}, {"type": "Feature", "geometry": {"type": "Point", "coordinates": [85.383628, 28.283765]}, "properties": {"chainage_km": 23.0, "bank": "R", "flow_height_m": 39.7, "uncertain": false}}, {"type": "Feature", "geometry": {"type": "Point", "coordinates": [85.382421, 28.282389]}, "properties": {"chainage_km": 23.2, "bank": "L", "flow_height_m": 0.7, "uncertain": true}}, {"type": "Feature", "geometry": {"type": "Point", "coordinates": [85.382421, 28.282389]}, "properties": {"chainage_km": 23.2, "bank": "R", "flow_height_m": 84.0, "uncertain": false}}, {"type": "Feature", "geometry": {"type": "Point", "coordinates": [85.38119, 28.281027]}, "properties": {"chainage_km": 23.4, "bank": "L", "flow_height_m": 7.0, "uncertain": false}}, {"type": "Feature", "geometry": {"type": "Point", "coordinates": [85.38119, 28.281027]}, "properties": {"chainage_km": 23.4, "bank": "R", "flow_height_m": 79.8, "uncertain": false}}, {"type": "Feature", "geometry": {"type": "Point", "coordinates": [85.379608, 28.280107]}, "properties": {"chainage_km": 23.6, "bank": "L", "flow_height_m": 21.8, "uncertain": false}}, {"type": "Feature", "geometry": {"type": "Point", "coordinates": [85.379608, 28.280107]}, "properties": {"chainage_km": 23.6, "bank": "R", "flow_height_m": 22.0, "uncertain": false}}, {"type": "Feature", "geometry": {"type": "Point", "coordinates": [85.378003, 28.279199]}, "properties": {"chainage_km": 23.8, "bank": "L", "flow_height_m": 87.4, "uncertain": true}}, {"type": "Feature", "geometry": {"type": "Point", "coordinates": [85.378003, 28.279199]}, "properties": {"chainage_km": 23.8, "bank": "R", "flow_height_m": 8.5, "uncertain": false}}, {"type": "Feature", "geometry": {"type": "Point", "coordinates": [85.37665, 28.27788]}, "properties": {"chainage_km": 24.0, "bank": "L", "flow_height_m": 15.5, "uncertain": false}}, {"type": "Feature", "geometry": {"type": "Point", "coordinates": [85.37665, 28.27788]}, "properties": {"chainage_km": 24.0, "bank": "R", "flow_height_m": 134.1, "uncertain": false}}, {"type": "Feature", "geometry": {"type": "Point", "coordinates": [85.37668, 28.27607]}, "properties": {"chainage_km": 24.2, "bank": "L", "flow_height_m": 9.0, "uncertain": false}}, {"type": "Feature", "geometry": {"type": "Point", "coordinates": [85.37668, 28.27607]}, "properties": {"chainage_km": 24.2, "bank": "R", "flow_height_m": 101.1, "uncertain": false}}, {"type": "Feature", "geometry": {"type": "Point", "coordinates": [85.37701, 28.274378]}, "properties": {"chainage_km": 24.4, "bank": "L", "flow_height_m": 71.4, "uncertain": false}}, {"type": "Feature", "geometry": {"type": "Point", "coordinates": [85.376658, 28.272883]}, "properties": {"chainage_km": 24.6, "bank": "L", "flow_height_m": 61.4, "uncertain": false}}, {"type": "Feature", "geometry": {"type": "Point", "coordinates": [85.376658, 28.272883]}, "properties": {"chainage_km": 24.6, "bank": "R", "flow_height_m": 32.4, "uncertain": false}}, {"type": "Feature", "geometry": {"type": "Point", "coordinates": [85.37624, 28.271283]}, "properties": {"chainage_km": 24.8, "bank": "L", "flow_height_m": 25.4, "uncertain": false}}, {"type": "Feature", "geometry": {"type": "Point", "coordinates": [85.37624, 28.271283]}, "properties": {"chainage_km": 24.8, "bank": "R", "flow_height_m": 74.1, "uncertain": false}}, {"type": "Feature", "geometry": {"type": "Point", "coordinates": [85.37617, 28.269516]}, "properties": {"chainage_km": 25.0, "bank": "L", "flow_height_m": 40.0, "uncertain": false}}, {"type": "Feature", "geometry": {"type": "Point", "coordinates": [85.37617, 28.269516]}, "properties": {"chainage_km": 25.0, "bank": "R", "flow_height_m": 75.1, "uncertain": false}}, {"type": "Feature", "geometry": {"type": "Point", "coordinates": [85.375886, 28.268048]}, "properties": {"chainage_km": 25.2, "bank": "L", "flow_height_m": 76.0, "uncertain": false}}, {"type": "Feature", "geometry": {"type": "Point", "coordinates": [85.375886, 28.268048]}, "properties": {"chainage_km": 25.2, "bank": "R", "flow_height_m": 102.4, "uncertain": false}}, {"type": "Feature", "geometry": {"type": "Point", "coordinates": [85.374983, 28.266573]}, "properties": {"chainage_km": 25.4, "bank": "L", "flow_height_m": 13.3, "uncertain": false}}, {"type": "Feature", "geometry": {"type": "Point", "coordinates": [85.374983, 28.266573]}, "properties": {"chainage_km": 25.4, "bank": "R", "flow_height_m": 56.1, "uncertain": false}}, {"type": "Feature", "geometry": {"type": "Point", "coordinates": [85.373783, 28.265203]}, "properties": {"chainage_km": 25.6, "bank": "L", "flow_height_m": 10.6, "uncertain": false}}, {"type": "Feature", "geometry": {"type": "Point", "coordinates": [85.373783, 28.265203]}, "properties": {"chainage_km": 25.6, "bank": "R", "flow_height_m": 114.1, "uncertain": false}}, {"type": "Feature", "geometry": {"type": "Point", "coordinates": [85.372357, 28.263909]}, "properties": {"chainage_km": 25.8, "bank": "L", "flow_height_m": 42.1, "uncertain": false}}, {"type": "Feature", "geometry": {"type": "Point", "coordinates": [85.372357, 28.263909]}, "properties": {"chainage_km": 25.8, "bank": "R", "flow_height_m": 92.9, "uncertain": true}}, {"type": "Feature", "geometry": {"type": "Point", "coordinates": [85.371802, 28.26231]}, "properties": {"chainage_km": 26.0, "bank": "L", "flow_height_m": 13.0, "uncertain": false}}, {"type": "Feature", "geometry": {"type": "Point", "coordinates": [85.371802, 28.26231]}, "properties": {"chainage_km": 26.0, "bank": "R", "flow_height_m": 96.7, "uncertain": false}}, {"type": "Feature", "geometry": {"type": "Point", "coordinates": [85.370375, 28.261012]}, "properties": {"chainage_km": 26.2, "bank": "L", "flow_height_m": 28.4, "uncertain": true}}, {"type": "Feature", "geometry": {"type": "Point", "coordinates": [85.370375, 28.261012]}, "properties": {"chainage_km": 26.2, "bank": "R", "flow_height_m": 82.2, "uncertain": true}}, {"type": "Feature", "geometry": {"type": "Point", "coordinates": [85.368859, 28.260103]}, "properties": {"chainage_km": 26.4, "bank": "L", "flow_height_m": 13.4, "uncertain": false}}, {"type": "Feature", "geometry": {"type": "Point", "coordinates": [85.368859, 28.260103]}, "properties": {"chainage_km": 26.4, "bank": "R", "flow_height_m": 12.0, "uncertain": true}}, {"type": "Feature", "geometry": {"type": "Point", "coordinates": [85.367438, 28.25916]}, "properties": {"chainage_km": 26.6, "bank": "L", "flow_height_m": 30.1, "uncertain": false}}, {"type": "Feature", "geometry": {"type": "Point", "coordinates": [85.366494, 28.257868]}, "properties": {"chainage_km": 26.8, "bank": "L", "flow_height_m": 45.1, "uncertain": false}}, {"type": "Feature", "geometry": {"type": "Point", "coordinates": [85.365639, 28.25643]}, "properties": {"chainage_km": 27.0, "bank": "L", "flow_height_m": 43.8, "uncertain": false}}, {"type": "Feature", "geometry": {"type": "Point", "coordinates": [85.36508, 28.254829]}, "properties": {"chainage_km": 27.2, "bank": "L", "flow_height_m": 48.5, "uncertain": false}}, {"type": "Feature", "geometry": {"type": "Point", "coordinates": [85.36508, 28.254829]}, "properties": {"chainage_km": 27.2, "bank": "R", "flow_height_m": 81.6, "uncertain": false}}, {"type": "Feature", "geometry": {"type": "Point", "coordinates": [85.36449, 28.253236]}, "properties": {"chainage_km": 27.4, "bank": "L", "flow_height_m": 29.4, "uncertain": false}}, {"type": "Feature", "geometry": {"type": "Point", "coordinates": [85.36449, 28.253236]}, "properties": {"chainage_km": 27.4, "bank": "R", "flow_height_m": 73.9, "uncertain": false}}, {"type": "Feature", "geometry": {"type": "Point", "coordinates": [85.364776, 28.251791]}, "properties": {"chainage_km": 27.6, "bank": "L", "flow_height_m": 8.9, "uncertain": false}}, {"type": "Feature", "geometry": {"type": "Point", "coordinates": [85.364776, 28.251791]}, "properties": {"chainage_km": 27.6, "bank": "R", "flow_height_m": 73.7, "uncertain": true}}, {"type": "Feature", "geometry": {"type": "Point", "coordinates": [85.36423, 28.250182]}, "properties": {"chainage_km": 27.8, "bank": "L", "flow_height_m": 57.7, "uncertain": false}}, {"type": "Feature", "geometry": {"type": "Point", "coordinates": [85.36423, 28.250182]}, "properties": {"chainage_km": 27.8, "bank": "R", "flow_height_m": 80.9, "uncertain": false}}, {"type": "Feature", "geometry": {"type": "Point", "coordinates": [85.364062, 28.24868]}, "properties": {"chainage_km": 28.0, "bank": "L", "flow_height_m": 42.5, "uncertain": false}}, {"type": "Feature", "geometry": {"type": "Point", "coordinates": [85.364062, 28.24868]}, "properties": {"chainage_km": 28.0, "bank": "R", "flow_height_m": 37.6, "uncertain": false}}, {"type": "Feature", "geometry": {"type": "Point", "coordinates": [85.363071, 28.24723]}, "properties": {"chainage_km": 28.2, "bank": "L", "flow_height_m": 22.7, "uncertain": false}}, {"type": "Feature", "geometry": {"type": "Point", "coordinates": [85.361651, 28.245936]}, "properties": {"chainage_km": 28.4, "bank": "L", "flow_height_m": 13.7, "uncertain": false}}, {"type": "Feature", "geometry": {"type": "Point", "coordinates": [85.361651, 28.245936]}, "properties": {"chainage_km": 28.4, "bank": "R", "flow_height_m": 60.5, "uncertain": false}}, {"type": "Feature", "geometry": {"type": "Point", "coordinates": [85.360233, 28.244644]}, "properties": {"chainage_km": 28.6, "bank": "L", "flow_height_m": 28.2, "uncertain": false}}, {"type": "Feature", "geometry": {"type": "Point", "coordinates": [85.360233, 28.244644]}, "properties": {"chainage_km": 28.6, "bank": "R", "flow_height_m": 71.0, "uncertain": false}}, {"type": "Feature", "geometry": {"type": "Point", "coordinates": [85.358799, 28.243891]}, "properties": {"chainage_km": 28.8, "bank": "L", "flow_height_m": 44.5, "uncertain": false}}, {"type": "Feature", "geometry": {"type": "Point", "coordinates": [85.358799, 28.243891]}, "properties": {"chainage_km": 28.8, "bank": "R", "flow_height_m": 91.0, "uncertain": false}}, {"type": "Feature", "geometry": {"type": "Point", "coordinates": [85.35793, 28.242406]}, "properties": {"chainage_km": 29.0, "bank": "L", "flow_height_m": 1.4, "uncertain": false}}, {"type": "Feature", "geometry": {"type": "Point", "coordinates": [85.35734, 28.240817]}, "properties": {"chainage_km": 29.2, "bank": "L", "flow_height_m": 50.0, "uncertain": false}}, {"type": "Feature", "geometry": {"type": "Point", "coordinates": [85.35734, 28.240817]}, "properties": {"chainage_km": 29.2, "bank": "R", "flow_height_m": 67.7, "uncertain": false}}, {"type": "Feature", "geometry": {"type": "Point", "coordinates": [85.357713, 28.23933]}, "properties": {"chainage_km": 29.4, "bank": "L", "flow_height_m": 9.1, "uncertain": false}}, {"type": "Feature", "geometry": {"type": "Point", "coordinates": [85.357713, 28.23933]}, "properties": {"chainage_km": 29.4, "bank": "R", "flow_height_m": 131.3, "uncertain": false}}, {"type": "Feature", "geometry": {"type": "Point", "coordinates": [85.358212, 28.236153]}, "properties": {"chainage_km": 29.8, "bank": "L", "flow_height_m": 35.0, "uncertain": false}}, {"type": "Feature", "geometry": {"type": "Point", "coordinates": [85.358212, 28.236153]}, "properties": {"chainage_km": 29.8, "bank": "R", "flow_height_m": 105.0, "uncertain": false}}, {"type": "Feature", "geometry": {"type": "Point", "coordinates": [85.358963, 28.234629]}, "properties": {"chainage_km": 30.0, "bank": "L", "flow_height_m": 48.6, "uncertain": false}}, {"type": "Feature", "geometry": {"type": "Point", "coordinates": [85.358963, 28.234629]}, "properties": {"chainage_km": 30.0, "bank": "R", "flow_height_m": 82.1, "uncertain": false}}, {"type": "Feature", "geometry": {"type": "Point", "coordinates": [85.35963, 28.233064]}, "properties": {"chainage_km": 30.2, "bank": "L", "flow_height_m": 79.7, "uncertain": false}}, {"type": "Feature", "geometry": {"type": "Point", "coordinates": [85.35963, 28.233064]}, "properties": {"chainage_km": 30.2, "bank": "R", "flow_height_m": 92.7, "uncertain": false}}, {"type": "Feature", "geometry": {"type": "Point", "coordinates": [85.360023, 28.231554]}, "properties": {"chainage_km": 30.4, "bank": "L", "flow_height_m": 56.0, "uncertain": true}}, {"type": "Feature", "geometry": {"type": "Point", "coordinates": [85.360023, 28.231554]}, "properties": {"chainage_km": 30.4, "bank": "R", "flow_height_m": 72.5, "uncertain": false}}, {"type": "Feature", "geometry": {"type": "Point", "coordinates": [85.360564, 28.230012]}, "properties": {"chainage_km": 30.6, "bank": "L", "flow_height_m": 12.5, "uncertain": true}}, {"type": "Feature", "geometry": {"type": "Point", "coordinates": [85.360564, 28.230012]}, "properties": {"chainage_km": 30.6, "bank": "R", "flow_height_m": 98.9, "uncertain": true}}, {"type": "Feature", "geometry": {"type": "Point", "coordinates": [85.36059, 28.228437]}, "properties": {"chainage_km": 30.8, "bank": "L", "flow_height_m": 337.4, "uncertain": true}}, {"type": "Feature", "geometry": {"type": "Point", "coordinates": [85.36059, 28.228437]}, "properties": {"chainage_km": 30.8, "bank": "R", "flow_height_m": 272.7, "uncertain": false}}, {"type": "Feature", "geometry": {"type": "Point", "coordinates": [85.36092, 28.226745]}, "properties": {"chainage_km": 31.0, "bank": "L", "flow_height_m": 111.8, "uncertain": true}}, {"type": "Feature", "geometry": {"type": "Point", "coordinates": [85.36092, 28.226745]}, "properties": {"chainage_km": 31.0, "bank": "R", "flow_height_m": 416.3, "uncertain": true}}, {"type": "Feature", "geometry": {"type": "Point", "coordinates": [85.36125, 28.225062]}, "properties": {"chainage_km": 31.2, "bank": "L", "flow_height_m": 209.5, "uncertain": true}}, {"type": "Feature", "geometry": {"type": "Point", "coordinates": [85.36125, 28.225062]}, "properties": {"chainage_km": 31.2, "bank": "R", "flow_height_m": 137.1, "uncertain": true}}, {"type": "Feature", "geometry": {"type": "Point", "coordinates": [85.360756, 28.223437]}, "properties": {"chainage_km": 31.4, "bank": "L", "flow_height_m": 12.2, "uncertain": false}}, {"type": "Feature", "geometry": {"type": "Point", "coordinates": [85.360756, 28.223437]}, "properties": {"chainage_km": 31.4, "bank": "R", "flow_height_m": 430.4, "uncertain": true}}, {"type": "Feature", "geometry": {"type": "Point", "coordinates": [85.35977, 28.22199]}, "properties": {"chainage_km": 31.6, "bank": "L", "flow_height_m": 157.3, "uncertain": false}}, {"type": "Feature", "geometry": {"type": "Point", "coordinates": [85.35977, 28.22199]}, "properties": {"chainage_km": 31.6, "bank": "R", "flow_height_m": 315.8, "uncertain": false}}, {"type": "Feature", "geometry": {"type": "Point", "coordinates": [85.358344, 28.220695]}, "properties": {"chainage_km": 31.8, "bank": "L", "flow_height_m": 196.7, "uncertain": false}}, {"type": "Feature", "geometry": {"type": "Point", "coordinates": [85.358344, 28.220695]}, "properties": {"chainage_km": 31.8, "bank": "R", "flow_height_m": 47.5, "uncertain": false}}, {"type": "Feature", "geometry": {"type": "Point", "coordinates": [85.357144, 28.219328]}, "properties": {"chainage_km": 32.0, "bank": "L", "flow_height_m": 300.8, "uncertain": true}}, {"type": "Feature", "geometry": {"type": "Point", "coordinates": [85.357144, 28.219328]}, "properties": {"chainage_km": 32.0, "bank": "R", "flow_height_m": 260.4, "uncertain": false}}, {"type": "Feature", "geometry": {"type": "Point", "coordinates": [85.356153, 28.217883]}, "properties": {"chainage_km": 32.2, "bank": "L", "flow_height_m": 236.7, "uncertain": true}}, {"type": "Feature", "geometry": {"type": "Point", "coordinates": [85.356153, 28.217883]}, "properties": {"chainage_km": 32.2, "bank": "R", "flow_height_m": 294.6, "uncertain": false}}, {"type": "Feature", "geometry": {"type": "Point", "coordinates": [85.355172, 28.216432]}, "properties": {"chainage_km": 32.4, "bank": "L", "flow_height_m": 251.2, "uncertain": false}}, {"type": "Feature", "geometry": {"type": "Point", "coordinates": [85.355172, 28.216432]}, "properties": {"chainage_km": 32.4, "bank": "R", "flow_height_m": 62.5, "uncertain": false}}, {"type": "Feature", "geometry": {"type": "Point", "coordinates": [85.354683, 28.214809]}, "properties": {"chainage_km": 32.6, "bank": "L", "flow_height_m": 235.6, "uncertain": false}}, {"type": "Feature", "geometry": {"type": "Point", "coordinates": [85.354683, 28.214809]}, "properties": {"chainage_km": 32.6, "bank": "R", "flow_height_m": 280.2, "uncertain": true}}, {"type": "Feature", "geometry": {"type": "Point", "coordinates": [85.35471, 28.213234]}, "properties": {"chainage_km": 32.8, "bank": "L", "flow_height_m": 235.1, "uncertain": false}}, {"type": "Feature", "geometry": {"type": "Point", "coordinates": [85.35471, 28.213234]}, "properties": {"chainage_km": 32.8, "bank": "R", "flow_height_m": 175.7, "uncertain": false}}, {"type": "Feature", "geometry": {"type": "Point", "coordinates": [85.35443, 28.211532]}, "properties": {"chainage_km": 33.0, "bank": "L", "flow_height_m": 61.8, "uncertain": false}}, {"type": "Feature", "geometry": {"type": "Point", "coordinates": [85.354146, 28.209839]}, "properties": {"chainage_km": 33.2, "bank": "L", "flow_height_m": 46.9, "uncertain": false}}, {"type": "Feature", "geometry": {"type": "Point", "coordinates": [85.354146, 28.209839]}, "properties": {"chainage_km": 33.2, "bank": "R", "flow_height_m": 95.7, "uncertain": true}}, {"type": "Feature", "geometry": {"type": "Point", "coordinates": [85.35448, 28.208147]}, "properties": {"chainage_km": 33.4, "bank": "R", "flow_height_m": 96.9, "uncertain": false}}, {"type": "Feature", "geometry": {"type": "Point", "coordinates": [85.35481, 28.206464]}, "properties": {"chainage_km": 33.6, "bank": "L", "flow_height_m": 59.1, "uncertain": false}}, {"type": "Feature", "geometry": {"type": "Point", "coordinates": [85.35481, 28.206464]}, "properties": {"chainage_km": 33.6, "bank": "R", "flow_height_m": 59.1, "uncertain": false}}, {"type": "Feature", "geometry": {"type": "Point", "coordinates": [85.354011, 28.204945]}, "properties": {"chainage_km": 33.8, "bank": "L", "flow_height_m": 57.6, "uncertain": false}}, {"type": "Feature", "geometry": {"type": "Point", "coordinates": [85.354011, 28.204945]}, "properties": {"chainage_km": 33.8, "bank": "R", "flow_height_m": 47.7, "uncertain": false}}, {"type": "Feature", "geometry": {"type": "Point", "coordinates": [85.35333, 28.203392]}, "properties": {"chainage_km": 34.0, "bank": "L", "flow_height_m": 45.1, "uncertain": false}}, {"type": "Feature", "geometry": {"type": "Point", "coordinates": [85.352742, 28.201807]}, "properties": {"chainage_km": 34.2, "bank": "L", "flow_height_m": 40.5, "uncertain": false}}, {"type": "Feature", "geometry": {"type": "Point", "coordinates": [85.352742, 28.201807]}, "properties": {"chainage_km": 34.2, "bank": "R", "flow_height_m": 58.3, "uncertain": false}}, {"type": "Feature", "geometry": {"type": "Point", "coordinates": [85.352465, 28.200105]}, "properties": {"chainage_km": 34.4, "bank": "L", "flow_height_m": 42.3, "uncertain": false}}, {"type": "Feature", "geometry": {"type": "Point", "coordinates": [85.352465, 28.200105]}, "properties": {"chainage_km": 34.4, "bank": "R", "flow_height_m": 61.7, "uncertain": false}}, {"type": "Feature", "geometry": {"type": "Point", "coordinates": [85.35202, 28.19847]}, "properties": {"chainage_km": 34.6, "bank": "R", "flow_height_m": 42.4, "uncertain": false}}, {"type": "Feature", "geometry": {"type": "Point", "coordinates": [85.35103, 28.197025]}, "properties": {"chainage_km": 34.8, "bank": "R", "flow_height_m": 43.4, "uncertain": false}}, {"type": "Feature", "geometry": {"type": "Point", "coordinates": [85.350261, 28.1955]}, "properties": {"chainage_km": 35.0, "bank": "R", "flow_height_m": 56.6, "uncertain": false}}, {"type": "Feature", "geometry": {"type": "Point", "coordinates": [85.349493, 28.193974]}, "properties": {"chainage_km": 35.2, "bank": "L", "flow_height_m": 51.0, "uncertain": false}}, {"type": "Feature", "geometry": {"type": "Point", "coordinates": [85.349493, 28.193974]}, "properties": {"chainage_km": 35.2, "bank": "R", "flow_height_m": 66.1, "uncertain": false}}, {"type": "Feature", "geometry": {"type": "Point", "coordinates": [85.34891, 28.192386]}, "properties": {"chainage_km": 35.4, "bank": "L", "flow_height_m": 68.9, "uncertain": true}}, {"type": "Feature", "geometry": {"type": "Point", "coordinates": [85.34891, 28.192386]}, "properties": {"chainage_km": 35.4, "bank": "R", "flow_height_m": 54.3, "uncertain": false}}, {"type": "Feature", "geometry": {"type": "Point", "coordinates": [85.34817, 28.19085]}, "properties": {"chainage_km": 35.6, "bank": "L", "flow_height_m": 62.8, "uncertain": false}}, {"type": "Feature", "geometry": {"type": "Point", "coordinates": [85.34817, 28.19085]}, "properties": {"chainage_km": 35.6, "bank": "R", "flow_height_m": 17.1, "uncertain": false}}, {"type": "Feature", "geometry": {"type": "Point", "coordinates": [85.347193, 28.189407]}, "properties": {"chainage_km": 35.8, "bank": "L", "flow_height_m": 90.6, "uncertain": false}}, {"type": "Feature", "geometry": {"type": "Point", "coordinates": [85.347193, 28.189407]}, "properties": {"chainage_km": 35.8, "bank": "R", "flow_height_m": 24.0, "uncertain": false}}, {"type": "Feature", "geometry": {"type": "Point", "coordinates": [85.346201, 28.187963]}, "properties": {"chainage_km": 36.0, "bank": "L", "flow_height_m": 80.7, "uncertain": false}}, {"type": "Feature", "geometry": {"type": "Point", "coordinates": [85.345657, 28.186357]}, "properties": {"chainage_km": 36.2, "bank": "L", "flow_height_m": 104.5, "uncertain": false}}, {"type": "Feature", "geometry": {"type": "Point", "coordinates": [85.345657, 28.186357]}, "properties": {"chainage_km": 36.2, "bank": "R", "flow_height_m": 46.7, "uncertain": false}}, {"type": "Feature", "geometry": {"type": "Point", "coordinates": [85.34444, 28.18499]}, "properties": {"chainage_km": 36.4, "bank": "L", "flow_height_m": 90.9, "uncertain": false}}, {"type": "Feature", "geometry": {"type": "Point", "coordinates": [85.343676, 28.183463]}, "properties": {"chainage_km": 36.6, "bank": "L", "flow_height_m": 93.3, "uncertain": false}}, {"type": "Feature", "geometry": {"type": "Point", "coordinates": [85.342696, 28.182022]}, "properties": {"chainage_km": 36.8, "bank": "L", "flow_height_m": 98.8, "uncertain": false}}, {"type": "Feature", "geometry": {"type": "Point", "coordinates": [85.34238, 28.180333]}, "properties": {"chainage_km": 37.0, "bank": "L", "flow_height_m": 39.5, "uncertain": false}}, {"type": "Feature", "geometry": {"type": "Point", "coordinates": [85.34271, 28.17865]}, "properties": {"chainage_km": 37.2, "bank": "L", "flow_height_m": 67.0, "uncertain": false}}, {"type": "Feature", "geometry": {"type": "Point", "coordinates": [85.34274, 28.17684]}, "properties": {"chainage_km": 37.4, "bank": "L", "flow_height_m": 90.1, "uncertain": false}}, {"type": "Feature", "geometry": {"type": "Point", "coordinates": [85.34215, 28.175255]}, "properties": {"chainage_km": 37.6, "bank": "L", "flow_height_m": 167.8, "uncertain": false}}, {"type": "Feature", "geometry": {"type": "Point", "coordinates": [85.342481, 28.173563]}, "properties": {"chainage_km": 37.8, "bank": "L", "flow_height_m": 43.3, "uncertain": false}}, {"type": "Feature", "geometry": {"type": "Point", "coordinates": [85.34286, 28.167125]}, "properties": {"chainage_km": 38.6, "bank": "R", "flow_height_m": 91.8, "uncertain": false}}, {"type": "Feature", "geometry": {"type": "Point", "coordinates": [85.3423, 28.165551]}, "properties": {"chainage_km": 38.8, "bank": "L", "flow_height_m": 28.1, "uncertain": false}}, {"type": "Feature", "geometry": {"type": "Point", "coordinates": [85.3423, 28.165551]}, "properties": {"chainage_km": 38.8, "bank": "R", "flow_height_m": 23.7, "uncertain": false}}, {"type": "Feature", "geometry": {"type": "Point", "coordinates": [85.341059, 28.164369]}, "properties": {"chainage_km": 39.0, "bank": "R", "flow_height_m": 56.3, "uncertain": false}}, {"type": "Feature", "geometry": {"type": "Point", "coordinates": [85.339378, 28.163621]}, "properties": {"chainage_km": 39.2, "bank": "L", "flow_height_m": 74.2, "uncertain": false}}, {"type": "Feature", "geometry": {"type": "Point", "coordinates": [85.337863, 28.162517]}, "properties": {"chainage_km": 39.4, "bank": "L", "flow_height_m": 52.8, "uncertain": false}}, {"type": "Feature", "geometry": {"type": "Point", "coordinates": [85.337863, 28.162517]}, "properties": {"chainage_km": 39.4, "bank": "R", "flow_height_m": 47.4, "uncertain": false}}, {"type": "Feature", "geometry": {"type": "Point", "coordinates": [85.33748, 28.160856]}, "properties": {"chainage_km": 39.6, "bank": "R", "flow_height_m": 31.9, "uncertain": false}}, {"type": "Feature", "geometry": {"type": "Point", "coordinates": [85.33623, 28.159663]}, "properties": {"chainage_km": 39.8, "bank": "L", "flow_height_m": 70.4, "uncertain": false}}, {"type": "Feature", "geometry": {"type": "Point", "coordinates": [85.33623, 28.159663]}, "properties": {"chainage_km": 39.8, "bank": "R", "flow_height_m": 71.2, "uncertain": false}}, {"type": "Feature", "geometry": {"type": "Point", "coordinates": [85.334563, 28.158873]}, "properties": {"chainage_km": 40.0, "bank": "L", "flow_height_m": 66.6, "uncertain": false}}, {"type": "Feature", "geometry": {"type": "Point", "coordinates": [85.33295, 28.158022]}, "properties": {"chainage_km": 40.2, "bank": "L", "flow_height_m": 70.2, "uncertain": false}}, {"type": "Feature", "geometry": {"type": "Point", "coordinates": [85.331585, 28.15694]}, "properties": {"chainage_km": 40.4, "bank": "L", "flow_height_m": 108.9, "uncertain": true}}, {"type": "Feature", "geometry": {"type": "Point", "coordinates": [85.330028, 28.155934]}, "properties": {"chainage_km": 40.6, "bank": "L", "flow_height_m": 79.5, "uncertain": false}}, {"type": "Feature", "geometry": {"type": "Point", "coordinates": [85.32872, 28.154596]}, "properties": {"chainage_km": 40.8, "bank": "L", "flow_height_m": 43.7, "uncertain": false}}, {"type": "Feature", "geometry": {"type": "Point", "coordinates": [85.32872, 28.154596]}, "properties": {"chainage_km": 40.8, "bank": "R", "flow_height_m": 27.3, "uncertain": false}}, {"type": "Feature", "geometry": {"type": "Point", "coordinates": [85.32731, 28.15346]}, "properties": {"chainage_km": 41.0, "bank": "L", "flow_height_m": 61.5, "uncertain": false}}, {"type": "Feature", "geometry": {"type": "Point", "coordinates": [85.32731, 28.15346]}, "properties": {"chainage_km": 41.0, "bank": "R", "flow_height_m": 71.0, "uncertain": false}}, {"type": "Feature", "geometry": {"type": "Point", "coordinates": [85.326108, 28.152091]}, "properties": {"chainage_km": 41.2, "bank": "L", "flow_height_m": 84.6, "uncertain": false}}, {"type": "Feature", "geometry": {"type": "Point", "coordinates": [85.326108, 28.152091]}, "properties": {"chainage_km": 41.2, "bank": "R", "flow_height_m": 40.8, "uncertain": true}}, {"type": "Feature", "geometry": {"type": "Point", "coordinates": [85.324507, 28.151176]}, "properties": {"chainage_km": 41.4, "bank": "L", "flow_height_m": 82.7, "uncertain": false}}, {"type": "Feature", "geometry": {"type": "Point", "coordinates": [85.324507, 28.151176]}, "properties": {"chainage_km": 41.4, "bank": "R", "flow_height_m": 103.5, "uncertain": true}}, {"type": "Feature", "geometry": {"type": "Point", "coordinates": [85.322732, 28.15061]}, "properties": {"chainage_km": 41.6, "bank": "L", "flow_height_m": 94.5, "uncertain": false}}, {"type": "Feature", "geometry": {"type": "Point", "coordinates": [85.321197, 28.149542]}, "properties": {"chainage_km": 41.8, "bank": "L", "flow_height_m": 79.7, "uncertain": false}}, {"type": "Feature", "geometry": {"type": "Point", "coordinates": [85.321197, 28.149542]}, "properties": {"chainage_km": 41.8, "bank": "R", "flow_height_m": 80.4, "uncertain": true}}, {"type": "Feature", "geometry": {"type": "Point", "coordinates": [85.319687, 28.148433]}, "properties": {"chainage_km": 42.0, "bank": "L", "flow_height_m": 75.8, "uncertain": false}}, {"type": "Feature", "geometry": {"type": "Point", "coordinates": [85.319687, 28.148433]}, "properties": {"chainage_km": 42.0, "bank": "R", "flow_height_m": 79.2, "uncertain": false}}, {"type": "Feature", "geometry": {"type": "Point", "coordinates": [85.317901, 28.147904]}, "properties": {"chainage_km": 42.2, "bank": "L", "flow_height_m": 65.3, "uncertain": false}}, {"type": "Feature", "geometry": {"type": "Point", "coordinates": [85.316423, 28.14674]}, "properties": {"chainage_km": 42.4, "bank": "L", "flow_height_m": 25.8, "uncertain": false}}, {"type": "Feature", "geometry": {"type": "Point", "coordinates": [85.316423, 28.14674]}, "properties": {"chainage_km": 42.4, "bank": "R", "flow_height_m": 36.9, "uncertain": false}}, {"type": "Feature", "geometry": {"type": "Point", "coordinates": [85.314788, 28.14589]}, "properties": {"chainage_km": 42.6, "bank": "L", "flow_height_m": 78.0, "uncertain": true}}, {"type": "Feature", "geometry": {"type": "Point", "coordinates": [85.313364, 28.14459]}, "properties": {"chainage_km": 42.8, "bank": "L", "flow_height_m": 103.7, "uncertain": true}}, {"type": "Feature", "geometry": {"type": "Point", "coordinates": [85.312401, 28.143134]}, "properties": {"chainage_km": 43.0, "bank": "R", "flow_height_m": 74.3, "uncertain": true}}, {"type": "Feature", "geometry": {"type": "Point", "coordinates": [85.311301, 28.142255]}, "properties": {"chainage_km": 43.2, "bank": "R", "flow_height_m": 50.2, "uncertain": false}}, {"type": "Feature", "geometry": {"type": "Point", "coordinates": [85.309493, 28.142439]}, "properties": {"chainage_km": 43.4, "bank": "L", "flow_height_m": 95.6, "uncertain": false}}, {"type": "Feature", "geometry": {"type": "Point", "coordinates": [85.308076, 28.141145]}, "properties": {"chainage_km": 43.6, "bank": "L", "flow_height_m": 109.0, "uncertain": true}}, {"type": "Feature", "geometry": {"type": "Point", "coordinates": [85.308076, 28.141145]}, "properties": {"chainage_km": 43.6, "bank": "R", "flow_height_m": 52.7, "uncertain": false}}, {"type": "Feature", "geometry": {"type": "Point", "coordinates": [85.30665, 28.13985]}, "properties": {"chainage_km": 43.8, "bank": "L", "flow_height_m": 82.2, "uncertain": true}}, {"type": "Feature", "geometry": {"type": "Point", "coordinates": [85.30665, 28.13985]}, "properties": {"chainage_km": 43.8, "bank": "R", "flow_height_m": 13.9, "uncertain": true}}, {"type": "Feature", "geometry": {"type": "Point", "coordinates": [85.305241, 28.138562]}, "properties": {"chainage_km": 44.0, "bank": "L", "flow_height_m": 92.6, "uncertain": true}}, {"type": "Feature", "geometry": {"type": "Point", "coordinates": [85.305241, 28.138562]}, "properties": {"chainage_km": 44.0, "bank": "R", "flow_height_m": 25.6, "uncertain": false}}, {"type": "Feature", "geometry": {"type": "Point", "coordinates": [85.30456, 28.137003]}, "properties": {"chainage_km": 44.2, "bank": "L", "flow_height_m": 41.8, "uncertain": true}}, {"type": "Feature", "geometry": {"type": "Point", "coordinates": [85.30456, 28.137003]}, "properties": {"chainage_km": 44.2, "bank": "R", "flow_height_m": 62.5, "uncertain": true}}, {"type": "Feature", "geometry": {"type": "Point", "coordinates": [85.303481, 28.135589]}, "properties": {"chainage_km": 44.4, "bank": "L", "flow_height_m": 73.7, "uncertain": true}}, {"type": "Feature", "geometry": {"type": "Point", "coordinates": [85.302773, 28.134048]}, "properties": {"chainage_km": 44.6, "bank": "R", "flow_height_m": 45.2, "uncertain": false}}, {"type": "Feature", "geometry": {"type": "Point", "coordinates": [85.301423, 28.132883]}, "properties": {"chainage_km": 44.8, "bank": "L", "flow_height_m": 4.4, "uncertain": false}}, {"type": "Feature", "geometry": {"type": "Point", "coordinates": [85.300097, 28.129757]}, "properties": {"chainage_km": 45.2, "bank": "L", "flow_height_m": 57.0, "uncertain": true}}, {"type": "Feature", "geometry": {"type": "Point", "coordinates": [85.300097, 28.129757]}, "properties": {"chainage_km": 45.2, "bank": "R", "flow_height_m": 84.9, "uncertain": false}}, {"type": "Feature", "geometry": {"type": "Point", "coordinates": [85.298897, 28.128387]}, "properties": {"chainage_km": 45.4, "bank": "R", "flow_height_m": 99.6, "uncertain": true}}, {"type": "Feature", "geometry": {"type": "Point", "coordinates": [85.291781, 28.122719]}, "properties": {"chainage_km": 46.4, "bank": "L", "flow_height_m": 91.6, "uncertain": false}}, {"type": "Feature", "geometry": {"type": "Point", "coordinates": [85.288943, 28.120133]}, "properties": {"chainage_km": 46.8, "bank": "L", "flow_height_m": 107.4, "uncertain": true}}, {"type": "Feature", "geometry": {"type": "Point", "coordinates": [85.28774, 28.11877]}, "properties": {"chainage_km": 47.0, "bank": "L", "flow_height_m": 98.8, "uncertain": true}}, {"type": "Feature", "geometry": {"type": "Point", "coordinates": [85.28774, 28.11877]}, "properties": {"chainage_km": 47.0, "bank": "R", "flow_height_m": 67.1, "uncertain": false}}, {"type": "Feature", "geometry": {"type": "Point", "coordinates": [85.28609, 28.117935]}, "properties": {"chainage_km": 47.2, "bank": "L", "flow_height_m": 86.9, "uncertain": false}}, {"type": "Feature", "geometry": {"type": "Point", "coordinates": [85.28609, 28.117935]}, "properties": {"chainage_km": 47.2, "bank": "R", "flow_height_m": 54.5, "uncertain": false}}, {"type": "Feature", "geometry": {"type": "Point", "coordinates": [85.284441, 28.117101]}, "properties": {"chainage_km": 47.4, "bank": "L", "flow_height_m": 15.2, "uncertain": true}}, {"type": "Feature", "geometry": {"type": "Point", "coordinates": [85.282922, 28.116019]}, "properties": {"chainage_km": 47.6, "bank": "L", "flow_height_m": 60.0, "uncertain": false}}, {"type": "Feature", "geometry": {"type": "Point", "coordinates": [85.282158, 28.114493]}, "properties": {"chainage_km": 47.8, "bank": "L", "flow_height_m": 109.0, "uncertain": true}}, {"type": "Feature", "geometry": {"type": "Point", "coordinates": [85.281176, 28.11305]}, "properties": {"chainage_km": 48.0, "bank": "L", "flow_height_m": 80.1, "uncertain": true}}, {"type": "Feature", "geometry": {"type": "Point", "coordinates": [85.281176, 28.11305]}, "properties": {"chainage_km": 48.0, "bank": "R", "flow_height_m": 62.2, "uncertain": true}}, {"type": "Feature", "geometry": {"type": "Point", "coordinates": [85.27961, 28.112125]}, "properties": {"chainage_km": 48.2, "bank": "L", "flow_height_m": 75.3, "uncertain": false}}, {"type": "Feature", "geometry": {"type": "Point", "coordinates": [85.27961, 28.112125]}, "properties": {"chainage_km": 48.2, "bank": "R", "flow_height_m": 32.3, "uncertain": true}}, {"type": "Feature", "geometry": {"type": "Point", "coordinates": [85.27827, 28.111183]}, "properties": {"chainage_km": 48.4, "bank": "L", "flow_height_m": 74.0, "uncertain": true}}, {"type": "Feature", "geometry": {"type": "Point", "coordinates": [85.276848, 28.110201]}, "properties": {"chainage_km": 48.6, "bank": "L", "flow_height_m": 98.1, "uncertain": false}}, {"type": "Feature", "geometry": {"type": "Point", "coordinates": [85.271206, 28.105323]}, "properties": {"chainage_km": 49.4, "bank": "L", "flow_height_m": 55.4, "uncertain": false}}, {"type": "Feature", "geometry": {"type": "Point", "coordinates": [85.269786, 28.104037]}, "properties": {"chainage_km": 49.6, "bank": "R", "flow_height_m": 92.5, "uncertain": false}}, {"type": "Feature", "geometry": {"type": "Point", "coordinates": [85.268185, 28.103121]}, "properties": {"chainage_km": 49.8, "bank": "L", "flow_height_m": 51.8, "uncertain": true}}, {"type": "Feature", "geometry": {"type": "Point", "coordinates": [85.268185, 28.103121]}, "properties": {"chainage_km": 49.8, "bank": "R", "flow_height_m": 89.0, "uncertain": false}}, {"type": "Feature", "geometry": {"type": "Point", "coordinates": [85.266765, 28.101829]}, "properties": {"chainage_km": 50.0, "bank": "L", "flow_height_m": 126.0, "uncertain": true}}, {"type": "Feature", "geometry": {"type": "Point", "coordinates": [85.265347, 28.100533]}, "properties": {"chainage_km": 50.2, "bank": "L", "flow_height_m": 67.0, "uncertain": false}}, {"type": "Feature", "geometry": {"type": "Point", "coordinates": [85.265347, 28.100533]}, "properties": {"chainage_km": 50.2, "bank": "R", "flow_height_m": 40.6, "uncertain": false}}, {"type": "Feature", "geometry": {"type": "Point", "coordinates": [85.26394, 28.099241]}, "properties": {"chainage_km": 50.4, "bank": "L", "flow_height_m": 80.9, "uncertain": true}}, {"type": "Feature", "geometry": {"type": "Point", "coordinates": [85.26394, 28.099241]}, "properties": {"chainage_km": 50.4, "bank": "R", "flow_height_m": 98.5, "uncertain": true}}, {"type": "Feature", "geometry": {"type": "Point", "coordinates": [85.262942, 28.097792]}, "properties": {"chainage_km": 50.6, "bank": "R", "flow_height_m": 55.6, "uncertain": true}}, {"type": "Feature", "geometry": {"type": "Point", "coordinates": [85.107715, 27.860192]}, "properties": {"chainage_km": 89.6, "bank": "R", "flow_height_m": 20.7, "uncertain": false}}]}