{"type": "FeatureCollection", "features": [{"type": "Feature", "geometry": {"type": "Point", "coordinates": [85.45976, 28.3366]}, "properties": {"chainage_km": 11.6, "bank": "L", "obs": 7.9, "model_1d": 3.8, "model_2d": null, "model": 3.8, "diff": -4.1, "quality": "ok", "domain": "upstream_of_injection", "note": "1D model injects at km 20; no modelled flow here"}}, {"type": "Feature", "geometry": {"type": "Point", "coordinates": [85.457828, 28.3368]}, "properties": {"chainage_km": 11.8, "bank": "L", "obs": 41.4, "model_1d": 1.2, "model_2d": null, "model": 1.2, "diff": -40.2, "quality": "ok", "domain": "upstream_of_injection", "note": "1D model injects at km 20; no modelled flow here"}}, {"type": "Feature", "geometry": {"type": "Point", "coordinates": [85.457828, 28.3368]}, "properties": {"chainage_km": 11.8, "bank": "R", "obs": 69.2, "model_1d": 1.2, "model_2d": null, "model": 1.2, "diff": -68.0, "quality": "ok", "domain": "upstream_of_injection", "note": "1D model injects at km 20; no modelled flow here"}}, {"type": "Feature", "geometry": {"type": "Point", "coordinates": [85.456064, 28.33629]}, "properties": {"chainage_km": 12.0, "bank": "R", "obs": 107.4, "model_1d": 33.0, "model_2d": null, "model": 33.0, "diff": -74.4, "quality": "ok", "domain": "upstream_of_injection", "note": "1D model injects at km 20; no modelled flow here"}}, {"type": "Feature", "geometry": {"type": "Point", "coordinates": [85.45416, 28.336]}, "properties": {"chainage_km": 12.2, "bank": "L", "obs": 45.5, "model_1d": 0.5, "model_2d": null, "model": 0.5, "diff": -45.0, "quality": "ok", "domain": "upstream_of_injection", "note": "1D model injects at km 20; no modelled flow here"}}, {"type": "Feature", "geometry": {"type": "Point", "coordinates": [85.45416, 28.336]}, "properties": {"chainage_km": 12.2, "bank": "R", "obs": 81.2, "model_1d": 0.5, "model_2d": null, "model": 0.5, "diff": -80.7, "quality": "ok", "domain": "upstream_of_injection", "note": "1D model injects at km 20; no modelled flow here"}}, {"type": "Feature", "geometry": {"type": "Point", "coordinates": [85.452383, 28.335433]}, "properties": {"chainage_km": 12.4, "bank": "L", "obs": 85.7, "model_1d": 0.5, "model_2d": null, "model": 0.5, "diff": -85.2, "quality": "ok", "domain": "upstream_of_injection", "note": "1D model injects at km 20; no modelled flow here"}}, {"type": "Feature", "geometry": {"type": "Point", "coordinates": [85.452383, 28.335433]}, "properties": {"chainage_km": 12.4, "bank": "R", "obs": 65.0, "model_1d": 0.5, "model_2d": null, "model": 0.5, "diff": -64.5, "quality": "ok", "domain": "upstream_of_injection", "note": "1D model injects at km 20; no modelled flow here"}}, {"type": "Feature", "geometry": {"type": "Point", "coordinates": [85.45047, 28.33514]}, "properties": {"chainage_km": 12.6, "bank": "L", "obs": 137.3, "model_1d": 11.2, "model_2d": null, "model": 11.2, "diff": -126.1, "quality": "ok", "domain": "upstream_of_injection", "note": "1D model injects at km 20; no modelled flow here"}}, {"type": "Feature", "geometry": {"type": "Point", "coordinates": [85.45047, 28.33514]}, "properties": {"chainage_km": 12.6, "bank": "R", "obs": 68.0, "model_1d": 11.2, "model_2d": null, "model": 11.2, "diff": -56.8, "quality": "ok", "domain": "upstream_of_injection", "note": "1D model injects at km 20; no modelled flow here"}}, {"type": "Feature", "geometry": {"type": "Point", "coordinates": [85.44843, 28.33512]}, "properties": {"chainage_km": 12.8, "bank": "L", "obs": 57.7, "model_1d": 1.2, "model_2d": null, "model": 1.2, "diff": -56.5, "quality": "ok", "domain": "upstream_of_injection", "note": "1D model injects at km 20; no modelled flow here"}}, {"type": "Feature", "geometry": {"type": "Point", "coordinates": [85.44843, 28.33512]}, "properties": {"chainage_km": 12.8, "bank": "R", "obs": 78.2, "model_1d": 1.2, "model_2d": null, "model": 1.2, "diff": -77.0, "quality": "ok", "domain": "upstream_of_injection", "note": "1D model injects at km 20; no modelled flow here"}}, {"type": "Feature", "geometry": {"type": "Point", "coordinates": [85.446585, 28.335531]}, "properties": {"chainage_km": 13.0, "bank": "R", "obs": 110.3, "model_1d": 8.9, "model_2d": null, "model": 8.9, "diff": -101.4, "quality": "ok", "domain": "upstream_of_injection", "note": "1D model injects at km 20; no modelled flow here"}}, {"type": "Feature", "geometry": {"type": "Point", "coordinates": [85.444723, 28.33535]}, "properties": {"chainage_km": 13.2, "bank": "L", "obs": 128.0, "model_1d": 0.5, "model_2d": null, "model": 0.5, "diff": -127.5, "quality": "ok", "domain": "upstream_of_injection", "note": "1D model injects at km 20; no modelled flow here"}}, {"type": "Feature", "geometry": {"type": "Point", "coordinates": [85.44268, 28.335326]}, "properties": {"chainage_km": 13.4, "bank": "L", "obs": 35.6, "model_1d": 0.5, "model_2d": null, "model": 0.5, "diff": -35.1, "quality": "ok", "domain": "upstream_of_injection", "note": "1D model injects at km 20; no modelled flow here"}}, {"type": "Feature", "geometry": {"type": "Point", "coordinates": [85.383628, 28.283765]}, "properties": {"chainage_km": 23.0, "bank": "L", "obs": 3.1, "model_1d": 78.1, "model_2d": null, "model": 78.1, "diff": 75.0, "quality": "ok", "domain": "1d"}}, {"type": "Feature", "geometry": {"type": "Point", "coordinates": [85.383628, 28.283765]}, "properties": {"chainage_km": 23.0, "bank": "R", "obs": 39.7, "model_1d": 78.1, "model_2d": null, "model": 78.1, "diff": 38.4, "quality": "ok", "domain": "1d"}}, {"type": "Feature", "geometry": {"type": "Point", "coordinates": [85.382421, 28.282389]}, "properties": {"chainage_km": 23.2, "bank": "L", "obs": 0.7, "model_1d": 63.0, "model_2d": null, "model": 63.0, "diff": 62.3, "quality": "ok", "domain": "1d"}}, {"type": "Feature", "geometry": {"type": "Point", "coordinates": [85.382421, 28.282389]}, "properties": {"chainage_km": 23.2, "bank": "R", "obs": 84.0, "model_1d": 63.0, "model_2d": null, "model": 63.0, "diff": -21.0, "quality": "ok", "domain": "1d"}}, {"type": "Feature", "geometry": {"type": "Point", "coordinates": [85.38119, 28.281027]}, "properties": {"chainage_km": 23.4, "bank": "L", "obs": 7.0, "model_1d": 57.8, "model_2d": null, "model": 57.8, "diff": 50.8, "quality": "ok", "domain": "1d"}}, {"type": "Feature", "geometry": {"type": "Point", "coordinates": [85.38119, 28.281027]}, "properties": {"chainage_km": 23.4, "bank": "R", "obs": 79.8, "model_1d": 57.8, "model_2d": null, "model": 57.8, "diff": -22.0, "quality": "ok", "domain": "1d"}}, {"type": "Feature", "geometry": {"type": "Point", "coordinates": [85.379608, 28.280107]}, "properties": {"chainage_km": 23.6, "bank": "L", "obs": 21.8, "model_1d": 67.0, "model_2d": null, "model": 67.0, "diff": 45.2, "quality": "ok", "domain": "1d"}}, {"type": "Feature", "geometry": {"type": "Point", "coordinates": [85.379608, 28.280107]}, "properties": {"chainage_km": 23.6, "bank": "R", "obs": 22.0, "model_1d": 67.0, "model_2d": null, "model": 67.0, "diff": 45.0, "quality": "ok", "domain": "1d"}}, {"type": "Feature", "geometry": {"type": "Point", "coordinates": [85.378003, 28.279199]}, "properties": {"chainage_km": 23.8, "bank": "L", "obs": 87.4, "model_1d": 72.0, "model_2d": null, "model": 72.0, "diff": -15.4, "quality": "ok", "domain": "1d"}}, {"type": "Feature", "geometry": {"type": "Point", "coordinates": [85.378003, 28.279199]}, "properties": {"chainage_km": 23.8, "bank": "R", "obs": 8.5, "model_1d": 72.0, "model_2d": null, "model": 72.0, "diff": 63.5, "quality": "ok", "domain": "1d"}}, {"type": "Feature", "geometry": {"type": "Point", "coordinates": [85.37665, 28.27788]}, "properties": {"chainage_km": 24.0, "bank": "L", "obs": 15.5, "model_1d": 86.3, "model_2d": null, "model": 86.3, "diff": 70.8, "quality": "ok", "domain": "1d"}}, {"type": "Feature", "geometry": {"type": "Point", "coordinates": [85.37665, 28.27788]}, "properties": {"chainage_km": 24.0, "bank": "R", "obs": 134.1, "model_1d": 86.3, "model_2d": null, "model": 86.3, "diff": -47.8, "quality": "ok", "domain": "1d"}}, {"type": "Feature", "geometry": {"type": "Point", "coordinates": [85.37668, 28.27607]}, "properties": {"chainage_km": 24.2, "bank": "L", "obs": 9.0, "model_1d": 68.2, "model_2d": null, "model": 68.2, "diff": 59.2, "quality": "ok", "domain": "1d"}}, {"type": "Feature", "geometry": {"type": "Point", "coordinates": [85.37668, 28.27607]}, "properties": {"chainage_km": 24.2, "bank": "R", "obs": 101.1, "model_1d": 68.2, "model_2d": null, "model": 68.2, "diff": -32.9, "quality": "ok", "domain": "1d"}}, {"type": "Feature", "geometry": {"type": "Point", "coordinates": [85.37701, 28.274378]}, "properties": {"chainage_km": 24.4, "bank": "L", "obs": 71.4, "model_1d": 49.4, "model_2d": null, "model": 49.4, "diff": -22.0, "quality": "ok", "domain": "1d"}}, {"type": "Feature", "geometry": {"type": "Point", "coordinates": [85.376658, 28.272883]}, "properties": {"chainage_km": 24.6, "bank": "L", "obs": 61.4, "model_1d": 63.3, "model_2d": null, "model": 63.3, "diff": 1.9, "quality": "ok", "domain": "1d"}}, {"type": "Feature", "geometry": {"type": "Point", "coordinates": [85.376658, 28.272883]}, "properties": {"chainage_km": 24.6, "bank": "R", "obs": 32.4, "model_1d": 63.3, "model_2d": null, "model": 63.3, "diff": 30.9, "quality": "ok", "domain": "1d"}}, {"type": "Feature", "geometry": {"type": "Point", "coordinates": [85.37624, 28.271283]}, "properties": {"chainage_km": 24.8, "bank": "L", "obs": 25.4, "model_1d": 60.3, "model_2d": null, "model": 60.3, "diff": 34.9, "quality": "ok", "domain": "1d"}}, {"type": "Feature", "geometry": {"type": "Point", "coordinates": [85.37624, 28.271283]}, "properties": {"chainage_km": 24.8, "bank": "R", "obs": 74.1, "model_1d": 60.3, "model_2d": null, "model": 60.3, "diff": -13.8, "quality": "ok", "domain": "1d"}}, {"type": "Feature", "geometry": {"type": "Point", "coordinates": [85.37617, 28.269516]}, "properties": {"chainage_km": 25.0, "bank": "L", "obs": 40.0, "model_1d": 90.7, "model_2d": null, "model": 90.7, "diff": 50.7, "quality": "ok", "domain": "1d"}}, {"type": "Feature", "geometry": {"type": "Point", "coordinates": [85.37617, 28.269516]}, "properties": {"chainage_km": 25.0, "bank": "R", "obs": 75.1, "model_1d": 90.7, "model_2d": null, "model": 90.7, "diff": 15.6, "quality": "ok", "domain": "1d"}}, {"type": "Feature", "geometry": {"type": "Point", "coordinates": [85.375886, 28.268048]}, "properties": {"chainage_km": 25.2, "bank": "L", "obs": 76.0, "model_1d": 66.2, "model_2d": null, "model": 66.2, "diff": -9.8, "quality": "ok", "domain": "1d"}}, {"type": "Feature", "geometry": {"type": "Point", "coordinates": [85.375886, 28.268048]}, "properties": {"chainage_km": 25.2, "bank": "R", "obs": 102.4, "model_1d": 66.2, "model_2d": null, "model": 66.2, "diff": -36.2, "quality": "ok", "domain": "1d"}}, {"type": "Feature", "geometry": {"type": "Point", "coordinates": [85.374983, 28.266573]}, "properties": {"chainage_km": 25.4, "bank": "L", "obs": 13.3, "model_1d": 60.4, "model_2d": null, "model": 60.4, "diff": 47.1, "quality": "ok", "domain": "1d"}}, {"type": "Feature", "geometry": {"type": "Point", "coordinates": [85.374983, 28.266573]}, "properties": {"chainage_km": 25.4, "bank": "R", "obs": 56.1, "model_1d": 60.4, "model_2d": null, "model": 60.4, "diff": 4.3, "quality": "ok", "domain": "1d"}}, {"type": "Feature", "geometry": {"type": "Point", "coordinates": [85.373783, 28.265203]}, "properties": {"chainage_km": 25.6, "bank": "L", "obs": 10.6, "model_1d": 67.5, "model_2d": null, "model": 67.5, "diff": 56.9, "quality": "ok", "domain": "1d"}}, {"type": "Feature", "geometry": {"type": "Point", "coordinates": [85.373783, 28.265203]}, "properties": {"chainage_km": 25.6, "bank": "R", "obs": 114.1, "model_1d": 67.5, "model_2d": null, "model": 67.5, "diff": -46.6, "quality": "ok", "domain": "1d"}}, {"type": "Feature", "geometry": {"type": "Point", "coordinates": [85.372357, 28.263909]}, "properties": {"chainage_km": 25.8, "bank": "L", "obs": 42.1, "model_1d": 74.9, "model_2d": null, "model": 74.9, "diff": 32.8, "quality": "ok", "domain": "1d"}}, {"type": "Feature", "geometry": {"type": "Point", "coordinates": [85.372357, 28.263909]}, "properties": {"chainage_km": 25.8, "bank": "R", "obs": 92.9, "model_1d": 74.9, "model_2d": null, "model": 74.9, "diff": -18.0, "quality": "ok", "domain": "1d"}}, {"type": "Feature", "geometry": {"type": "Point", "coordinates": [85.371802, 28.26231]}, "properties": {"chainage_km": 26.0, "bank": "L", "obs": 13.0, "model_1d": 78.2, "model_2d": null, "model": 78.2, "diff": 65.2, "quality": "ok", "domain": "1d"}}, {"type": "Feature", "geometry": {"type": "Point", "coordinates": [85.371802, 28.26231]}, "properties": {"chainage_km": 26.0, "bank": "R", "obs": 96.7, "model_1d": 78.2, "model_2d": null, "model": 78.2, "diff": -18.5, "quality": "ok", "domain": "1d"}}, {"type": "Feature", "geometry": {"type": "Point", "coordinates": [85.370375, 28.261012]}, "properties": {"chainage_km": 26.2, "bank": "L", "obs": 28.4, "model_1d": 79.1, "model_2d": null, "model": 79.1, "diff": 50.7, "quality": "ok", "domain": "1d"}}, {"type": "Feature", "geometry": {"type": "Point", "coordinates": [85.370375, 28.261012]}, "properties": {"chainage_km": 26.2, "bank": "R", "obs": 82.2, "model_1d": 79.1, "model_2d": null, "model": 79.1, "diff": -3.1, "quality": "ok", "domain": "1d"}}, {"type": "Feature", "geometry": {"type": "Point", "coordinates": [85.368859, 28.260103]}, "properties": {"chainage_km": 26.4, "bank": "L", "obs": 13.4, "model_1d": 48.9, "model_2d": null, "model": 48.9, "diff": 35.5, "quality": "ok", "domain": "1d"}}, {"type": "Feature", "geometry": {"type": "Point", "coordinates": [85.368859, 28.260103]}, "properties": {"chainage_km": 26.4, "bank": "R", "obs": 12.0, "model_1d": 48.9, "model_2d": null, "model": 48.9, "diff": 36.9, "quality": "ok", "domain": "1d"}}, {"type": "Feature", "geometry": {"type": "Point", "coordinates": [85.367438, 28.25916]}, "properties": {"chainage_km": 26.6, "bank": "L", "obs": 30.1, "model_1d": 48.3, "model_2d": null, "model": 48.3, "diff": 18.2, "quality": "ok", "domain": "1d"}}, {"type": "Feature", "geometry": {"type": "Point", "coordinates": [85.366494, 28.257868]}, "properties": {"chainage_km": 26.8, "bank": "L", "obs": 45.1, "model_1d": 60.4, "model_2d": null, "model": 60.4, "diff": 15.3, "quality": "ok", "domain": "1d"}}, {"type": "Feature", "geometry": {"type": "Point", "coordinates": [85.365639, 28.25643]}, "properties": {"chainage_km": 27.0, "bank": "L", "obs": 43.8, "model_1d": 70.1, "model_2d": null, "model": 70.1, "diff": 26.3, "quality": "ok", "domain": "1d"}}, {"type": "Feature", "geometry": {"type": "Point", "coordinates": [85.36508, 28.254829]}, "properties": {"chainage_km": 27.2, "bank": "L", "obs": 48.5, "model_1d": 75.2, "model_2d": null, "model": 75.2, "diff": 26.7, "quality": "ok", "domain": "1d"}}, {"type": "Feature", "geometry": {"type": "Point", "coordinates": [85.36508, 28.254829]}, "properties": {"chainage_km": 27.2, "bank": "R", "obs": 81.6, "model_1d": 75.2, "model_2d": null, "model": 75.2, "diff": -6.4, "quality": "ok", "domain": "1d"}}, {"type": "Feature", "geometry": {"type": "Point", "coordinates": [85.36449, 28.253236]}, "properties": {"chainage_km": 27.4, "bank": "L", "obs": 29.4, "model_1d": 82.0, "model_2d": null, "model": 82.0, "diff": 52.6, "quality": "ok", "domain": "1d"}}, {"type": "Feature", "geometry": {"type": "Point", "coordinates": [85.36449, 28.253236]}, "properties": {"chainage_km": 27.4, "bank": "R", "obs": 73.9, "model_1d": 82.0, "model_2d": null, "model": 82.0, "diff": 8.1, "quality": "ok", "domain": "1d"}}, {"type": "Feature", "geometry": {"type": "Point", "coordinates": [85.364776, 28.251791]}, "properties": {"chainage_km": 27.6, "bank": "L", "obs": 8.9, "model_1d": 85.7, "model_2d": null, "model": 85.7, "diff": 76.8, "quality": "ok", "domain": "1d"}}, {"type": "Feature", "geometry": {"type": "Point", "coordinates": [85.364776, 28.251791]}, "properties": {"chainage_km": 27.6, "bank": "R", "obs": 73.7, "model_1d": 85.7, "model_2d": null, "model": 85.7, "diff": 12.0, "quality": "ok", "domain": "1d"}}, {"type": "Feature", "geometry": {"type": "Point", "coordinates": [85.36423, 28.250182]}, "properties": {"chainage_km": 27.8, "bank": "L", "obs": 57.7, "model_1d": 97.2, "model_2d": null, "model": 97.2, "diff": 39.5, "quality": "ok", "domain": "1d"}}, {"type": "Feature", "geometry": {"type": "Point", "coordinates": [85.36423, 28.250182]}, "properties": {"chainage_km": 27.8, "bank": "R", "obs": 80.9, "model_1d": 97.2, "model_2d": null, "model": 97.2, "diff": 16.3, "quality": "ok", "domain": "1d"}}, {"type": "Feature", "geometry": {"type": "Point", "coordinates": [85.364062, 28.24868]}, "properties": {"chainage_km": 28.0, "bank": "L", "obs": 42.5, "model_1d": 70.6, "model_2d": null, "model": 70.6, "diff": 28.1, "quality": "ok", "domain": "1d"}}, {"type": "Feature", "geometry": {"type": "Point", "coordinates": [85.364062, 28.24868]}, "properties": {"chainage_km": 28.0, "bank": "R", "obs": 37.6, "model_1d": 70.6, "model_2d": null, "model": 70.6, "diff": 33.0, "quality": "ok", "domain": "1d"}}, {"type": "Feature", "geometry": {"type": "Point", "coordinates": [85.363071, 28.24723]}, "properties": {"chainage_km": 28.2, "bank": "L", "obs": 22.7, "model_1d": 70.9, "model_2d": null, "model": 70.9, "diff": 48.2, "quality": "ok", "domain": "1d"}}, {"type": "Feature", "geometry": {"type": "Point", "coordinates": [85.361651, 28.245936]}, "properties": {"chainage_km": 28.4, "bank": "L", "obs": 13.7, "model_1d": 69.0, "model_2d": null, "model": 69.0, "diff": 55.3, "quality": "ok", "domain": "1d"}}, {"type": "Feature", "geometry": {"type": "Point", "coordinates": [85.361651, 28.245936]}, "properties": {"chainage_km": 28.4, "bank": "R", "obs": 60.5, "model_1d": 69.0, "model_2d": null, "model": 69.0, "diff": 8.5, "quality": "ok", "domain": "1d"}}, {"type": "Feature", "geometry": {"type": "Point", "coordinates": [85.360233, 28.244644]}, "properties": {"chainage_km": 28.6, "bank": "L", "obs": 28.2, "model_1d": 81.0, "model_2d": null, "model": 81.0, "diff": 52.8, "quality": "ok", "domain": "1d"}}, {"type": "Feature", "geometry": {"type": "Point", "coordinates": [85.360233, 28.244644]}, "properties": {"chainage_km": 28.6, "bank": "R", "obs": 71.0, "model_1d": 81.0, "model_2d": null, "model": 81.0, "diff": 10.0, "quality": "ok", "domain": "1d"}}, {"type": "Feature", "geometry": {"type": "Point", "coordinates": [85.358799, 28.243891]}, "properties": {"chainage_km": 28.8, "bank": "L", "obs": 44.5, "model_1d": 72.2, "model_2d": null, "model": 72.2, "diff": 27.7, "quality": "ok", "domain": "1d"}}, {"type": "Feature", "geometry": {"type": "Point", "coordinates": [85.358799, 28.243891]}, "properties": {"chainage_km": 28.8, "bank": "R", "obs": 91.0, "model_1d": 72.2, "model_2d": null, "model": 72.2, "diff": -18.8, "quality": "ok", "domain": "1d"}}, {"type": "Feature", "geometry": {"type": "Point", "coordinates": [85.35793, 28.242406]}, "properties": {"chainage_km": 29.0, "bank": "L", "obs": 1.4, "model_1d": 86.1, "model_2d": null, "model": 86.1, "diff": 84.7, "quality": "ok", "domain": "1d"}}, {"type": "Feature", "geometry": {"type": "Point", "coordinates": [85.35734, 28.240817]}, "properties": {"chainage_km": 29.2, "bank": "L", "obs": 50.0, "model_1d": 86.7, "model_2d": null, "model": 86.7, "diff": 36.7, "quality": "ok", "domain": "1d"}}, {"type": "Feature", "geometry": {"type": "Point", "coordinates": [85.35734, 28.240817]}, "properties": {"chainage_km": 29.2, "bank": "R", "obs": 67.7, "model_1d": 86.7, "model_2d": null, "model": 86.7, "diff": 19.0, "quality": "ok", "domain": "1d"}}, {"type": "Feature", "geometry": {"type": "Point", "coordinates": [85.357713, 28.23933]}, "properties": {"chainage_km": 29.4, "bank": "L", "obs": 9.1, "model_1d": 84.0, "model_2d": null, "model": 84.0, "diff": 74.9, "quality": "ok", "domain": "1d"}}, {"type": "Feature", "geometry": {"type": "Point", "coordinates": [85.357713, 28.23933]}, "properties": {"chainage_km": 29.4, "bank": "R", "obs": 131.3, "model_1d": 84.0, "model_2d": null, "model": 84.0, "diff": -47.3, "quality": "ok", "domain": "1d"}}, {"type": "Feature", "geometry": {"type": "Point", "coordinates": [85.358212, 28.236153]}, "properties": {"chainage_km": 29.8, "bank": "L", "obs": 35.0, "model_1d": 99.7, "model_2d": null, "model": 99.7, "diff": 64.7, "quality": "ok", "domain": "1d"}}, {"type": "Feature", "geometry": {"type": "Point", "coordinates": [85.358212, 28.236153]}, "properties": {"chainage_km": 29.8, "bank": "R", "obs": 105.0, "model_1d": 99.7, "model_2d": null, "model": 99.7, "diff": -5.3, "quality": "ok", "domain": "1d"}}, {"type": "Feature", "geometry": {"type": "Point", "coordinates": [85.358963, 28.234629]}, "properties": {"chainage_km": 30.0, "bank": "L", "obs": 48.6, "model_1d": 97.0, "model_2d": null, "model": 97.0, "diff": 48.4, "quality": "ok", "domain": "1d"}}, {"type": "Feature", "geometry": {"type": "Point", "coordinates": [85.358963, 28.234629]}, "properties": {"chainage_km": 30.0, "bank": "R", "obs": 82.1, "model_1d": 97.0, "model_2d": null, "model": 97.0, "diff": 14.9, "quality": "ok", "domain": "1d"}}, {"type": "Feature", "geometry": {"type": "Point", "coordinates": [85.35963, 28.233064]}, "properties": {"chainage_km": 30.2, "bank": "L", "obs": 79.7, "model_1d": 113.7, "model_2d": null, "model": 113.7, "diff": 34.0, "quality": "ok", "domain": "1d"}}, {"type": "Feature", "geometry": {"type": "Point", "coordinates": [85.35963, 28.233064]}, "properties": {"chainage_km": 30.2, "bank": "R", "obs": 92.7, "model_1d": 113.7, "model_2d": null, "model": 113.7, "diff": 21.0, "quality": "ok", "domain": "1d"}}, {"type": "Feature", "geometry": {"type": "Point", "coordinates": [85.360023, 28.231554]}, "properties": {"chainage_km": 30.4, "bank": "L", "obs": 56.0, "model_1d": 95.4, "model_2d": null, "model": 95.4, "diff": 39.4, "quality": "ok", "domain": "1d"}}, {"type": "Feature", "geometry": {"type": "Point", "coordinates": [85.360023, 28.231554]}, "properties": {"chainage_km": 30.4, "bank": "R", "obs": 72.5, "model_1d": 95.4, "model_2d": null, "model": 95.4, "diff": 22.9, "quality": "ok", "domain": "1d"}}, {"type": "Feature", "geometry": {"type": "Point", "coordinates": [85.360564, 28.230012]}, "properties": {"chainage_km": 30.6, "bank": "L", "obs": 12.5, "model_1d": 61.2, "model_2d": null, "model": 61.2, "diff": 48.7, "quality": "suspect_haze_artifact", "domain": "1d"}}, {"type": "Feature", "geometry": {"type": "Point", "coordinates": [85.360564, 28.230012]}, "properties": {"chainage_km": 30.6, "bank": "R", "obs": 98.9, "model_1d": 61.2, "model_2d": null, "model": 61.2, "diff": -37.7, "quality": "suspect_haze_artifact", "domain": "1d"}}, {"type": "Feature", "geometry": {"type": "Point", "coordinates": [85.36059, 28.228437]}, "properties": {"chainage_km": 30.8, "bank": "L", "obs": 337.4, "model_1d": 60.5, "model_2d": null, "model": 60.5, "diff": -276.9, "quality": "suspect_haze_artifact", "domain": "1d"}}, {"type": "Feature", "geometry": {"type": "Point", "coordinates": [85.36059, 28.228437]}, "properties": {"chainage_km": 30.8, "bank": "R", "obs": 272.7, "model_1d": 60.5, "model_2d": null, "model": 60.5, "diff": -212.2, "quality": "suspect_haze_artifact", "domain": "1d"}}, {"type": "Feature", "geometry": {"type": "Point", "coordinates": [85.36092, 28.226745]}, "properties": {"chainage_km": 31.0, "bank": "L", "obs": 111.8, "model_1d": 55.4, "model_2d": null, "model": 55.4, "diff": -56.4, "quality": "suspect_haze_artifact", "domain": "1d"}}, {"type": "Feature", "geometry": {"type": "Point", "coordinates": [85.36092, 28.226745]}, "properties": {"chainage_km": 31.0, "bank": "R", "obs": 416.3, "model_1d": 55.4, "model_2d": null, "model": 55.4, "diff": -360.9, "quality": "suspect_haze_artifact", "domain": "1d"}}, {"type": "Feature", "geometry": {"type": "Point", "coordinates": [85.36125, 28.225062]}, "properties": {"chainage_km": 31.2, "bank": "L", "obs": 209.5, "model_1d": 64.4, "model_2d": null, "model": 64.4, "diff": -145.1, "quality": "suspect_haze_artifact", "domain": "1d"}}, {"type": "Feature", "geometry": {"type": "Point", "coordinates": [85.36125, 28.225062]}, "properties": {"chainage_km": 31.2, "bank": "R", "obs": 137.1, "model_1d": 64.4, "model_2d": null, "model": 64.4, "diff": -72.7, "quality": "suspect_haze_artifact", "domain": "1d"}}, {"type": "Feature", "geometry": {"type": "Point", "coordinates": [85.360756, 28.223437]}, "properties": {"chainage_km": 31.4, "bank": "L", "obs": 12.2, "model_1d": 72.2, "model_2d": null, "model": 72.2, "diff": 60.0, "quality": "suspect_haze_artifact", "domain": "1d"}}, {"type": "Feature", "geometry": {"type": "Point", "coordinates": [85.360756, 28.223437]}, "properties": {"chainage_km": 31.4, "bank": "R", "obs": 430.4, "model_1d": 72.2, "model_2d": null, "model": 72.2, "diff": -358.2, "quality": "suspect_haze_artifact", "domain": "1d"}}, {"type": "Feature", "geometry": {"type": "Point", "coordinates": [85.35977, 28.22199]}, "properties": {"chainage_km": 31.6, "bank": "L", "obs": 157.3, "model_1d": 77.7, "model_2d": null, "model": 77.7, "diff": -79.6, "quality": "suspect_haze_artifact", "domain": "1d"}}, {"type": "Feature", "geometry": {"type": "Point", "coordinates": [85.35977, 28.22199]}, "properties": {"chainage_km": 31.6, "bank": "R", "obs": 315.8, "model_1d": 77.7, "model_2d": null, "model": 77.7, "diff": -238.1, "quality": "suspect_haze_artifact", "domain": "1d"}}, {"type": "Feature", "geometry": {"type": "Point", "coordinates": [85.358344, 28.220695]}, "properties": {"chainage_km": 31.8, "bank": "L", "obs": 196.7, "model_1d": 82.6, "model_2d": null, "model": 82.6, "diff": -114.1, "quality": "suspect_haze_artifact", "domain": "1d"}}, {"type": "Feature", "geometry": {"type": "Point", "coordinates": [85.358344, 28.220695]}, "properties": {"chainage_km": 31.8, "bank": "R", "obs": 47.5, "model_1d": 82.6, "model_2d": null, "model": 82.6, "diff": 35.1, "quality": "suspect_haze_artifact", "domain": "1d"}}, {"type": "Feature", "geometry": {"type": "Point", "coordinates": [85.357144, 28.219328]}, "properties": {"chainage_km": 32.0, "bank": "L", "obs": 300.8, "model_1d": 65.1, "model_2d": null, "model": 65.1, "diff": -235.7, "quality": "suspect_haze_artifact", "domain": "1d"}}, {"type": "Feature", "geometry": {"type": "Point", "coordinates": [85.357144, 28.219328]}, "properties": {"chainage_km": 32.0, "bank": "R", "obs": 260.4, "model_1d": 65.1, "model_2d": null, "model": 65.1, "diff": -195.3, "quality": "suspect_haze_artifact", "domain": "1d"}}, {"type": "Feature", "geometry": {"type": "Point", "coordinates": [85.356153, 28.217883]}, "properties": {"chainage_km": 32.2, "bank": "L", "obs": 236.7, "model_1d": 59.5, "model_2d": null, "model": 59.5, "diff": -177.2, "quality": "suspect_haze_artifact", "domain": "1d"}}, {"type": "Feature", "geometry": {"type": "Point", "coordinates": [85.356153, 28.217883]}, "properties": {"chainage_km": 32.2, "bank": "R", "obs": 294.6, "model_1d": 59.5, "model_2d": null, "model": 59.5, "diff": -235.1, "quality": "suspect_haze_artifact", "domain": "1d"}}, {"type": "Feature", "geometry": {"type": "Point", "coordinates": [85.355172, 28.216432]}, "properties": {"chainage_km": 32.4, "bank": "L", "obs": 251.2, "model_1d": 54.6, "model_2d": null, "model": 54.6, "diff": -196.6, "quality": "suspect_haze_artifact", "domain": "1d"}}, {"type": "Feature", "geometry": {"type": "Point", "coordinates": [85.355172, 28.216432]}, "properties": {"chainage_km": 32.4, "bank": "R", "obs": 62.5, "model_1d": 54.6, "model_2d": null, "model": 54.6, "diff": -7.9, "quality": "suspect_haze_artifact", "domain": "1d"}}, {"type": "Feature", "geometry": {"type": "Point", "coordinates": [85.354683, 28.214809]}, "properties": {"chainage_km": 32.6, "bank": "L", "obs": 235.6, "model_1d": 58.6, "model_2d": null, "model": 58.6, "diff": -177.0, "quality": "suspect_haze_artifact", "domain": "1d"}}, {"type": "Feature", "geometry": {"type": "Point", "coordinates": [85.354683, 28.214809]}, "properties": {"chainage_km": 32.6, "bank": "R", "obs": 280.2, "model_1d": 58.6, "model_2d": null, "model": 58.6, "diff": -221.6, "quality": "suspect_haze_artifact", "domain": "1d"}}, {"type": "Feature", "geometry": {"type": "Point", "coordinates": [85.35471, 28.213234]}, "properties": {"chainage_km": 32.8, "bank": "L", "obs": 235.1, "model_1d": 60.7, "model_2d": null, "model": 60.7, "diff": -174.4, "quality": "suspect_haze_artifact", "domain": "1d"}}, {"type": "Feature", "geometry": {"type": "Point", "coordinates": [85.35471, 28.213234]}, "properties": {"chainage_km": 32.8, "bank": "R", "obs": 175.7, "model_1d": 60.7, "model_2d": null, "model": 60.7, "diff": -115.0, "quality": "suspect_haze_artifact", "domain": "1d"}}, {"type": "Feature", "geometry": {"type": "Point", "coordinates": [85.35443, 28.211532]}, "properties": {"chainage_km": 33.0, "bank": "L", "obs": 61.8, "model_1d": 63.4, "model_2d": null, "model": 63.4, "diff": 1.6, "quality": "suspect_haze_artifact", "domain": "1d"}}, {"type": "Feature", "geometry": {"type": "Point", "coordinates": [85.354146, 28.209839]}, "properties": {"chainage_km": 33.2, "bank": "L", "obs": 46.9, "model_1d": 52.7, "model_2d": null, "model": 52.7, "diff": 5.8, "quality": "ok", "domain": "1d"}}, {"type": "Feature", "geometry": {"type": "Point", "coordinates": [85.354146, 28.209839]}, "properties": {"chainage_km": 33.2, "bank": "R", "obs": 95.7, "model_1d": 52.7, "model_2d": null, "model": 52.7, "diff": -43.0, "quality": "ok", "domain": "1d"}}, {"type": "Feature", "geometry": {"type": "Point", "coordinates": [85.35448, 28.208147]}, "properties": {"chainage_km": 33.4, "bank": "R", "obs": 96.9, "model_1d": 61.5, "model_2d": null, "model": 61.5, "diff": -35.4, "quality": "ok", "domain": "1d"}}, {"type": "Feature", "geometry": {"type": "Point", "coordinates": [85.35481, 28.206464]}, "properties": {"chainage_km": 33.6, "bank": "L", "obs": 59.1, "model_1d": 51.1, "model_2d": 162.5, "model": 162.5, "diff": 103.4, "quality": "ok", "domain": "2d"}}, {"type": "Feature", "geometry": {"type": "Point", "coordinates": [85.35481, 28.206464]}, "properties": {"chainage_km": 33.6, "bank": "R", "obs": 59.1, "model_1d": 51.1, "model_2d": 162.5, "model": 162.5, "diff": 103.4, "quality": "ok", "domain": "2d"}}, {"type": "Feature", "geometry": {"type": "Point", "coordinates": [85.354011, 28.204945]}, "properties": {"chainage_km": 33.8, "bank": "L", "obs": 57.6, "model_1d": 54.8, "model_2d": 76.6, "model": 76.6, "diff": 19.0, "quality": "ok", "domain": "2d"}}, {"type": "Feature", "geometry": {"type": "Point", "coordinates": [85.354011, 28.204945]}, "properties": {"chainage_km": 33.8, "bank": "R", "obs": 47.7, "model_1d": 54.8, "model_2d": 76.6, "model": 76.6, "diff": 28.9, "quality": "ok", "domain": "2d"}}, {"type": "Feature", "geometry": {"type": "Point", "coordinates": [85.35333, 28.203392]}, "properties": {"chainage_km": 34.0, "bank": "L", "obs": 45.1, "model_1d": 57.3, "model_2d": 67.7, "model": 67.7, "diff": 22.6, "quality": "ok", "domain": "2d"}}, {"type": "Feature", "geometry": {"type": "Point", "coordinates": [85.352742, 28.201807]}, "properties": {"chainage_km": 34.2, "bank": "L", "obs": 40.5, "model_1d": 57.9, "model_2d": 66.4, "model": 66.4, "diff": 25.9, "quality": "ok", "domain": "2d"}}, {"type": "Feature", "geometry": {"type": "Point", "coordinates": [85.352742, 28.201807]}, "properties": {"chainage_km": 34.2, "bank": "R", "obs": 58.3, "model_1d": 57.9, "model_2d": 66.4, "model": 66.4, "diff": 8.1, "quality": "ok", "domain": "2d"}}, {"type": "Feature", "geometry": {"type": "Point", "coordinates": [85.352465, 28.200105]}, "properties": {"chainage_km": 34.4, "bank": "L", "obs": 42.3, "model_1d": 51.8, "model_2d": 74.6, "model": 74.6, "diff": 32.3, "quality": "ok", "domain": "2d"}}, {"type": "Feature", "geometry": {"type": "Point", "coordinates": [85.352465, 28.200105]}, "properties": {"chainage_km": 34.4, "bank": "R", "obs": 61.7, "model_1d": 51.8, "model_2d": 74.6, "model": 74.6, "diff": 12.9, "quality": "ok", "domain": "2d"}}, {"type": "Feature", "geometry": {"type": "Point", "coordinates": [85.35202, 28.19847]}, "properties": {"chainage_km": 34.6, "bank": "R", "obs": 42.4, "model_1d": 53.1, "model_2d": 71.1, "model": 71.1, "diff": 28.7, "quality": "ok", "domain": "2d"}}, {"type": "Feature", "geometry": {"type": "Point", "coordinates": [85.35103, 28.197025]}, "properties": {"chainage_km": 34.8, "bank": "R", "obs": 43.4, "model_1d": 50.3, "model_2d": 66.1, "model": 66.1, "diff": 22.7, "quality": "ok", "domain": "2d"}}, {"type": "Feature", "geometry": {"type": "Point", "coordinates": [85.350261, 28.1955]}, "properties": {"chainage_km": 35.0, "bank": "R", "obs": 56.6, "model_1d": 49.4, "model_2d": 71.2, "model": 71.2, "diff": 14.6, "quality": "ok", "domain": "2d"}}, {"type": "Feature", "geometry": {"type": "Point", "coordinates": [85.349493, 28.193974]}, "properties": {"chainage_km": 35.2, "bank": "L", "obs": 51.0, "model_1d": 58.9, "model_2d": 75.9, "model": 75.9, "diff": 24.9, "quality": "ok", "domain": "2d"}}, {"type": "Feature", "geometry": {"type": "Point", "coordinates": [85.349493, 28.193974]}, "properties": {"chainage_km": 35.2, "bank": "R", "obs": 66.1, "model_1d": 58.9, "model_2d": 75.9, "model": 75.9, "diff": 9.8, "quality": "ok", "domain": "2d"}}, {"type": "Feature", "geometry": {"type": "Point", "coordinates": [85.34891, 28.192386]}, "properties": {"chainage_km": 35.4, "bank": "L", "obs": 68.9, "model_1d": 55.2, "model_2d": 78.4, "model": 78.4, "diff": 9.5, "quality": "ok", "domain": "2d"}}, {"type": "Feature", "geometry": {"type": "Point", "coordinates": [85.34891, 28.192386]}, "properties": {"chainage_km": 35.4, "bank": "R", "obs": 54.3, "model_1d": 55.2, "model_2d": 78.4, "model": 78.4, "diff": 24.1, "quality": "ok", "domain": "2d"}}, {"type": "Feature", "geometry": {"type": "Point", "coordinates": [85.34817, 28.19085]}, "properties": {"chainage_km": 35.6, "bank": "L", "obs": 62.8, "model_1d": 57.7, "model_2d": 78.2, "model": 78.2, "diff": 15.4, "quality": "ok", "domain": "2d"}}, {"type": "Feature", "geometry": {"type": "Point", "coordinates": [85.34817, 28.19085]}, "properties": {"chainage_km": 35.6, "bank": "R", "obs": 17.1, "model_1d": 57.7, "model_2d": 78.2, "model": 78.2, "diff": 61.1, "quality": "ok", "domain": "2d"}}, {"type": "Feature", "geometry": {"type": "Point", "coordinates": [85.347193, 28.189407]}, "properties": {"chainage_km": 35.8, "bank": "L", "obs": 90.6, "model_1d": 56.8, "model_2d": 76.6, "model": 76.6, "diff": -14.0, "quality": "ok", "domain": "2d"}}, {"type": "Feature", "geometry": {"type": "Point", "coordinates": [85.347193, 28.189407]}, "properties": {"chainage_km": 35.8, "bank": "R", "obs": 24.0, "model_1d": 56.8, "model_2d": 76.6, "model": 76.6, "diff": 52.6, "quality": "ok", "domain": "2d"}}, {"type": "Feature", "geometry": {"type": "Point", "coordinates": [85.346201, 28.187963]}, "properties": {"chainage_km": 36.0, "bank": "L", "obs": 80.7, "model_1d": 65.3, "model_2d": 82.9, "model": 82.9, "diff": 2.2, "quality": "ok", "domain": "2d"}}, {"type": "Feature", "geometry": {"type": "Point", "coordinates": [85.345657, 28.186357]}, "properties": {"chainage_km": 36.2, "bank": "L", "obs": 104.5, "model_1d": 69.9, "model_2d": 80.8, "model": 80.8, "diff": -23.7, "quality": "ok", "domain": "2d"}}, {"type": "Feature", "geometry": {"type": "Point", "coordinates": [85.345657, 28.186357]}, "properties": {"chainage_km": 36.2, "bank": "R", "obs": 46.7, "model_1d": 69.9, "model_2d": 80.8, "model": 80.8, "diff": 34.1, "quality": "ok", "domain": "2d"}}, {"type": "Feature", "geometry": {"type": "Point", "coordinates": [85.34444, 28.18499]}, "properties": {"chainage_km": 36.4, "bank": "L", "obs": 90.9, "model_1d": 72.4, "model_2d": 79.2, "model": 79.2, "diff": -11.7, "quality": "ok", "domain": "2d"}}, {"type": "Feature", "geometry": {"type": "Point", "coordinates": [85.343676, 28.183463]}, "properties": {"chainage_km": 36.6, "bank": "L", "obs": 93.3, "model_1d": 76.3, "model_2d": 84.8, "model": 84.8, "diff": -8.5, "quality": "ok", "domain": "2d"}}, {"type": "Feature", "geometry": {"type": "Point", "coordinates": [85.342696, 28.182022]}, "properties": {"chainage_km": 36.8, "bank": "L", "obs": 98.8, "model_1d": 72.2, "model_2d": 90.2, "model": 90.2, "diff": -8.6, "quality": "ok", "domain": "2d"}}, {"type": "Feature", "geometry": {"type": "Point", "coordinates": [85.34238, 28.180333]}, "properties": {"chainage_km": 37.0, "bank": "L", "obs": 39.5, "model_1d": 80.8, "model_2d": 91.4, "model": 91.4, "diff": 51.9, "quality": "ok", "domain": "2d"}}, {"type": "Feature", "geometry": {"type": "Point", "coordinates": [85.34271, 28.17865]}, "properties": {"chainage_km": 37.2, "bank": "L", "obs": 67.0, "model_1d": 78.9, "model_2d": 84.6, "model": 84.6, "diff": 17.6, "quality": "ok", "domain": "2d"}}, {"type": "Feature", "geometry": {"type": "Point", "coordinates": [85.34274, 28.17684]}, "properties": {"chainage_km": 37.4, "bank": "L", "obs": 90.1, "model_1d": 82.7, "model_2d": 68.9, "model": 68.9, "diff": -21.2, "quality": "ok", "domain": "2d"}}, {"type": "Feature", "geometry": {"type": "Point", "coordinates": [85.34215, 28.175255]}, "properties": {"chainage_km": 37.6, "bank": "L", "obs": 167.8, "model_1d": 99.7, "model_2d": 79.3, "model": 79.3, "diff": -88.5, "quality": "ok", "domain": "2d"}}, {"type": "Feature", "geometry": {"type": "Point", "coordinates": [85.342481, 28.173563]}, "properties": {"chainage_km": 37.8, "bank": "L", "obs": 43.3, "model_1d": 79.7, "model_2d": 75.8, "model": 75.8, "diff": 32.5, "quality": "ok", "domain": "2d"}}, {"type": "Feature", "geometry": {"type": "Point", "coordinates": [85.34286, 28.167125]}, "properties": {"chainage_km": 38.6, "bank": "R", "obs": 91.8, "model_1d": 46.6, "model_2d": 65.9, "model": 65.9, "diff": -25.9, "quality": "ok", "domain": "2d"}}, {"type": "Feature", "geometry": {"type": "Point", "coordinates": [85.3423, 28.165551]}, "properties": {"chainage_km": 38.8, "bank": "L", "obs": 28.1, "model_1d": 48.4, "model_2d": 63.6, "model": 63.6, "diff": 35.5, "quality": "ok", "domain": "2d"}}, {"type": "Feature", "geometry": {"type": "Point", "coordinates": [85.3423, 28.165551]}, "properties": {"chainage_km": 38.8, "bank": "R", "obs": 23.7, "model_1d": 48.4, "model_2d": 63.6, "model": 63.6, "diff": 39.9, "quality": "ok", "domain": "2d"}}, {"type": "Feature", "geometry": {"type": "Point", "coordinates": [85.341059, 28.164369]}, "properties": {"chainage_km": 39.0, "bank": "R", "obs": 56.3, "model_1d": 49.5, "model_2d": 74.4, "model": 74.4, "diff": 18.1, "quality": "ok", "domain": "2d"}}, {"type": "Feature", "geometry": {"type": "Point", "coordinates": [85.339378, 28.163621]}, "properties": {"chainage_km": 39.2, "bank": "L", "obs": 74.2, "model_1d": 48.4, "model_2d": 70.5, "model": 70.5, "diff": -3.7, "quality": "ok", "domain": "2d"}}, {"type": "Feature", "geometry": {"type": "Point", "coordinates": [85.337863, 28.162517]}, "properties": {"chainage_km": 39.4, "bank": "L", "obs": 52.8, "model_1d": 51.4, "model_2d": 80.5, "model": 80.5, "diff": 27.7, "quality": "ok", "domain": "2d"}}, {"type": "Feature", "geometry": {"type": "Point", "coordinates": [85.337863, 28.162517]}, "properties": {"chainage_km": 39.4, "bank": "R", "obs": 47.4, "model_1d": 51.4, "model_2d": 80.5, "model": 80.5, "diff": 33.1, "quality": "ok", "domain": "2d"}}, {"type": "Feature", "geometry": {"type": "Point", "coordinates": [85.33748, 28.160856]}, "properties": {"chainage_km": 39.6, "bank": "R", "obs": 31.9, "model_1d": 50.6, "model_2d": 88.5, "model": 88.5, "diff": 56.6, "quality": "ok", "domain": "2d"}}, {"type": "Feature", "geometry": {"type": "Point", "coordinates": [85.33623, 28.159663]}, "properties": {"chainage_km": 39.8, "bank": "L", "obs": 70.4, "model_1d": 50.4, "model_2d": 86.8, "model": 86.8, "diff": 16.4, "quality": "ok", "domain": "2d"}}, {"type": "Feature", "geometry": {"type": "Point", "coordinates": [85.33623, 28.159663]}, "properties": {"chainage_km": 39.8, "bank": "R", "obs": 71.2, "model_1d": 50.4, "model_2d": 86.8, "model": 86.8, "diff": 15.6, "quality": "ok", "domain": "2d"}}, {"type": "Feature", "geometry": {"type": "Point", "coordinates": [85.334563, 28.158873]}, "properties": {"chainage_km": 40.0, "bank": "L", "obs": 66.6, "model_1d": 38.4, "model_2d": 74.8, "model": 74.8, "diff": 8.2, "quality": "ok", "domain": "2d"}}, {"type": "Feature", "geometry": {"type": "Point", "coordinates": [85.33295, 28.158022]}, "properties": {"chainage_km": 40.2, "bank": "L", "obs": 70.2, "model_1d": 39.4, "model_2d": 76.9, "model": 76.9, "diff": 6.7, "quality": "ok", "domain": "2d"}}, {"type": "Feature", "geometry": {"type": "Point", "coordinates": [85.331585, 28.15694]}, "properties": {"chainage_km": 40.4, "bank": "L", "obs": 108.9, "model_1d": 38.4, "model_2d": 86.2, "model": 86.2, "diff": -22.7, "quality": "ok", "domain": "2d"}}, {"type": "Feature", "geometry": {"type": "Point", "coordinates": [85.330028, 28.155934]}, "properties": {"chainage_km": 40.6, "bank": "L", "obs": 79.5, "model_1d": 51.0, "model_2d": 88.8, "model": 88.8, "diff": 9.3, "quality": "ok", "domain": "2d"}}, {"type": "Feature", "geometry": {"type": "Point", "coordinates": [85.32872, 28.154596]}, "properties": {"chainage_km": 40.8, "bank": "L", "obs": 43.7, "model_1d": 39.1, "model_2d": 78.7, "model": 78.7, "diff": 35.0, "quality": "ok", "domain": "2d"}}, {"type": "Feature", "geometry": {"type": "Point", "coordinates": [85.32872, 28.154596]}, "properties": {"chainage_km": 40.8, "bank": "R", "obs": 27.3, "model_1d": 39.1, "model_2d": 78.7, "model": 78.7, "diff": 51.4, "quality": "ok", "domain": "2d"}}, {"type": "Feature", "geometry": {"type": "Point", "coordinates": [85.32731, 28.15346]}, "properties": {"chainage_km": 41.0, "bank": "L", "obs": 61.5, "model_1d": 40.2, "model_2d": 79.6, "model": 79.6, "diff": 18.1, "quality": "ok", "domain": "2d"}}, {"type": "Feature", "geometry": {"type": "Point", "coordinates": [85.32731, 28.15346]}, "properties": {"chainage_km": 41.0, "bank": "R", "obs": 71.0, "model_1d": 40.2, "model_2d": 79.6, "model": 79.6, "diff": 8.6, "quality": "ok", "domain": "2d"}}, {"type": "Feature", "geometry": {"type": "Point", "coordinates": [85.326108, 28.152091]}, "properties": {"chainage_km": 41.2, "bank": "L", "obs": 84.6, "model_1d": 37.2, "model_2d": 87.2, "model": 87.2, "diff": 2.6, "quality": "ok", "domain": "2d"}}, {"type": "Feature", "geometry": {"type": "Point", "coordinates": [85.326108, 28.152091]}, "properties": {"chainage_km": 41.2, "bank": "R", "obs": 40.8, "model_1d": 37.2, "model_2d": 87.2, "model": 87.2, "diff": 46.4, "quality": "ok", "domain": "2d"}}, {"type": "Feature", "geometry": {"type": "Point", "coordinates": [85.324507, 28.151176]}, "properties": {"chainage_km": 41.4, "bank": "L", "obs": 82.7, "model_1d": 54.8, "model_2d": 93.7, "model": 93.7, "diff": 11.0, "quality": "ok", "domain": "2d"}}, {"type": "Feature", "geometry": {"type": "Point", "coordinates": [85.324507, 28.151176]}, "properties": {"chainage_km": 41.4, "bank": "R", "obs": 103.5, "model_1d": 54.8, "model_2d": 93.7, "model": 93.7, "diff": -9.8, "quality": "ok", "domain": "2d"}}, {"type": "Feature", "geometry": {"type": "Point", "coordinates": [85.322732, 28.15061]}, "properties": {"chainage_km": 41.6, "bank": "L", "obs": 94.5, "model_1d": 48.7, "model_2d": null, "model": 48.7, "diff": -45.8, "quality": "ok", "domain": "1d"}}, {"type": "Feature", "geometry": {"type": "Point", "coordinates": [85.321197, 28.149542]}, "properties": {"chainage_km": 41.8, "bank": "L", "obs": 79.7, "model_1d": 57.0, "model_2d": null, "model": 57.0, "diff": -22.7, "quality": "ok", "domain": "1d"}}, {"type": "Feature", "geometry": {"type": "Point", "coordinates": [85.321197, 28.149542]}, "properties": {"chainage_km": 41.8, "bank": "R", "obs": 80.4, "model_1d": 57.0, "model_2d": null, "model": 57.0, "diff": -23.4, "quality": "ok", "domain": "1d"}}, {"type": "Feature", "geometry": {"type": "Point", "coordinates": [85.319687, 28.148433]}, "properties": {"chainage_km": 42.0, "bank": "L", "obs": 75.8, "model_1d": 49.3, "model_2d": null, "model": 49.3, "diff": -26.5, "quality": "ok", "domain": "1d"}}, {"type": "Feature", "geometry": {"type": "Point", "coordinates": [85.319687, 28.148433]}, "properties": {"chainage_km": 42.0, "bank": "R", "obs": 79.2, "model_1d": 49.3, "model_2d": null, "model": 49.3, "diff": -29.9, "quality": "ok", "domain": "1d"}}, {"type": "Feature", "geometry": {"type": "Point", "coordinates": [85.317901, 28.147904]}, "properties": {"chainage_km": 42.2, "bank": "L", "obs": 65.3, "model_1d": 40.5, "model_2d": null, "model": 40.5, "diff": -24.8, "quality": "ok", "domain": "1d"}}, {"type": "Feature", "geometry": {"type": "Point", "coordinates": [85.316423, 28.14674]}, "properties": {"chainage_km": 42.4, "bank": "L", "obs": 25.8, "model_1d": 53.4, "model_2d": null, "model": 53.4, "diff": 27.6, "quality": "ok", "domain": "1d"}}, {"type": "Feature", "geometry": {"type": "Point", "coordinates": [85.316423, 28.14674]}, "properties": {"chainage_km": 42.4, "bank": "R", "obs": 36.9, "model_1d": 53.4, "model_2d": null, "model": 53.4, "diff": 16.5, "quality": "ok", "domain": "1d"}}, {"type": "Feature", "geometry": {"type": "Point", "coordinates": [85.314788, 28.14589]}, "properties": {"chainage_km": 42.6, "bank": "L", "obs": 78.0, "model_1d": 40.2, "model_2d": null, "model": 40.2, "diff": -37.8, "quality": "ok", "domain": "1d"}}, {"type": "Feature", "geometry": {"type": "Point", "coordinates": [85.313364, 28.14459]}, "properties": {"chainage_km": 42.8, "bank": "L", "obs": 103.7, "model_1d": 51.2, "model_2d": null, "model": 51.2, "diff": -52.5, "quality": "ok", "domain": "1d"}}, {"type": "Feature", "geometry": {"type": "Point", "coordinates": [85.312401, 28.143134]}, "properties": {"chainage_km": 43.0, "bank": "R", "obs": 74.3, "model_1d": 44.3, "model_2d": null, "model": 44.3, "diff": -30.0, "quality": "ok", "domain": "1d"}}, {"type": "Feature", "geometry": {"type": "Point", "coordinates": [85.311301, 28.142255]}, "properties": {"chainage_km": 43.2, "bank": "R", "obs": 50.2, "model_1d": 45.0, "model_2d": null, "model": 45.0, "diff": -5.2, "quality": "ok", "domain": "1d"}}, {"type": "Feature", "geometry": {"type": "Point", "coordinates": [85.309493, 28.142439]}, "properties": {"chainage_km": 43.4, "bank": "L", "obs": 95.6, "model_1d": 51.2, "model_2d": null, "model": 51.2, "diff": -44.4, "quality": "ok", "domain": "1d"}}, {"type": "Feature", "geometry": {"type": "Point", "coordinates": [85.308076, 28.141145]}, "properties": {"chainage_km": 43.6, "bank": "L", "obs": 109.0, "model_1d": 43.3, "model_2d": null, "model": 43.3, "diff": -65.7, "quality": "ok", "domain": "1d"}}, {"type": "Feature", "geometry": {"type": "Point", "coordinates": [85.308076, 28.141145]}, "properties": {"chainage_km": 43.6, "bank": "R", "obs": 52.7, "model_1d": 43.3, "model_2d": null, "model": 43.3, "diff": -9.4, "quality": "ok", "domain": "1d"}}, {"type": "Feature", "geometry": {"type": "Point", "coordinates": [85.30665, 28.13985]}, "properties": {"chainage_km": 43.8, "bank": "L", "obs": 82.2, "model_1d": 50.8, "model_2d": null, "model": 50.8, "diff": -31.4, "quality": "ok", "domain": "1d"}}, {"type": "Feature", "geometry": {"type": "Point", "coordinates": [85.30665, 28.13985]}, "properties": {"chainage_km": 43.8, "bank": "R", "obs": 13.9, "model_1d": 50.8, "model_2d": null, "model": 50.8, "diff": 36.9, "quality": "ok", "domain": "1d"}}, {"type": "Feature", "geometry": {"type": "Point", "coordinates": [85.305241, 28.138562]}, "properties": {"chainage_km": 44.0, "bank": "L", "obs": 92.6, "model_1d": 45.3, "model_2d": null, "model": 45.3, "diff": -47.3, "quality": "ok", "domain": "1d"}}, {"type": "Feature", "geometry": {"type": "Point", "coordinates": [85.305241, 28.138562]}, "properties": {"chainage_km": 44.0, "bank": "R", "obs": 25.6, "model_1d": 45.3, "model_2d": null, "model": 45.3, "diff": 19.7, "quality": "ok", "domain": "1d"}}, {"type": "Feature", "geometry": {"type": "Point", "coordinates": [85.30456, 28.137003]}, "properties": {"chainage_km": 44.2, "bank": "L", "obs": 41.8, "model_1d": 41.7, "model_2d": null, "model": 41.7, "diff": -0.1, "quality": "ok", "domain": "1d"}}, {"type": "Feature", "geometry": {"type": "Point", "coordinates": [85.30456, 28.137003]}, "properties": {"chainage_km": 44.2, "bank": "R", "obs": 62.5, "model_1d": 41.7, "model_2d": null, "model": 41.7, "diff": -20.8, "quality": "ok", "domain": "1d"}}, {"type": "Feature", "geometry": {"type": "Point", "coordinates": [85.303481, 28.135589]}, "properties": {"chainage_km": 44.4, "bank": "L", "obs": 73.7, "model_1d": 35.3, "model_2d": null, "model": 35.3, "diff": -38.4, "quality": "ok", "domain": "1d"}}, {"type": "Feature", "geometry": {"type": "Point", "coordinates": [85.302773, 28.134048]}, "properties": {"chainage_km": 44.6, "bank": "R", "obs": 45.2, "model_1d": 28.2, "model_2d": null, "model": 28.2, "diff": -17.0, "quality": "ok", "domain": "1d"}}, {"type": "Feature", "geometry": {"type": "Point", "coordinates": [85.301423, 28.132883]}, "properties": {"chainage_km": 44.8, "bank": "L", "obs": 4.4, "model_1d": 20.6, "model_2d": null, "model": 20.6, "diff": 16.2, "quality": "ok", "domain": "1d"}}, {"type": "Feature", "geometry": {"type": "Point", "coordinates": [85.300097, 28.129757]}, "properties": {"chainage_km": 45.2, "bank": "L", "obs": 57.0, "model_1d": 77.3, "model_2d": null, "model": 77.3, "diff": 20.3, "quality": "ok", "domain": "1d"}}, {"type": "Feature", "geometry": {"type": "Point", "coordinates": [85.300097, 28.129757]}, "properties": {"chainage_km": 45.2, "bank": "R", "obs": 84.9, "model_1d": 77.3, "model_2d": null, "model": 77.3, "diff": -7.6, "quality": "ok", "domain": "1d"}}, {"type": "Feature", "geometry": {"type": "Point", "coordinates": [85.298897, 28.128387]}, "properties": {"chainage_km": 45.4, "bank": "R", "obs": 99.6, "model_1d": 35.1, "model_2d": null, "model": 35.1, "diff": -64.5, "quality": "ok", "domain": "1d"}}, {"type": "Feature", "geometry": {"type": "Point", "coordinates": [85.291781, 28.122719]}, "properties": {"chainage_km": 46.4, "bank": "L", "obs": 91.6, "model_1d": 40.4, "model_2d": null, "model": 40.4, "diff": -51.2, "quality": "ok", "domain": "1d"}}, {"type": "Feature", "geometry": {"type": "Point", "coordinates": [85.288943, 28.120133]}, "properties": {"chainage_km": 46.8, "bank": "L", "obs": 107.4, "model_1d": 63.9, "model_2d": null, "model": 63.9, "diff": -43.5, "quality": "ok", "domain": "1d"}}, {"type": "Feature", "geometry": {"type": "Point", "coordinates": [85.28774, 28.11877]}, "properties": {"chainage_km": 47.0, "bank": "L", "obs": 98.8, "model_1d": 62.0, "model_2d": null, "model": 62.0, "diff": -36.8, "quality": "ok", "domain": "1d"}}, {"type": "Feature", "geometry": {"type": "Point", "coordinates": [85.28774, 28.11877]}, "properties": {"chainage_km": 47.0, "bank": "R", "obs": 67.1, "model_1d": 62.0, "model_2d": null, "model": 62.0, "diff": -5.1, "quality": "ok", "domain": "1d"}}, {"type": "Feature", "geometry": {"type": "Point", "coordinates": [85.28609, 28.117935]}, "properties": {"chainage_km": 47.2, "bank": "L", "obs": 86.9, "model_1d": 35.3, "model_2d": null, "model": 35.3, "diff": -51.6, "quality": "ok", "domain": "1d"}}, {"type": "Feature", "geometry": {"type": "Point", "coordinates": [85.28609, 28.117935]}, "properties": {"chainage_km": 47.2, "bank": "R", "obs": 54.5, "model_1d": 35.3, "model_2d": null, "model": 35.3, "diff": -19.2, "quality": "ok", "domain": "1d"}}, {"type": "Feature", "geometry": {"type": "Point", "coordinates": [85.284441, 28.117101]}, "properties": {"chainage_km": 47.4, "bank": "L", "obs": 15.2, "model_1d": 40.0, "model_2d": null, "model": 40.0, "diff": 24.8, "quality": "ok", "domain": "1d"}}, {"type": "Feature", "geometry": {"type": "Point", "coordinates": [85.282922, 28.116019]}, "properties": {"chainage_km": 47.6, "bank": "L", "obs": 60.0, "model_1d": 44.5, "model_2d": null, "model": 44.5, "diff": -15.5, "quality": "ok", "domain": "1d"}}, {"type": "Feature", "geometry": {"type": "Point", "coordinates": [85.282158, 28.114493]}, "properties": {"chainage_km": 47.8, "bank": "L", "obs": 109.0, "model_1d": 62.7, "model_2d": null, "model": 62.7, "diff": -46.3, "quality": "ok", "domain": "1d"}}, {"type": "Feature", "geometry": {"type": "Point", "coordinates": [85.281176, 28.11305]}, "properties": {"chainage_km": 48.0, "bank": "L", "obs": 80.1, "model_1d": 61.7, "model_2d": null, "model": 61.7, "diff": -18.4, "quality": "ok", "domain": "1d"}}, {"type": "Feature", "geometry": {"type": "Point", "coordinates": [85.281176, 28.11305]}, "properties": {"chainage_km": 48.0, "bank": "R", "obs": 62.2, "model_1d": 61.7, "model_2d": null, "model": 61.7, "diff": -0.5, "quality": "ok", "domain": "1d"}}, {"type": "Feature", "geometry": {"type": "Point", "coordinates": [85.27961, 28.112125]}, "properties": {"chainage_km": 48.2, "bank": "L", "obs": 75.3, "model_1d": 64.5, "model_2d": null, "model": 64.5, "diff": -10.8, "quality": "ok", "domain": "1d"}}, {"type": "Feature", "geometry": {"type": "Point", "coordinates": [85.27961, 28.112125]}, "properties": {"chainage_km": 48.2, "bank": "R", "obs": 32.3, "model_1d": 64.5, "model_2d": null, "model": 64.5, "diff": 32.2, "quality": "ok", "domain": "1d"}}, {"type": "Feature", "geometry": {"type": "Point", "coordinates": [85.27827, 28.111183]}, "properties": {"chainage_km": 48.4, "bank": "L", "obs": 74.0, "model_1d": 58.3, "model_2d": null, "model": 58.3, "diff": -15.7, "quality": "ok", "domain": "1d"}}, {"type": "Feature", "geometry": {"type": "Point", "coordinates": [85.276848, 28.110201]}, "properties": {"chainage_km": 48.6, "bank": "L", "obs": 98.1, "model_1d": 68.3, "model_2d": null, "model": 68.3, "diff": -29.8, "quality": "ok", "domain": "1d"}}, {"type": "Feature", "geometry": {"type": "Point", "coordinates": [85.271206, 28.105323]}, "properties": {"chainage_km": 49.4, "bank": "L", "obs": 55.4, "model_1d": 65.1, "model_2d": null, "model": 65.1, "diff": 9.7, "quality": "ok", "domain": "1d"}}, {"type": "Feature", "geometry": {"type": "Point", "coordinates": [85.269786, 28.104037]}, "properties": {"chainage_km": 49.6, "bank": "R", "obs": 92.5, "model_1d": 42.6, "model_2d": null, "model": 42.6, "diff": -49.9, "quality": "ok", "domain": "1d"}}, {"type": "Feature", "geometry": {"type": "Point", "coordinates": [85.268185, 28.103121]}, "properties": {"chainage_km": 49.8, "bank": "L", "obs": 51.8, "model_1d": 65.1, "model_2d": null, "model": 65.1, "diff": 13.3, "quality": "ok", "domain": "1d"}}, {"type": "Feature", "geometry": {"type": "Point", "coordinates": [85.268185, 28.103121]}, "properties": {"chainage_km": 49.8, "bank": "R", "obs": 89.0, "model_1d": 65.1, "model_2d": null, "model": 65.1, "diff": -23.9, "quality": "ok", "domain": "1d"}}, {"type": "Feature", "geometry": {"type": "Point", "coordinates": [85.266765, 28.101829]}, "properties": {"chainage_km": 50.0, "bank": "L", "obs": 126.0, "model_1d": 59.6, "model_2d": null, "model": 59.6, "diff": -66.4, "quality": "ok", "domain": "1d"}}, {"type": "Feature", "geometry": {"type": "Point", "coordinates": [85.265347, 28.100533]}, "properties": {"chainage_km": 50.2, "bank": "L", "obs": 67.0, "model_1d": 64.1, "model_2d": null, "model": 64.1, "diff": -2.9, "quality": "ok", "domain": "1d"}}, {"type": "Feature", "geometry": {"type": "Point", "coordinates": [85.265347, 28.100533]}, "properties": {"chainage_km": 50.2, "bank": "R", "obs": 40.6, "model_1d": 64.1, "model_2d": null, "model": 64.1, "diff": 23.5, "quality": "ok", "domain": "1d"}}, {"type": "Feature", "geometry": {"type": "Point", "coordinates": [85.26394, 28.099241]}, "properties": {"chainage_km": 50.4, "bank": "L", "obs": 80.9, "model_1d": 48.6, "model_2d": null, "model": 48.6, "diff": -32.3, "quality": "ok", "domain": "1d"}}, {"type": "Feature", "geometry": {"type": "Point", "coordinates": [85.26394, 28.099241]}, "properties": {"chainage_km": 50.4, "bank": "R", "obs": 98.5, "model_1d": 48.6, "model_2d": null, "model": 48.6, "diff": -49.9, "quality": "ok", "domain": "1d"}}, {"type": "Feature", "geometry": {"type": "Point", "coordinates": [85.262942, 28.097792]}, "properties": {"chainage_km": 50.6, "bank": "R", "obs": 55.6, "model_1d": 74.1, "model_2d": null, "model": 74.1, "diff": 18.5, "quality": "ok", "domain": "1d"}}, {"type": "Feature", "geometry": {"type": "Point", "coordinates": [85.107715, 27.860192]}, "properties": {"chainage_km": 89.6, "bank": "R", "obs": 20.7, "model_1d": 18.3, "model_2d": null, "model": 18.3, "diff": -2.4, "quality": "ok", "domain": "1d"}}]}